<?xml version="1.0" encoding="UTF-8"?>
<kml xmlns="http://www.opengis.net/kml/2.2" xmlns:gx="http://www.google.com/kml/ext/2.2">
    <Document id="71385">
        <Style id="71830">
            <IconStyle id="71831">
                <color>ff0000ff</color>
                <colorMode>normal</colorMode>
                <scale>1</scale>
                <heading>0</heading>
                <Icon id="71832">
                    <href>http://maps.google.com/mapfiles/kml/pushpin/ylw-pushpin.png</href>
                </Icon>
            </IconStyle>
            <LineStyle id="71833">
                <color>ff0000ff</color>
                <colorMode>normal</colorMode>
                <width>5</width>
            </LineStyle>
        </Style>
        <Style id="71872">
            <IconStyle id="71874">
                <colorMode>normal</colorMode>
                <scale>1</scale>
                <heading>0</heading>
                <Icon id="71875">
                    <href>http://maps.google.com/mapfiles/kml/shapes/placemark_circle.png</href>
                </Icon>
            </IconStyle>
            <LabelStyle id="71873">
                <colorMode>normal</colorMode>
                <scale>0.0</scale>
            </LabelStyle>
        </Style>
        <open>1</open>
        <Placemark id="71387">
            <name>MultiLine</name>
            <styleUrl>#71830</styleUrl>
            <MultiGeometry id="71386">
                <LineString id="71388">
                    <coordinates>13.035062560000002,53.48238675999999,0.0 13.03503881,53.48241344000001,0.0 13.034862220000003,53.48259966999999,0.0</coordinates>
                </LineString>
                <LineString id="71390">
                    <coordinates>13.03518088,53.482258689999995,0.0 13.035062560000002,53.48238675999999,0.0</coordinates>
                </LineString>
                <LineString id="71392">
                    <coordinates>13.034862220000003,53.48259966999999,0.0 13.034955130000002,53.48262097999999,0.0</coordinates>
                </LineString>
                <LineString id="71394">
                    <coordinates>13.034955130000002,53.48262097999999,0.0 13.035151499999998,53.482656080000005,0.0</coordinates>
                </LineString>
                <LineString id="71396">
                    <coordinates>13.03570685,53.481355549999996,0.0 13.035707879999999,53.48134568999999,0.0</coordinates>
                </LineString>
                <LineString id="71398">
                    <coordinates>13.085736359999997,53.50178518,0.0 13.085737900000002,53.50178767,0.0</coordinates>
                </LineString>
                <LineString id="71400">
                    <coordinates>12.945031659999998,53.49010997999999,0.0 12.94513864,53.4902081,0.0</coordinates>
                </LineString>
                <LineString id="71402">
                    <coordinates>12.946125119999998,53.49245814,0.0 12.946315969999999,53.492686019999994,0.0 12.94637992,53.49428952999999,0.0 12.94675802,53.49414832,0.0 12.947635310000003,53.494185300000005,0.0 12.94769774,53.49435722,0.0</coordinates>
                </LineString>
                <LineString id="71404">
                    <coordinates>12.94513864,53.4902081,0.0 12.945203450000001,53.49027116,0.0 12.9455976,53.49067501999998,0.0 12.94578428,53.49138641999999,0.0 12.945760599999998,53.49196703,0.0 12.945749619999999,53.492009859999996,0.0 12.94585543,53.49213621,0.0</coordinates>
                </LineString>
                <LineString id="71406">
                    <coordinates>12.94585543,53.49213621,0.0 12.946125119999998,53.49245814,0.0</coordinates>
                </LineString>
                <LineString id="71408">
                    <coordinates>12.946125119999998,53.49245814,0.0 12.946315969999999,53.492686019999994,0.0 12.94637992,53.49428952999999,0.0 12.94675802,53.49414832,0.0 12.947635310000003,53.494185300000005,0.0 12.94769774,53.49435722,0.0</coordinates>
                </LineString>
                <LineString id="71410">
                    <coordinates>12.94513864,53.4902081,0.0 12.945203450000001,53.49027116,0.0 12.9455976,53.49067501999998,0.0 12.94578428,53.49138641999999,0.0 12.945760599999998,53.49196703,0.0 12.945749619999999,53.492009859999996,0.0 12.94585543,53.49213621,0.0</coordinates>
                </LineString>
                <LineString id="71412">
                    <coordinates>13.035669670000003,53.48188801,0.0 13.03566609,53.481937939999995,0.0 13.03566987,53.48197975,0.0 13.035678869999998,53.48200288000001,0.0 13.03569453,53.48203444000001,0.0 13.035714270000001,53.48205948999999,0.0 13.03583362,53.48215626999999,0.0 13.03586357,53.48217156,0.0</coordinates>
                </LineString>
                <LineString id="71414">
                    <coordinates>13.03586357,53.48217156,0.0 13.03594675,53.48221792999999,0.0</coordinates>
                </LineString>
                <LineString id="71416">
                    <coordinates>13.03594675,53.48221792999999,0.0 13.036195530000002,53.48235321000001,0.0 13.03621337,53.48236278000001,0.0</coordinates>
                </LineString>
                <LineString id="71418">
                    <coordinates>13.03621337,53.48236278000001,0.0 13.036356269999999,53.48244042999999,0.0</coordinates>
                </LineString>
                <LineString id="71420">
                    <coordinates>13.036909359999997,53.48273614,0.0 13.036827730000002,53.48278180000001,0.0</coordinates>
                </LineString>
                <LineString id="71422">
                    <coordinates>13.036356269999999,53.48244042999999,0.0 13.036690639999998,53.48262012,0.0 13.036909359999997,53.48273614,0.0</coordinates>
                </LineString>
                <LineString id="71424">
                    <coordinates>13.036760039999999,53.48276002999999,0.0 13.036734289999998,53.48274614,0.0 13.03635229,53.48254141999999,0.0 13.036290599999996,53.4825094,0.0 13.03614627,53.48256752999999,0.0 13.03604018,53.482482329999996,0.0 13.03595641,53.482514380000005,0.0</coordinates>
                </LineString>
                <LineString id="71426">
                    <coordinates>13.036909359999997,53.48273614,0.0 13.036955589999998,53.48275906,0.0</coordinates>
                </LineString>
                <LineString id="71428">
                    <coordinates>13.036955589999998,53.48275906,0.0 13.03717575,53.48287594,0.0 13.037490660000001,53.4830391,0.0</coordinates>
                </LineString>
                <LineString id="71430">
                    <coordinates>13.037490660000001,53.4830391,0.0 13.037505329999998,53.48304661,0.0</coordinates>
                </LineString>
                <LineString id="71432">
                    <coordinates>13.037490660000001,53.4830391,0.0 13.03773505,53.48289538,0.0</coordinates>
                </LineString>
                <LineString id="71434">
                    <coordinates>13.03795864,53.48329561,0.0 13.03816764,53.48316101,0.0 13.038251180000001,53.48320638999999,0.0</coordinates>
                </LineString>
                <LineString id="71436">
                    <coordinates>13.037505329999998,53.48304661,0.0 13.037714439999998,53.483155569999994,0.0 13.03795864,53.48329561,0.0</coordinates>
                </LineString>
                <LineString id="71438">
                    <coordinates>13.03795864,53.48329561,0.0 13.0382434,53.48342914999999,0.0</coordinates>
                </LineString>
                <LineString id="71440">
                    <coordinates>13.03824571,53.48345454,0.0 13.038142450000002,53.48352041,0.0</coordinates>
                </LineString>
                <LineString id="71442">
                    <coordinates>13.038142450000002,53.48352041,0.0 13.038159679999996,53.48353055,0.0</coordinates>
                </LineString>
                <LineString id="71444">
                    <coordinates>13.0272162,53.515530010000006,0.0 13.02769655,53.51541589,0.0 13.028387470000002,53.51523987,0.0</coordinates>
                </LineString>
                <LineString id="71446">
                    <coordinates>13.02699698,53.51558184,0.0 13.0272162,53.515530010000006,0.0</coordinates>
                </LineString>
                <LineString id="71448">
                    <coordinates>13.046271229999999,53.50993416,0.0 13.0463815,53.50988614999999,0.0 13.04643855,53.50984783,0.0 13.046742699999998,53.50963343000001,0.0 13.04677749,53.509611299999996,0.0 13.047578669999998,53.50925998,0.0</coordinates>
                </LineString>
                <LineString id="71450">
                    <coordinates>13.04799275,53.509085809999995,0.0 13.048197809999998,53.509000409999985,0.0 13.048810030000002,53.50873331,0.0</coordinates>
                </LineString>
                <LineString id="71452">
                    <coordinates>13.047578669999998,53.50925998,0.0 13.04799275,53.509085809999995,0.0</coordinates>
                </LineString>
                <LineString id="71454">
                    <coordinates>13.02629945,53.51575177,0.0 13.02699698,53.51558184,0.0</coordinates>
                </LineString>
                <LineString id="71456">
                    <coordinates>13.03824571,53.48345454,0.0 13.03826728,53.483440519999995,0.0</coordinates>
                </LineString>
                <LineString id="71458">
                    <coordinates>13.0382434,53.48342914999999,0.0 13.03826728,53.483440519999995,0.0</coordinates>
                </LineString>
                <LineString id="71460">
                    <coordinates>13.03065664,53.48146625999999,0.0 13.030702609999999,53.48146624999998,0.0</coordinates>
                </LineString>
                <LineString id="71462">
                    <coordinates>13.00866822,53.51996652,0.0 13.009058139999999,53.519984689999994,0.0 13.00918372,53.51996654,0.0 13.009825880000001,53.51994084999999,0.0 13.01058017,53.51993978,0.0 13.011338039999998,53.519963239999996,0.0 13.01186383,53.51995756000001,0.0 13.01210549,53.51993839000001,0.0 13.01287147,53.519868159999994,0.0 13.013144389999999,53.51983170999999,0.0 13.013239420000001,53.51981187999999,0.0 13.01334067,53.51978832000001,0.0 13.01342754,53.519762919999984,0.0 13.013626510000002,53.51969773999999,0.0 13.01412551,53.519490819999994,0.0</coordinates>
                </LineString>
                <LineString id="71464">
                    <coordinates>13.016257079999999,53.51889263999999,0.0 13.01644813,53.51883138000001,0.0 13.016582219999998,53.51878666,0.0 13.016621840000003,53.51878058,0.0 13.016978759999999,53.51867334,0.0 13.01763524,53.51845456,0.0 13.018299689999997,53.518237729999996,0.0 13.018956469999997,53.51802294,0.0 13.01961615,53.517799729999986,0.0 13.020281159999996,53.51758416999999,0.0 13.020937949999999,53.51735656999999,0.0 13.02181443,53.517060369999996,0.0 13.022299579999999,53.51690538,0.0</coordinates>
                </LineString>
                <LineString id="71466">
                    <coordinates>13.01412551,53.519490819999994,0.0 13.01413854,53.51948274000001,0.0 13.01436848,53.51942094999999,0.0 13.01506275,53.51923457000001,0.0</coordinates>
                </LineString>
                <LineString id="71468">
                    <coordinates>13.0225831,53.51680313000001,0.0 13.02258948,53.51681008,0.0</coordinates>
                </LineString>
                <LineString id="71470">
                    <coordinates>13.022467339999999,53.51686138,0.0 13.022486460000001,53.51685426,0.0 13.022511829999997,53.51682808999998,0.0 13.022580759999999,53.51680046,0.0</coordinates>
                </LineString>
                <LineString id="71472">
                    <coordinates>13.02512673,53.51600985,0.0 13.02551362,53.51594003,0.0 13.02629945,53.51575177,0.0</coordinates>
                </LineString>
                <LineString id="71474">
                    <coordinates>12.944581,53.42924713000001,0.0 12.9447276,53.42927041,0.0 12.944870609999999,53.42929861999999,0.0 12.9451753,53.429362209999994,0.0</coordinates>
                </LineString>
                <LineString id="71476">
                    <coordinates>12.94445129,53.42923149999999,0.0 12.944581,53.42924713000001,0.0</coordinates>
                </LineString>
                <LineString id="71478">
                    <coordinates>12.944060770000002,53.42920972000001,0.0 12.944059639999997,53.429234429999994,0.0</coordinates>
                </LineString>
                <LineString id="71480">
                    <coordinates>12.944059639999997,53.429234429999994,0.0 12.94404802,53.42936439,0.0 12.94405749,53.4294431,0.0 12.944081939999998,53.42949521999999,0.0 12.94414452,53.42956843000002,0.0</coordinates>
                </LineString>
                <LineString id="71482">
                    <coordinates>12.94425019,53.429641999999994,0.0 12.944366749999999,53.4297,0.0 12.944463769999999,53.429743079999994,0.0</coordinates>
                </LineString>
                <LineString id="71484">
                    <coordinates>12.944661009999999,53.429822859999994,0.0 12.944676820000002,53.429829260000005,0.0 12.944822899999998,53.42987937,0.0</coordinates>
                </LineString>
                <LineString id="71486">
                    <coordinates>12.94414452,53.42956843000002,0.0 12.944213439999997,53.42962086,0.0 12.94425019,53.429641999999994,0.0</coordinates>
                </LineString>
                <LineString id="71488">
                    <coordinates>12.944822899999998,53.42987937,0.0 12.945072409999998,53.429972899999996,0.0</coordinates>
                </LineString>
                <LineString id="71490">
                    <coordinates>12.944463769999999,53.429743079999994,0.0 12.944565190000002,53.42978361000001,0.0 12.944661009999999,53.429822859999994,0.0</coordinates>
                </LineString>
                <LineString id="71492">
                    <coordinates>12.945500110000001,53.43012800999999,0.0 12.945582009999999,53.43015583999999,0.0 12.945759829999998,53.43024505999999,0.0</coordinates>
                </LineString>
                <LineString id="71494">
                    <coordinates>12.945759829999998,53.43024505999999,0.0 12.94589747,53.43031849999999,0.0 12.94614592,53.43044215,0.0 12.94626328,53.430524919999996,0.0 12.94637789,53.43061715000001,0.0</coordinates>
                </LineString>
                <LineString id="71496">
                    <coordinates>12.945072409999998,53.429972899999996,0.0 12.945336549999999,53.430068889999994,0.0 12.945500110000001,53.43012800999999,0.0</coordinates>
                </LineString>
                <LineString id="71498">
                    <coordinates>12.94549881,53.429426119999995,0.0 12.945528000000001,53.42942989,0.0</coordinates>
                </LineString>
                <LineString id="71500">
                    <coordinates>12.945638800000001,53.42943772,0.0 12.94569666,53.429442349999995,0.0 12.94577231,53.429444030000006,0.0</coordinates>
                </LineString>
                <LineString id="71502">
                    <coordinates>12.9451753,53.429362209999994,0.0 12.945253910000002,53.429394269999996,0.0</coordinates>
                </LineString>
                <LineString id="71504">
                    <coordinates>12.945528000000001,53.42942989,0.0 12.945638800000001,53.42943772,0.0</coordinates>
                </LineString>
                <LineString id="71506">
                    <coordinates>12.94663178,53.42951037,0.0 12.94678573,53.42952675,0.0</coordinates>
                </LineString>
                <LineString id="71508">
                    <coordinates>12.94577231,53.429444030000006,0.0 12.945904259999999,53.42943928999999,0.0 12.94599915,53.42943942,0.0</coordinates>
                </LineString>
                <LineString id="71510">
                    <coordinates>12.94678573,53.42952675,0.0 12.94697496,53.42954523999999,0.0 12.947028589999999,53.42955411999999,0.0</coordinates>
                </LineString>
                <LineString id="71512">
                    <coordinates>12.94599915,53.42943942,0.0 12.946127939999998,53.429448470000004,0.0 12.94635343,53.429489769999996,0.0 12.94646516,53.42949800999999,0.0 12.94663178,53.42951037,0.0</coordinates>
                </LineString>
                <LineString id="71514">
                    <coordinates>12.949397100000002,53.429641450000005,0.0 12.94933083,53.429626940000006,0.0</coordinates>
                </LineString>
                <LineString id="71516">
                    <coordinates>12.94933083,53.429626940000006,0.0 12.94920599,53.429610139999994,0.0 12.949061129999999,53.42959734,0.0</coordinates>
                </LineString>
                <LineString id="71518">
                    <coordinates>12.947028589999999,53.42955411999999,0.0 12.94719171,53.42958283000001,0.0 12.947269669999999,53.42959258999999,0.0 12.94753432,53.429625650000006,0.0</coordinates>
                </LineString>
                <LineString id="71520">
                    <coordinates>12.94816498,53.429636220000006,0.0 12.94817114,53.42963585,0.0</coordinates>
                </LineString>
                <LineString id="71522">
                    <coordinates>12.94817114,53.42963585,0.0 12.948278169999998,53.42963071,0.0 12.94860928,53.42960543,0.0</coordinates>
                </LineString>
                <LineString id="71524">
                    <coordinates>12.94885615,53.42958898,0.0 12.948954689999999,53.429589929999985,0.0 12.949061129999999,53.42959734,0.0</coordinates>
                </LineString>
                <LineString id="71526">
                    <coordinates>12.94770736,53.42963751,0.0 12.947745780000002,53.42964016,0.0</coordinates>
                </LineString>
                <LineString id="71528">
                    <coordinates>12.947745780000002,53.42964016,0.0 12.947885359999999,53.429651039999996,0.0 12.94816498,53.429636220000006,0.0</coordinates>
                </LineString>
                <LineString id="71530">
                    <coordinates>12.94884742,53.42958981,0.0 12.94885615,53.42958898,0.0</coordinates>
                </LineString>
                <LineString id="71532">
                    <coordinates>12.94860928,53.42960543,0.0 12.94879028,53.42959523999999,0.0 12.94884742,53.42958981,0.0</coordinates>
                </LineString>
                <LineString id="71534">
                    <coordinates>12.94530435,53.42940084999999,0.0 12.94549881,53.429426119999995,0.0</coordinates>
                </LineString>
                <LineString id="71536">
                    <coordinates>12.945253910000002,53.429394269999996,0.0 12.94530435,53.42940084999999,0.0</coordinates>
                </LineString>
                <LineString id="71538">
                    <coordinates>12.949421389999998,53.42964678999999,0.0 12.949403099999998,53.429642779999995,0.0</coordinates>
                </LineString>
                <LineString id="71540">
                    <coordinates>12.94753432,53.429625650000006,0.0 12.94770736,53.42963751,0.0</coordinates>
                </LineString>
                <LineString id="71542">
                    <coordinates>12.949403099999998,53.429642779999995,0.0 12.949397100000002,53.429641450000005,0.0</coordinates>
                </LineString>
                <LineString id="71544">
                    <coordinates>12.944060770000002,53.42920972000001,0.0 12.944158250000001,53.42921335,0.0</coordinates>
                </LineString>
                <LineString id="71546">
                    <coordinates>12.944158250000001,53.42921335,0.0 12.94418747,53.42921444000001,0.0</coordinates>
                </LineString>
                <LineString id="71548">
                    <coordinates>12.94418747,53.42921444000001,0.0 12.9442678,53.429217539999996,0.0 12.944367,53.42922329,0.0</coordinates>
                </LineString>
                <LineString id="71550">
                    <coordinates>12.944367299999998,53.429223379999996,0.0 12.94440013,53.42922522,0.0 12.94445129,53.42923149999999,0.0</coordinates>
                </LineString>
                <LineString id="71552">
                    <coordinates>12.944367,53.42922329,0.0 12.944367299999998,53.429223379999996,0.0</coordinates>
                </LineString>
                <LineString id="71554">
                    <coordinates>13.03015315,53.48146838,0.0 13.03024553,53.48146720999999,0.0</coordinates>
                </LineString>
                <LineString id="71556">
                    <coordinates>13.02512673,53.51600985,0.0 13.02504899,53.51602479999998,0.0 13.02457497,53.5161551,0.0 13.024506239999997,53.51618135999998,0.0 13.02425119,53.516261,0.0 13.02391195,53.51636825999999,0.0 13.023232469999998,53.51658301999999,0.0 13.023149029999997,53.516609469999985,0.0 13.022983790000001,53.51666167,0.0 13.02279203,53.51672615,0.0 13.022612969999999,53.516792169999995,0.0 13.02259199,53.51680271000001,0.0 13.02258948,53.51681008,0.0</coordinates>
                </LineString>
                <LineString id="71558">
                    <coordinates>13.022299579999999,53.51690538,0.0 13.02233922,53.516909229999996,0.0 13.022467339999999,53.51686138,0.0</coordinates>
                </LineString>
                <LineString id="71560">
                    <coordinates>13.02863089,53.48147330999999,0.0 13.02882391,53.4814724,0.0</coordinates>
                </LineString>
                <LineString id="71562">
                    <coordinates>13.02882391,53.4814724,0.0 13.028960599999998,53.48147641,0.0</coordinates>
                </LineString>
                <LineString id="71564">
                    <coordinates>13.028960599999998,53.48147641,0.0 13.029164130000002,53.48147879999999,0.0</coordinates>
                </LineString>
                <LineString id="71566">
                    <coordinates>13.029610439999999,53.48141968,0.0 13.029615839999998,53.48148105,0.0</coordinates>
                </LineString>
                <LineString id="71568">
                    <coordinates>13.02897593,53.48141197999999,0.0 13.02906899,53.4814154,0.0 13.029296769999998,53.48141979999999,0.0 13.029471519999996,53.48142185999998,0.0 13.029610439999999,53.48141968,0.0</coordinates>
                </LineString>
                <LineString id="71570">
                    <coordinates>13.02947821,53.48148316999999,0.0 13.029615839999998,53.48148105,0.0</coordinates>
                </LineString>
                <LineString id="71572">
                    <coordinates>13.029164130000002,53.48147879999999,0.0 13.02947821,53.48148316999999,0.0</coordinates>
                </LineString>
                <LineString id="71574">
                    <coordinates>13.029615839999998,53.48148105,0.0 13.02973364,53.48147917,0.0</coordinates>
                </LineString>
                <LineString id="71576">
                    <coordinates>13.02973364,53.48147917,0.0 13.029923469999998,53.48147356,0.0 13.03005491,53.48147038,0.0</coordinates>
                </LineString>
                <LineString id="71578">
                    <coordinates>13.03005491,53.48147038,0.0 13.03015315,53.48146838,0.0</coordinates>
                </LineString>
                <LineString id="71580">
                    <coordinates>13.03024553,53.48146720999999,0.0 13.03065664,53.48146625999999,0.0</coordinates>
                </LineString>
                <LineString id="71582">
                    <coordinates>13.03071641,53.48146629000001,0.0 13.03101873,53.48146689,0.0</coordinates>
                </LineString>
                <LineString id="71584">
                    <coordinates>13.03112028,53.481467710000004,0.0 13.031137729999998,53.481467820000006,0.0</coordinates>
                </LineString>
                <LineString id="71586">
                    <coordinates>13.03101873,53.48146689,0.0 13.03112028,53.481467710000004,0.0</coordinates>
                </LineString>
                <LineString id="71588">
                    <coordinates>13.031137729999998,53.481467820000006,0.0 13.03169461,53.481472559999986,0.0</coordinates>
                </LineString>
                <LineString id="71590">
                    <coordinates>13.03169461,53.481472559999986,0.0 13.031877689999998,53.481473349999995,0.0</coordinates>
                </LineString>
                <LineString id="71592">
                    <coordinates>13.03197886,53.481471490000004,0.0 13.031964069999999,53.481386109999995,0.0</coordinates>
                </LineString>
                <LineString id="71594">
                    <coordinates>13.031877689999998,53.481473349999995,0.0 13.03197886,53.481471490000004,0.0</coordinates>
                </LineString>
                <LineString id="71596">
                    <coordinates>13.031964069999999,53.481386109999995,0.0 13.031952279999997,53.48119793,0.0 13.03198384,53.48119602999999,0.0 13.03194568,53.481005849999995,0.0 13.032072049999998,53.480997849999994,0.0</coordinates>
                </LineString>
                <LineString id="71598">
                    <coordinates>13.03197886,53.481471490000004,0.0 13.0320019,53.48147105999999,0.0</coordinates>
                </LineString>
                <LineString id="71600">
                    <coordinates>13.0320019,53.48147105999999,0.0 13.032035609999998,53.48147035,0.0</coordinates>
                </LineString>
                <LineString id="71602">
                    <coordinates>13.032035609999998,53.48147035,0.0 13.03217509,53.48147299000001,0.0</coordinates>
                </LineString>
                <LineString id="71604">
                    <coordinates>13.03217509,53.48147299000001,0.0 13.032535550000002,53.48146797,0.0</coordinates>
                </LineString>
                <LineString id="71606">
                    <coordinates>13.032535550000002,53.48146797,0.0 13.03289022,53.48146422999999,0.0</coordinates>
                </LineString>
                <LineString id="71608">
                    <coordinates>13.03289022,53.48146422999999,0.0 13.033151869999998,53.48146122999999,0.0</coordinates>
                </LineString>
                <LineString id="71610">
                    <coordinates>13.033151869999998,53.48146122999999,0.0 13.033374749999998,53.48145814999999,0.0 13.03345502,53.4814585,0.0</coordinates>
                </LineString>
                <LineString id="71612">
                    <coordinates>13.03345502,53.4814585,0.0 13.033616030000001,53.481456419999994,0.0 13.033998789999998,53.481449549999994,0.0 13.034039320000002,53.48144963000001,0.0</coordinates>
                </LineString>
                <LineString id="71614">
                    <coordinates>13.034039320000002,53.48144963000001,0.0 13.03419843,53.48144854000001,0.0</coordinates>
                </LineString>
                <LineString id="71616">
                    <coordinates>13.03419843,53.48144854000001,0.0 13.03441053,53.48144685,0.0</coordinates>
                </LineString>
                <LineString id="71618">
                    <coordinates>13.03441053,53.48144685,0.0 13.034433439999999,53.481446649999995,0.0</coordinates>
                </LineString>
                <LineString id="71620">
                    <coordinates>13.035099259999999,53.48144021999999,0.0 13.03514581,53.48143981,0.0</coordinates>
                </LineString>
                <LineString id="71622">
                    <coordinates>13.034433439999999,53.481446649999995,0.0 13.03456217,53.48144476,0.0 13.034731640000002,53.48144412,0.0 13.03491607,53.481441769999996,0.0</coordinates>
                </LineString>
                <LineString id="71624">
                    <coordinates>13.03514581,53.48143981,0.0 13.035142349999997,53.481379950000004,0.0</coordinates>
                </LineString>
                <LineString id="71626">
                    <coordinates>13.03491607,53.481441769999996,0.0 13.035099259999999,53.48144021999999,0.0</coordinates>
                </LineString>
                <LineString id="71628">
                    <coordinates>13.035142349999997,53.481379950000004,0.0 13.035463619999998,53.48137066000001,0.0 13.03549522,53.48136614,0.0 13.035528089999998,53.481365110000006,0.0 13.03555277,53.48136522999999,0.0 13.0355697,53.48135515,0.0 13.03559577,53.48133909999999,0.0</coordinates>
                </LineString>
                <LineString id="71630">
                    <coordinates>13.03559577,53.48133909999999,0.0 13.03570685,53.481355549999996,0.0</coordinates>
                </LineString>
                <LineString id="71632">
                    <coordinates>13.035707879999999,53.48134568999999,0.0 13.03570833,53.48134162,0.0</coordinates>
                </LineString>
                <LineString id="71634">
                    <coordinates>13.03570833,53.48134162,0.0 13.0357274,53.48119716000001,0.0</coordinates>
                </LineString>
                <LineString id="71636">
                    <coordinates>13.0357274,53.48119716000001,0.0 13.035733389999999,53.48113026999999,0.0 13.035736809999998,53.48110671,0.0</coordinates>
                </LineString>
                <LineString id="71638">
                    <coordinates>13.035736809999998,53.48110671,0.0 13.035740839999999,53.48107123999999,0.0</coordinates>
                </LineString>
                <LineString id="71640">
                    <coordinates>13.035740839999999,53.48107123999999,0.0 13.035747949999998,53.48100741999999,0.0</coordinates>
                </LineString>
                <LineString id="71642">
                    <coordinates>13.03570685,53.481355549999996,0.0 13.035697430000003,53.4814704,0.0 13.03569361,53.48150741,0.0</coordinates>
                </LineString>
                <LineString id="71644">
                    <coordinates>13.03569361,53.48150741,0.0 13.03568997,53.481667910000006,0.0</coordinates>
                </LineString>
                <LineString id="71646">
                    <coordinates>13.03568997,53.481667910000006,0.0 13.03567072,53.48187436,0.0</coordinates>
                </LineString>
                <LineString id="71648">
                    <coordinates>13.03566937,53.48188802,0.0 13.035542110000002,53.48188625,0.0</coordinates>
                </LineString>
                <LineString id="71650">
                    <coordinates>13.035542110000002,53.48188625,0.0 13.035523729999998,53.481919359999985,0.0 13.03549257,53.48196432999999,0.0 13.035446979999998,53.48200816999999,0.0 13.035398089999997,53.48205217,0.0 13.03528052,53.482159380000006,0.0</coordinates>
                </LineString>
                <LineString id="71652">
                    <coordinates>13.03528052,53.482159380000006,0.0 13.03518088,53.482258689999995,0.0</coordinates>
                </LineString>
                <LineString id="71654">
                    <coordinates>13.048810030000002,53.50873331,0.0 13.04942424,53.50846977,0.0 13.05010148,53.50818812999999,0.0 13.050716930000002,53.50792792,0.0 13.05149124,53.50759877999999,0.0 13.05166346,53.50752510000001,0.0 13.05195422,53.50741669,0.0 13.05250787,53.507175499999995,0.0 13.053139619999998,53.50692433999999,0.0 13.053676009999998,53.506682039999994,0.0 13.053676779999998,53.50661563,0.0 13.053666029999999,53.506544629999986,0.0 13.05369033,53.50648034999999,0.0</coordinates>
                </LineString>
                <LineString id="71656">
                    <coordinates>13.05369033,53.50648034999999,0.0 13.054201870000002,53.50625916999999,0.0 13.054946039999999,53.505946189999996,0.0 13.05556263,53.50569373999999,0.0 13.05618307,53.50542949,0.0 13.056797759999997,53.50516647999999,0.0 13.05728441,53.50495342999999,0.0 13.057901229999999,53.50469135000001,0.0 13.05851618,53.50443038,0.0 13.05913115,53.50416700000001,0.0 13.059748009999998,53.503897769999995,0.0 13.060364789999998,53.50363187999999,0.0 13.060896109999998,53.503380789999994,0.0</coordinates>
                </LineString>
                <LineString id="71658">
                    <coordinates>13.069279270000001,53.49979318,0.0 13.06944427,53.49972127,0.0 13.06969549,53.499603220000004,0.0</coordinates>
                </LineString>
                <LineString id="71660">
                    <coordinates>13.072443219999998,53.49683861999999,0.0 13.072462420000003,53.49686943,0.0 13.072549259999999,53.49704566,0.0 13.072613310000001,53.497177130000004,0.0</coordinates>
                </LineString>
                <LineString id="71662">
                    <coordinates>13.07203689,53.49635711,0.0 13.072072970000002,53.49639182999999,0.0</coordinates>
                </LineString>
                <LineString id="71664">
                    <coordinates>13.07056766,53.496300870000006,0.0 13.070634529999996,53.49626250999999,0.0 13.070844129999998,53.49635075999999,0.0 13.07091657,53.49636824000001,0.0 13.07097029,53.49637581999999,0.0 13.07101362,53.496364459999995,0.0 13.07105516,53.496353209999995,0.0 13.071096769999999,53.49633890999999,0.0 13.07124486,53.49630590000001,0.0 13.07131334,53.49629535,0.0 13.07159186,53.49624941,0.0 13.071878220000002,53.49631231,0.0 13.07203689,53.49635711,0.0</coordinates>
                </LineString>
                <LineString id="71666">
                    <coordinates>13.07225099,53.49658584,0.0 13.072357380000001,53.496700440000005,0.0</coordinates>
                </LineString>
                <LineString id="71668">
                    <coordinates>13.07024461,53.49939871,0.0 13.07021403,53.49940961,0.0 13.07017716,53.499419849999995,0.0</coordinates>
                </LineString>
                <LineString id="71670">
                    <coordinates>13.070331890000002,53.499356770000006,0.0 13.070428540000002,53.49931448,0.0</coordinates>
                </LineString>
                <LineString id="71672">
                    <coordinates>13.07017716,53.499419849999995,0.0 13.070155100000001,53.49943045,0.0 13.069952139999998,53.499509239999995,0.0</coordinates>
                </LineString>
                <LineString id="71674">
                    <coordinates>13.06978313,53.49957186,0.0 13.0698226,53.49956217999999,0.0</coordinates>
                </LineString>
                <LineString id="71676">
                    <coordinates>13.070428540000002,53.49931448,0.0 13.07064244,53.49921081,0.0</coordinates>
                </LineString>
                <LineString id="71678">
                    <coordinates>13.07064244,53.49921081,0.0 13.070727869999999,53.49917536,0.0</coordinates>
                </LineString>
                <LineString id="71680">
                    <coordinates>13.070727869999999,53.49917536,0.0 13.07096051,53.499081049999994,0.0</coordinates>
                </LineString>
                <LineString id="71682">
                    <coordinates>13.07096051,53.499081049999994,0.0 13.071054679999998,53.49904341,0.0</coordinates>
                </LineString>
                <LineString id="71684">
                    <coordinates>13.07110368,53.49902289,0.0 13.0711177,53.49901702999999,0.0 13.071129099999999,53.4990092,0.0 13.071155759999998,53.49899926,0.0</coordinates>
                </LineString>
                <LineString id="71686">
                    <coordinates>13.071054679999998,53.49904341,0.0 13.07110368,53.49902289,0.0</coordinates>
                </LineString>
                <LineString id="71688">
                    <coordinates>13.071155759999998,53.49899926,0.0 13.071267709999999,53.49895642999999,0.0 13.07136429,53.498925439999994,0.0 13.071429479999999,53.49890471999998,0.0 13.071500350000003,53.49888237999999,0.0</coordinates>
                </LineString>
                <LineString id="71690">
                    <coordinates>13.071500350000003,53.49888237999999,0.0 13.071685469999998,53.4988284,0.0 13.071711810000002,53.498822080000004,0.0</coordinates>
                </LineString>
                <LineString id="71692">
                    <coordinates>13.071820369999998,53.49882101999999,0.0 13.071801190000002,53.49882958,0.0</coordinates>
                </LineString>
                <LineString id="71694">
                    <coordinates>13.071711810000002,53.498822080000004,0.0 13.07177839,53.49882775,0.0</coordinates>
                </LineString>
                <LineString id="71696">
                    <coordinates>13.07177839,53.49882775,0.0 13.071801190000002,53.49882958,0.0</coordinates>
                </LineString>
                <LineString id="71698">
                    <coordinates>13.072613310000001,53.497177130000004,0.0 13.07270138,53.49739115,0.0 13.07275169,53.49756009000001,0.0 13.072763829999998,53.49765506999999,0.0 13.07278846,53.49781880999999,0.0 13.07279857,53.49807815,0.0 13.07279232,53.49826152,0.0 13.07277698,53.49833769999999,0.0 13.072758619999998,53.49843005999999,0.0 13.07273287,53.49847213999998,0.0 13.07269762,53.49851086,0.0 13.072665689999997,53.49853905999999,0.0 13.072602349999999,53.49857797,0.0 13.072549220000003,53.49860348,0.0 13.072494739999998,53.49862481,0.0 13.072462369999998,53.49863967,0.0 13.07237046,53.49867093,0.0 13.072263419999999,53.498700039999996,0.0 13.072141849999998,53.49872151999999,0.0 13.07197031,53.49875423999999,0.0 13.071820369999998,53.49882101999999,0.0</coordinates>
                </LineString>
                <LineString id="71700">
                    <coordinates>13.08574484,53.501798339999986,0.0 13.085782689999998,53.501858209999995,0.0</coordinates>
                </LineString>
                <LineString id="71702">
                    <coordinates>13.085706179999999,53.501736599999994,0.0 13.085736359999997,53.50178518,0.0</coordinates>
                </LineString>
                <LineString id="71704">
                    <coordinates>13.085706179999999,53.501736599999994,0.0 13.085613549999998,53.501586409999994,0.0 13.085598059999999,53.50156069,0.0</coordinates>
                </LineString>
                <LineString id="71706">
                    <coordinates>13.0855635,53.50150468,0.0 13.085536740000002,53.50146114999999,0.0 13.08552294,53.50143732,0.0 13.08555798,53.50139092,0.0</coordinates>
                </LineString>
                <LineString id="71708">
                    <coordinates>13.08548317,53.50128044,0.0 13.085474399999999,53.5012676,0.0</coordinates>
                </LineString>
                <LineString id="71710">
                    <coordinates>13.03500249,53.51363524999999,0.0 13.03545959,53.513536939999995,0.0 13.03567159,53.51347139,0.0 13.03569311,53.51346601,0.0</coordinates>
                </LineString>
                <LineString id="71712">
                    <coordinates>12.99628447,53.52091245,0.0 12.996342320000002,53.520903999999994,0.0 12.99670622,53.52085319,0.0 12.99679411,53.52083932,0.0 12.997059530000001,53.52080984,0.0 12.99731316,53.52078119,0.0 12.99759736,53.52074997999999,0.0 12.997890440000003,53.52072047,0.0 12.99807665,53.52068357999999,0.0 12.998372690000002,53.52064127999999,0.0 12.99854035,53.5206179,0.0 12.998757700000002,53.52059181,0.0 12.998945979999998,53.52057042999999,0.0 12.999113729999998,53.52055029999999,0.0 12.999356459999998,53.520521519999996,0.0 12.999704240000002,53.52047598,0.0 13.00003018,53.52043686,0.0 13.000339579999999,53.52039550000001,0.0 13.00069068,53.520348719999994,0.0 13.00092602,53.52031873,0.0 13.001158089999999,53.52029271000001,0.0 13.00144093,53.520258610000006,0.0 13.001863200000003,53.52020733,0.0 13.00226773,53.52015954000001,0.0 13.00283263,53.52008733,0.0 13.00333422,53.5200214,0.0 13.003744399999999,53.519965289999995,0.0 13.00403631,53.51992688,0.0 13.004216139999999,53.51990201,0.0 13.00446393,53.51986805,0.0 13.004761959999998,53.51982998999999,0.0 13.00483198,53.519829179999995,0.0 13.004895,53.51987629,0.0 13.00498059,53.51992209,0.0 13.00511536,53.51995242,0.0 13.00526204,53.51993854999999,0.0 13.00550908,53.51991881,0.0 13.005676280000001,53.519905859999994,0.0 13.005870060000001,53.51989158999999,0.0 13.00598228,53.519883809999996,0.0</coordinates>
                </LineString>
                <LineString id="71714">
                    <coordinates>13.00715986,53.519933419999994,0.0 13.00730914,53.51993288,0.0 13.00762743,53.5199312,0.0 13.00796142,53.51992707999999,0.0 13.0083107,53.519922399999984,0.0 13.00838975,53.5199231,0.0 13.008623269999998,53.51995833999999,0.0 13.00866822,53.51996652,0.0</coordinates>
                </LineString>
                <LineString id="71716">
                    <coordinates>12.99642454,53.52113088,0.0 12.99642944,53.52114936,0.0</coordinates>
                </LineString>
                <LineString id="71718">
                    <coordinates>12.99389949,53.52134211,0.0 12.993745649999997,53.52135943,0.0</coordinates>
                </LineString>
                <LineString id="71720">
                    <coordinates>12.99642944,53.52114936,0.0 12.99599708,53.52119572000001,0.0 12.99573393,53.52122443999999,0.0 12.99558506,53.52124086999999,0.0 12.995150709999999,53.521292559999985,0.0 12.9949497,53.52131558,0.0 12.99484396,53.52132497,0.0 12.994728740000001,53.52133389000001,0.0 12.9946275,53.52133787,0.0 12.994592799999998,53.52133888,0.0 12.994581660000001,53.52134451,0.0 12.994572929999999,53.52134894000001,0.0 12.9945631,53.52134552999999,0.0 12.994556129999998,53.52134073999999,0.0 12.994385100000002,53.52132767,0.0 12.994338949999998,53.52132072999999,0.0 12.994244919999998,53.52130132,0.0 12.994044339999999,53.521324109999995,0.0 12.99389949,53.52134211,0.0</coordinates>
                </LineString>
                <LineString id="71722">
                    <coordinates>12.99246672,53.52152292000001,0.0 12.99245702,53.52150902999999,0.0</coordinates>
                </LineString>
                <LineString id="71724">
                    <coordinates>12.99250891,53.52163723,0.0 12.992502179999999,53.521625099999994,0.0</coordinates>
                </LineString>
                <LineString id="71726">
                    <coordinates>12.99244536,53.52149081999999,0.0 12.99244041,53.52147769,0.0</coordinates>
                </LineString>
                <LineString id="71728">
                    <coordinates>12.992444439999996,53.52146392000001,0.0 12.99254908,53.521322749999996,0.0 12.992939110000002,53.52127482,0.0 12.993282479999998,53.52123143,0.0 12.9935673,53.521204929999996,0.0 12.993957010000003,53.52115148999999,0.0 12.99426686,53.52111084,0.0 12.99446684,53.52108365000001,0.0 12.994790189999998,53.521047679999995,0.0 12.995118690000002,53.52101307,0.0 12.995439839999998,53.52098298,0.0 12.99552303,53.52098382999999,0.0 12.995551849999996,53.52099287999999,0.0 12.99582018,53.52096264999999,0.0 12.99597005,53.520954429999996,0.0 12.99625146,53.52091717999999,0.0 12.99628447,53.52091245,0.0</coordinates>
                </LineString>
                <LineString id="71730">
                    <coordinates>13.036827730000002,53.48278180000001,0.0 13.036813600000002,53.48278917,0.0 13.036785670000002,53.482773939999994,0.0</coordinates>
                </LineString>
                <LineString id="71732">
                    <coordinates>13.035747949999998,53.48100741999999,0.0 13.03604518,53.48101489,0.0</coordinates>
                </LineString>
                <LineString id="71734">
                    <coordinates>13.035669670000003,53.48188801,0.0 13.03566937,53.48188802,0.0</coordinates>
                </LineString>
                <LineString id="71736">
                    <coordinates>13.03567072,53.48187436,0.0 13.035669670000003,53.48188801,0.0</coordinates>
                </LineString>
                <LineString id="71738">
                    <coordinates>13.01506275,53.51923457000001,0.0 13.015629969999999,53.519070459999995,0.0 13.016138910000002,53.51893533999999,0.0 13.016257079999999,53.51889263999999,0.0</coordinates>
                </LineString>
                <LineString id="71740">
                    <coordinates>13.07055862,53.49630605,0.0 13.07056766,53.496300870000006,0.0</coordinates>
                </LineString>
                <LineString id="71742">
                    <coordinates>13.069952139999998,53.499509239999995,0.0 13.0698226,53.49956217999999,0.0</coordinates>
                </LineString>
                <LineString id="71744">
                    <coordinates>13.030702609999999,53.48146624999998,0.0 13.03071641,53.48146629000001,0.0</coordinates>
                </LineString>
                <LineString id="71746">
                    <coordinates>13.035151499999998,53.482656080000005,0.0 13.03514983,53.482661329999985,0.0 13.03529834,53.48268778999999,0.0</coordinates>
                </LineString>
                <LineString id="71748">
                    <coordinates>13.036785670000002,53.482773939999994,0.0 13.036760039999999,53.48276002999999,0.0</coordinates>
                </LineString>
                <LineString id="71750">
                    <coordinates>12.993745649999997,53.52135943,0.0 12.993573289999999,53.52137988999999,0.0 12.99355751,53.521380089999994,0.0 12.993489509999998,53.521388189999996,0.0</coordinates>
                </LineString>
                <LineString id="71752">
                    <coordinates>13.050573109999998,53.4877797,0.0 13.050805259999999,53.48784587,0.0 13.051362699999999,53.48802143,0.0 13.05150277,53.4880858,0.0 13.05168938,53.48818304,0.0 13.051860059999997,53.48832598999999,0.0 13.05195936,53.48845845999999,0.0 13.052061019999998,53.48862322,0.0 13.052175649999999,53.48892125999999,0.0 13.05218106,53.48908901,0.0 13.052159949999998,53.48921452,0.0 13.052125929999999,53.48944023999999,0.0 13.05207192,53.48975804,0.0 13.052055339999999,53.48985522000001,0.0</coordinates>
                </LineString>
                <LineString id="71754">
                    <coordinates>13.038159679999996,53.48353055,0.0 13.038251449999999,53.48357546,0.0 13.038684789999998,53.48379790999999,0.0 13.0392415,53.48409345000001,0.0 13.039914049999998,53.48442878,0.0 13.040328949999997,53.484614249999986,0.0 13.04060068,53.484729019999996,0.0 13.04118139,53.48496224000001,0.0 13.04148868,53.48507961999999,0.0 13.04180594,53.485191809999996,0.0 13.04207488,53.48528011,0.0 13.042752929999999,53.48549176,0.0 13.04310194,53.48558839,0.0 13.04409527,53.485875750000005,0.0 13.044509609999999,53.48599807000001,0.0</coordinates>
                </LineString>
                <LineString id="71756">
                    <coordinates>13.0476742,53.48693246,0.0 13.04783417,53.48697923999999,0.0 13.04828963,53.48710777,0.0</coordinates>
                </LineString>
                <LineString id="71758">
                    <coordinates>13.04828963,53.48710777,0.0 13.04832091,53.48711656,0.0</coordinates>
                </LineString>
                <LineString id="71760">
                    <coordinates>13.04832091,53.48711656,0.0 13.048727549999999,53.487231339999994,0.0 13.0493536,53.48742944999999,0.0 13.050186920000002,53.48766992000001,0.0 13.050573109999998,53.4877797,0.0</coordinates>
                </LineString>
                <LineString id="71762">
                    <coordinates>13.052055339999999,53.48985522000001,0.0 13.05205164,53.48990646,0.0 13.052094,53.49002357,0.0 13.05216683,53.490189139999984,0.0 13.05228032,53.490304259999995,0.0</coordinates>
                </LineString>
                <LineString id="71764">
                    <coordinates>13.085415829999999,53.49840633,0.0 13.085672160000001,53.49840179000001,0.0 13.085982049999998,53.498433569999996,0.0 13.086217059999997,53.49842267,0.0 13.08698856,53.498374930000004,0.0 13.087744180000001,53.498335309999995,0.0 13.08800603,53.498325949999995,0.0 13.08816561,53.49842794999999,0.0</coordinates>
                </LineString>
                <LineString id="71766">
                    <coordinates>13.085321439999998,53.49888030999999,0.0 13.08531045,53.49874992000001,0.0 13.085310370000002,53.49870094,0.0 13.08530929,53.49865431,0.0 13.085321009999998,53.49861499,0.0 13.085330389999998,53.49857874999999,0.0 13.085362309999999,53.49852146999999,0.0 13.085389329999998,53.49847270000001,0.0 13.085415829999999,53.49840633,0.0</coordinates>
                </LineString>
                <LineString id="71768">
                    <coordinates>13.085474399999999,53.5012676,0.0 13.085394809999999,53.501134099999994,0.0 13.085383039999998,53.50111435,0.0 13.085375269999998,53.501080939999994,0.0 13.085366459999998,53.50104968,0.0 13.085360340000001,53.50098625999999,0.0 13.085357279999997,53.50095368,0.0 13.085345789999998,53.500840719999985,0.0 13.08533622,53.50073395999999,0.0 13.085337229999999,53.50060566999999,0.0 13.085356409999997,53.50047977999999,0.0 13.08536125,53.50043266000001,0.0 13.085362209999998,53.50037025999999,0.0 13.085357729999997,53.500316539999986,0.0 13.085362579999998,53.500243829999995,0.0 13.08536481,53.50019924,0.0 13.085372090000002,53.50014315999999,0.0 13.0853806,53.50004707,0.0 13.08539233,53.49994637,0.0 13.08540701,53.499823289999995,0.0 13.08541606,53.49970667,0.0 13.08541765,53.49958717,0.0 13.08541249,53.49947749,0.0 13.085400120000001,53.49935891,0.0 13.0853817,53.49923395999999,0.0 13.085374049999999,53.49917745999998,0.0 13.085353400000002,53.499116349999994,0.0 13.085332880000001,53.49902953,0.0 13.085330369999996,53.49899638000001,0.0 13.085321439999998,53.49888030999999,0.0</coordinates>
                </LineString>
                <LineString id="71770">
                    <coordinates>13.04526262,53.51026095999998,0.0 13.04575856,53.51004932,0.0 13.04599595,53.50995495000001,0.0 13.046271229999999,53.50993416,0.0</coordinates>
                </LineString>
                <LineString id="71772">
                    <coordinates>13.03569311,53.51346601,0.0 13.035911999999998,53.51341154,0.0 13.036057209999997,53.51337418000001,0.0 13.036735,53.513198249999995,0.0 13.03744265,53.513042169999984,0.0 13.03813727,53.51286596,0.0 13.03885198,53.51270474,0.0 13.03954837,53.5125344,0.0 13.039879590000002,53.51244177,0.0 13.040093580000002,53.51239043000001,0.0 13.0402445,53.51234886,0.0 13.040904489999997,53.51211409,0.0 13.04152324,53.511856899999984,0.0 13.042143519999998,53.51159464,0.0 13.042696840000001,53.51135313,0.0 13.043310380000001,53.51109510999999,0.0 13.04391709,53.51083541999999,0.0 13.044529189999999,53.51056812,0.0 13.04514178,53.51031256,0.0 13.04526262,53.51026095999998,0.0</coordinates>
                </LineString>
                <LineString id="71774">
                    <coordinates>13.00598228,53.519883809999996,0.0 13.00621858,53.51987192999999,0.0 13.006349729999997,53.51986613999998,0.0 13.006621359999999,53.519914769999986,0.0 13.00671868,53.51993018999998,0.0 13.006982349999998,53.51993217999999,0.0 13.00707877,53.51993366,0.0 13.00715986,53.519933419999994,0.0</coordinates>
                </LineString>
                <LineString id="71776">
                    <coordinates>13.028387470000002,53.51523987,0.0 13.02908868,53.51508211,0.0 13.029329209999997,53.51503584,0.0 13.02946239,53.51507255999999,0.0 13.02951167,53.51507721,0.0 13.02969747,53.51503564000001,0.0 13.02988298,53.51498385000001,0.0 13.03004028,53.51488036999999,0.0 13.030091069999997,53.51483722,0.0 13.03047035,53.51472617999998,0.0 13.031158789999997,53.51455808,0.0 13.03186138,53.514393199999994,0.0 13.03256124,53.51422412999999,0.0 13.03299993,53.51411826999999,0.0 13.033259699999999,53.514055719999995,0.0 13.03395121,53.51388237999999,0.0 13.034649839999998,53.51371386,0.0 13.034972880000002,53.51364159,0.0 13.03500249,53.51363524999999,0.0</coordinates>
                </LineString>
                <LineString id="71778">
                    <coordinates>12.99598746,53.52080124999999,0.0 12.996000449999999,53.52083540999999,0.0 12.99615579,53.52082280999999,0.0</coordinates>
                </LineString>
                <LineString id="71780">
                    <coordinates>12.99642454,53.52113088,0.0 12.99633022,53.52088061,0.0 12.996182509999997,53.52089435999999,0.0 12.99615579,53.52082280999999,0.0</coordinates>
                </LineString>
                <LineString id="71782">
                    <coordinates>13.05228032,53.490304259999995,0.0 13.052358489999998,53.49038995,0.0 13.052456280000001,53.49049713000001,0.0 13.052534289999999,53.49058264,0.0 13.052740229999998,53.490821970000006,0.0 13.05290204,53.49100846000001,0.0 13.0529465,53.49104867999999,0.0 13.05303702,53.49113378,0.0 13.05313306,53.49121594,0.0 13.053188709999999,53.49125793,0.0 13.05330889,53.49132149999999,0.0 13.05342374,53.49136192,0.0 13.05355367,53.49140317999998,0.0 13.05381907,53.49147799,0.0 13.053960879999996,53.49151912999999,0.0 13.05419891,53.49154377,0.0 13.05493572,53.49161396,0.0 13.05543385,53.491666739999985,0.0 13.055809010000003,53.49170562,0.0 13.05629431,53.49175568,0.0 13.05669149,53.49179347,0.0 13.05730037,53.491854149999995,0.0 13.05775132,53.491898019999994,0.0 13.05797488,53.49191953,0.0 13.058281969999998,53.491967579999994,0.0 13.058736669999998,53.49204219,0.0 13.05911695,53.49211508,0.0 13.059877639999998,53.492270689999984,0.0 13.06027378,53.49235045999998,0.0 13.060544399999998,53.49240257,0.0 13.06131638,53.49256226000001,0.0 13.061565439999999,53.49261457999999,0.0 13.06199167,53.49271396999999,0.0 13.0627076,53.49289712,0.0 13.062968359999998,53.492964269999995,0.0 13.063559290000002,53.49313664000001,0.0 13.064168530000002,53.49332278,0.0 13.064612129999999,53.493459869999995,0.0 13.065104539999998,53.49362220999999,0.0 13.06544167,53.493752269999995,0.0 13.065589379999999,53.49381541999998,0.0 13.065779239999996,53.49390711,0.0 13.06600311,53.494026229999996,0.0 13.066245579999999,53.49416305999999,0.0 13.066422249999999,53.49425674,0.0 13.066603829999998,53.494348499999994,0.0 13.066864289999998,53.49447224,0.0 13.067074329999999,53.49457362,0.0 13.067237629999997,53.49466150000001,0.0 13.067519919999999,53.49486843,0.0 13.06774521,53.49504803,0.0 13.06791111,53.49518155999999,0.0 13.068127350000001,53.49532856,0.0 13.06827073,53.495425499999996,0.0 13.068377579999996,53.495514850000006,0.0 13.06848773,53.49560426000001,0.0 13.068627899999997,53.49570526,0.0 13.06878835,53.495813,0.0 13.0689232,53.49589915999999,0.0 13.069064609999996,53.49597726999998,0.0 13.069190550000002,53.49603677,0.0 13.06934312,53.49609200999999,0.0 13.069496989999996,53.496138359999996,0.0 13.06973256,53.49619686999999,0.0 13.069846129999998,53.49622177,0.0 13.070006139999998,53.49624719999999,0.0 13.07023952,53.496280039999995,0.0 13.07032769,53.49628436,0.0 13.070449020000002,53.49628636999999,0.0 13.070525559999998,53.49628773999999,0.0</coordinates>
                </LineString>
                <LineString id="71784">
                    <coordinates>13.07055862,53.49630605,0.0 13.070556839999998,53.49629458999999,0.0 13.07055204,53.49628888000001,0.0 13.070544339999998,53.4962876,0.0 13.070525559999998,53.49628773999999,0.0</coordinates>
                </LineString>
                <LineString id="71786">
                    <coordinates>13.085737900000002,53.50178767,0.0 13.08574484,53.501798339999986,0.0</coordinates>
                </LineString>
                <LineString id="71788">
                    <coordinates>13.060896109999998,53.503380789999994,0.0 13.06158743,53.503110849999985,0.0 13.06219196,53.50284255999999,0.0 13.062644409999999,53.50265028999999,0.0 13.06347902,53.502295569999994,0.0 13.064047049999997,53.50205358,0.0 13.0646659,53.50178990999999,0.0 13.065276319999999,53.50152640999999,0.0 13.06589202,53.50127262,0.0 13.06650983,53.501007470000005,0.0 13.06711641,53.500745630000004,0.0 13.06773318,53.50047897999998,0.0 13.068349359999996,53.500217279999994,0.0 13.068950769999999,53.499942819999994,0.0 13.06905741,53.49988994999999,0.0 13.069246939999998,53.499807249999996,0.0 13.069278829999998,53.49979337,0.0</coordinates>
                </LineString>
                <LineString id="71790">
                    <coordinates>13.069279270000001,53.49979318,0.0 13.069278829999998,53.49979337,0.0</coordinates>
                </LineString>
                <LineString id="71792">
                    <coordinates>13.06969549,53.499603220000004,0.0 13.06977319,53.49957427999999,0.0 13.06978313,53.49957186,0.0</coordinates>
                </LineString>
                <LineString id="71794">
                    <coordinates>12.9925175,53.52162185,0.0 12.99248538,53.52150799000001,0.0</coordinates>
                </LineString>
                <LineString id="71796">
                    <coordinates>12.993489509999998,53.521388189999996,0.0 12.99345487,53.52138195999999,0.0 12.99314609,53.52141143,0.0 12.992819719999998,53.521446669999996,0.0 12.9927836,53.52145143999999,0.0 12.992730849999997,53.521446280000006,0.0 12.99262432,53.521457549999994,0.0</coordinates>
                </LineString>
                <LineString id="71798">
                    <coordinates>12.99262432,53.521457549999994,0.0 12.992588,53.52146455999999,0.0 12.992492640000002,53.52147874,0.0 12.99248704,53.521485840000004,0.0 12.99248538,53.52150799000001,0.0</coordinates>
                </LineString>
                <LineString id="71800">
                    <coordinates>12.99249449,53.52160005,0.0 12.99246672,53.52152292000001,0.0</coordinates>
                </LineString>
                <LineString id="71802">
                    <coordinates>12.992502179999999,53.521625099999994,0.0 12.99249449,53.52160005,0.0</coordinates>
                </LineString>
                <LineString id="71804">
                    <coordinates>12.99245702,53.52150902999999,0.0 12.99244536,53.52149081999999,0.0</coordinates>
                </LineString>
                <LineString id="71806">
                    <coordinates>12.99250891,53.52163723,0.0 12.9925175,53.52162185,0.0</coordinates>
                </LineString>
                <LineString id="71808">
                    <coordinates>12.99244041,53.52147769,0.0 12.992444439999996,53.52146392000001,0.0</coordinates>
                </LineString>
                <LineString id="71810">
                    <coordinates>13.022580759999999,53.51680046,0.0 13.0225831,53.51680313000001,0.0</coordinates>
                </LineString>
                <LineString id="71812">
                    <coordinates>13.085598059999999,53.50156069,0.0 13.0855635,53.50150468,0.0</coordinates>
                </LineString>
                <LineString id="71814">
                    <coordinates>13.070331890000002,53.499356770000006,0.0 13.07024461,53.49939871,0.0</coordinates>
                </LineString>
                <LineString id="71816">
                    <coordinates>13.085782689999998,53.501858209999995,0.0 13.085769019999997,53.50186151999999,0.0 13.08584904,53.50199774,0.0</coordinates>
                </LineString>
                <LineString id="71818">
                    <coordinates>13.07241349,53.49679065000001,0.0 13.072443219999998,53.49683861999999,0.0</coordinates>
                </LineString>
                <LineString id="71820">
                    <coordinates>13.07240595,53.4967785,0.0 13.07241349,53.49679065000001,0.0</coordinates>
                </LineString>
                <LineString id="71822">
                    <coordinates>13.08555798,53.50139092,0.0 13.08548317,53.50128044,0.0</coordinates>
                </LineString>
                <LineString id="71824">
                    <coordinates>13.072072970000002,53.49639182999999,0.0 13.07222111,53.496553580000004,0.0 13.07225099,53.49658584,0.0</coordinates>
                </LineString>
                <LineString id="71826">
                    <coordinates>13.072357380000001,53.496700440000005,0.0 13.07240595,53.4967785,0.0</coordinates>
                </LineString>
                <LineString id="71828">
                    <coordinates>13.044509609999999,53.48599807000001,0.0 13.045065780000002,53.48616230999999,0.0 13.04589406,53.48641096,0.0 13.04691808,53.48671125999999,0.0 13.0476742,53.48693246,0.0</coordinates>
                </LineString>
            </MultiGeometry>
        </Placemark>
        <Placemark id="71835">
            <name>MultiPoint</name>
            <styleUrl>#71872</styleUrl>
            <MultiGeometry id="71834">
                <Point id="71836">
                    <coordinates>12.945978214,53.430493787,0.0</coordinates>
                </Point>
                <Point id="71838">
                    <coordinates>12.9959001913425,53.5208084111963,0.0</coordinates>
                </Point>
                <Point id="71840">
                    <coordinates>13.037451244290896,53.48363917461239,0.0</coordinates>
                </Point>
                <Point id="71842">
                    <coordinates>13.0353963002345,53.48268585695919,0.0</coordinates>
                </Point>
                <Point id="71844">
                    <coordinates>13.035813476675898,53.48260159111209,0.0</coordinates>
                </Point>
                <Point id="71846">
                    <coordinates>13.038344561222699,53.4831401595626,0.0</coordinates>
                </Point>
                <Point id="71848">
                    <coordinates>13.038502202840096,53.48323466580229,0.0</coordinates>
                </Point>
                <Point id="71850">
                    <coordinates>13.037820347923198,53.4828302826694,0.0</coordinates>
                </Point>
                <Point id="71852">
                    <coordinates>13.0379669859261,53.4829211405893,0.0</coordinates>
                </Point>
                <Point id="71854">
                    <coordinates>13.028637086070198,53.481595009220094,0.0</coordinates>
                </Point>
                <Point id="71856">
                    <coordinates>13.028440069986102,53.4815971113123,0.0</coordinates>
                </Point>
                <Point id="71858">
                    <coordinates>13.032091591393298,53.4809925390414,0.0</coordinates>
                </Point>
                <Point id="71860">
                    <coordinates>13.028620387013397,53.481349195248086,0.0</coordinates>
                </Point>
                <Point id="71862">
                    <coordinates>13.088173004452502,53.49843709043649,0.0</coordinates>
                </Point>
                <Point id="71864">
                    <coordinates>12.995989299377298,53.52075669414919,0.0</coordinates>
                </Point>
                <Point id="71866">
                    <coordinates>13.037605608999998,53.483357692999995,0.0</coordinates>
                </Point>
                <Point id="71868">
                    <coordinates>13.08530606,53.49955024799999,0.0</coordinates>
                </Point>
                <Point id="71870">
                    <coordinates>12.9477188253809,53.494415395353194,0.0</coordinates>
                </Point>
            </MultiGeometry>
        </Placemark>
    </Document>
</kml>
