<?xml version="1.0" encoding="UTF-8"?>
<kml xmlns="http://www.opengis.net/kml/2.2" xmlns:gx="http://www.google.com/kml/ext/2.2">
    <Document id="48977">
        <Style id="49558">
            <IconStyle id="49559">
                <color>ff0000ff</color>
                <colorMode>normal</colorMode>
                <scale>1</scale>
                <heading>0</heading>
                <Icon id="49560">
                    <href>http://maps.google.com/mapfiles/kml/pushpin/ylw-pushpin.png</href>
                </Icon>
            </IconStyle>
            <LineStyle id="49561">
                <color>ff0000ff</color>
                <colorMode>normal</colorMode>
                <width>5</width>
            </LineStyle>
        </Style>
        <Style id="49640">
            <IconStyle id="49642">
                <colorMode>normal</colorMode>
                <scale>1</scale>
                <heading>0</heading>
                <Icon id="49643">
                    <href>http://maps.google.com/mapfiles/kml/shapes/placemark_circle.png</href>
                </Icon>
            </IconStyle>
            <LabelStyle id="49641">
                <colorMode>normal</colorMode>
                <scale>0.0</scale>
            </LabelStyle>
        </Style>
        <open>1</open>
        <Placemark id="48979">
            <name>MultiLine</name>
            <styleUrl>#49558</styleUrl>
            <MultiGeometry id="48978">
                <LineString id="48980">
                    <coordinates>13.015595809999999,53.346221269999994,0.0 13.015692179999999,53.34619477999998,0.0</coordinates>
                </LineString>
                <LineString id="48982">
                    <coordinates>13.104239919999998,53.30489014,0.0 13.104286730000002,53.30470448999999,0.0</coordinates>
                </LineString>
                <LineString id="48984">
                    <coordinates>13.00092377,53.3646058,0.0 13.000945019999998,53.36456088,0.0</coordinates>
                </LineString>
                <LineString id="48986">
                    <coordinates>13.00989174,53.35643482999998,0.0 13.00992019,53.35642458,0.0 13.0100568,53.35640687000001,0.0 13.01014823,53.35639405999999,0.0 13.0102027,53.35639095999999,0.0 13.0102755,53.35637835,0.0 13.01065328,53.35632619999999,0.0 13.01078152,53.356307959999995,0.0 13.010986799999998,53.35627461999999,0.0 13.01111796,53.35625011,0.0 13.011175459999999,53.356243819999996,0.0 13.011222749999998,53.35624025999999,0.0 13.01130503,53.35620187,0.0 13.01144501,53.35615908999999,0.0 13.011636889999998,53.356098329999995,0.0 13.011832939999998,53.35603753,0.0 13.01195752,53.35600316,0.0 13.012067050000002,53.35597826,0.0 13.012142,53.35593498999998,0.0 13.01217259,53.35589334,0.0 13.01230239,53.35585449,0.0 13.01235526,53.35586717,0.0 13.012619579999999,53.35577877000001,0.0 13.012790459999998,53.35571012999999,0.0 13.01295752,53.355643439999994,0.0 13.01304897,53.35560374,0.0 13.01314108,53.35555217999999,0.0 13.013217499999998,53.355490109999984,0.0 13.013250499999998,53.35545921999999,0.0 13.013327299999998,53.35537653999999,0.0 13.013419619999999,53.35526676999999,0.0 13.01361296,53.35503046000001,0.0 13.01371393,53.354898229999996,0.0 13.013773150000002,53.35481639,0.0 13.01379577,53.35478299999999,0.0 13.01395755,53.354655810000004,0.0 13.014000689999998,53.35462105999999,0.0 13.014031669999998,53.35458822999999,0.0 13.01406088,53.35453734000001,0.0 13.014081489999999,53.35450650999999,0.0 13.014088649999998,53.354469569999985,0.0 13.014113429999997,53.35437871,0.0 13.014118519999998,53.354342429999996,0.0 13.014152849999999,53.35425654,0.0 13.014161070000002,53.35422521000001,0.0 13.01418099,53.35420062,0.0 13.014222279999998,53.354140879999996,0.0 13.01426213,53.35409678,0.0 13.014275339999998,53.35408146999999,0.0</coordinates>
                </LineString>
                <LineString id="48988">
                    <coordinates>13.033341479999999,53.380813350000004,0.0 13.033165689999999,53.38077306999998,0.0</coordinates>
                </LineString>
                <LineString id="48990">
                    <coordinates>13.040380539999997,53.38069323,0.0 13.04045057,53.380680899999994,0.0 13.04051895,53.38067177999999,0.0</coordinates>
                </LineString>
                <LineString id="48992">
                    <coordinates>13.07295648,53.36018686,0.0 13.07297607,53.360175270000006,0.0</coordinates>
                </LineString>
                <LineString id="48994">
                    <coordinates>13.014745439999999,53.34626399999999,0.0 13.01482555,53.34590627,0.0 13.014926,53.34546900999999,0.0 13.014956629999999,53.34532507,0.0</coordinates>
                </LineString>
                <LineString id="48996">
                    <coordinates>13.10397808,53.30489201,0.0 13.104239919999998,53.30489014,0.0</coordinates>
                </LineString>
                <LineString id="48998">
                    <coordinates>13.104286730000002,53.30470448999999,0.0 13.104397899999999,53.30470643999998,0.0 13.104401579999998,53.30468353999999,0.0</coordinates>
                </LineString>
                <LineString id="49000">
                    <coordinates>13.104401579999998,53.30468353999999,0.0 13.104620299999999,53.30468669999999,0.0 13.10484887,53.30470347,0.0</coordinates>
                </LineString>
                <LineString id="49002">
                    <coordinates>13.10377687,53.30487725,0.0 13.10376739,53.30487660000001,0.0</coordinates>
                </LineString>
                <LineString id="49004">
                    <coordinates>13.102839159999998,53.3079814,0.0 13.10282678,53.308035679999996,0.0</coordinates>
                </LineString>
                <LineString id="49006">
                    <coordinates>13.10484887,53.30470347,0.0 13.10492889,53.30470856999999,0.0</coordinates>
                </LineString>
                <LineString id="49008">
                    <coordinates>13.0976329,53.32797556999999,0.0 13.09762852,53.32806913,0.0</coordinates>
                </LineString>
                <LineString id="49010">
                    <coordinates>13.09762852,53.32806913,0.0 13.097620009999998,53.32820913,0.0 13.097621039999998,53.32825328,0.0</coordinates>
                </LineString>
                <LineString id="49012">
                    <coordinates>13.097621039999998,53.32825328,0.0 13.09760739,53.32840606,0.0</coordinates>
                </LineString>
                <LineString id="49014">
                    <coordinates>13.09760739,53.32840606,0.0 13.0976001,53.328549239999994,0.0</coordinates>
                </LineString>
                <LineString id="49016">
                    <coordinates>13.0976001,53.328549239999994,0.0 13.0976007,53.32856975000001,0.0</coordinates>
                </LineString>
                <LineString id="49018">
                    <coordinates>13.0976007,53.32856975000001,0.0 13.097598929999998,53.32866039999999,0.0</coordinates>
                </LineString>
                <LineString id="49020">
                    <coordinates>13.097598929999998,53.32866039999999,0.0 13.09759993,53.32883292999999,0.0</coordinates>
                </LineString>
                <LineString id="49022">
                    <coordinates>13.09759993,53.32883292999999,0.0 13.09760096,53.32889207999999,0.0 13.097606740000002,53.328986119999996,0.0</coordinates>
                </LineString>
                <LineString id="49024">
                    <coordinates>13.097606740000002,53.328986119999996,0.0 13.097613349999998,53.32917947999999,0.0</coordinates>
                </LineString>
                <LineString id="49026">
                    <coordinates>13.097613349999998,53.32917947999999,0.0 13.09761357,53.3291961,0.0 13.097621579999998,53.32926963999999,0.0 13.097628590000001,53.32933097,0.0</coordinates>
                </LineString>
                <LineString id="49028">
                    <coordinates>13.097628590000001,53.32933097,0.0 13.09764672,53.32943543,0.0</coordinates>
                </LineString>
                <LineString id="49030">
                    <coordinates>13.09764672,53.32943543,0.0 13.09764314,53.32950740999999,0.0</coordinates>
                </LineString>
                <LineString id="49032">
                    <coordinates>13.09764314,53.32950740999999,0.0 13.09764289,53.32953066999999,0.0 13.097646769999999,53.32964754999998,0.0</coordinates>
                </LineString>
                <LineString id="49034">
                    <coordinates>13.097646769999999,53.32964754999998,0.0 13.09764614,53.32966059,0.0 13.09763471,53.32970683999999,0.0 13.097629929999998,53.32977241,0.0</coordinates>
                </LineString>
                <LineString id="49036">
                    <coordinates>13.097629929999998,53.32977241,0.0 13.09756917,53.32984423,0.0</coordinates>
                </LineString>
                <LineString id="49038">
                    <coordinates>13.09756917,53.32984423,0.0 13.097489619999998,53.32993919999999,0.0</coordinates>
                </LineString>
                <LineString id="49040">
                    <coordinates>13.097489619999998,53.32993919999999,0.0 13.09747433,53.32995498999998,0.0</coordinates>
                </LineString>
                <LineString id="49042">
                    <coordinates>13.09747433,53.32995498999998,0.0 13.09747136,53.32996214,0.0 13.09742791,53.33001299,0.0 13.097418799999998,53.330019519999986,0.0 13.097343229999998,53.330087789999986,0.0</coordinates>
                </LineString>
                <LineString id="49044">
                    <coordinates>13.097343229999998,53.330087789999986,0.0 13.09732929,53.33009979,0.0 13.09721315,53.33020453999999,0.0</coordinates>
                </LineString>
                <LineString id="49046">
                    <coordinates>13.09721315,53.33020453999999,0.0 13.097204439999999,53.33021043999999,0.0 13.097056059999996,53.330336259999996,0.0</coordinates>
                </LineString>
                <LineString id="49048">
                    <coordinates>13.097056059999996,53.330336259999996,0.0 13.097048060000002,53.33034188,0.0</coordinates>
                </LineString>
                <LineString id="49050">
                    <coordinates>13.097048060000002,53.33034188,0.0 13.096983010000002,53.330388000000006,0.0 13.096865799999996,53.33044922,0.0 13.09671534,53.33054673,0.0 13.096642709999996,53.330585649999996,0.0</coordinates>
                </LineString>
                <LineString id="49052">
                    <coordinates>13.096642709999996,53.330585649999996,0.0 13.096463329999999,53.33068119999999,0.0</coordinates>
                </LineString>
                <LineString id="49054">
                    <coordinates>13.096463329999999,53.33068119999999,0.0 13.096365689999999,53.33073197999998,0.0</coordinates>
                </LineString>
                <LineString id="49056">
                    <coordinates>13.096365689999999,53.33073197999998,0.0 13.096279890000002,53.33077842,0.0</coordinates>
                </LineString>
                <LineString id="49058">
                    <coordinates>13.096279890000002,53.33077842,0.0 13.09610506,53.33086922999999,0.0 13.096090529999998,53.330876980000006,0.0</coordinates>
                </LineString>
                <LineString id="49060">
                    <coordinates>13.096090529999998,53.330876980000006,0.0 13.095971049999998,53.33094259999999,0.0 13.09590163,53.33097935,0.0 13.09569211,53.3310895,0.0</coordinates>
                </LineString>
                <LineString id="49062">
                    <coordinates>13.09569211,53.3310895,0.0 13.095687499999999,53.33109610999999,0.0 13.095596139999998,53.33116744,0.0</coordinates>
                </LineString>
                <LineString id="49064">
                    <coordinates>13.095596139999998,53.33116744,0.0 13.095567050000001,53.331191180000005,0.0 13.095503970000001,53.33123967000001,0.0</coordinates>
                </LineString>
                <LineString id="49066">
                    <coordinates>13.095503970000001,53.33123967000001,0.0 13.09539568,53.33130494,0.0</coordinates>
                </LineString>
                <LineString id="49068">
                    <coordinates>13.09539568,53.33130494,0.0 13.095229629999999,53.331389939999994,0.0</coordinates>
                </LineString>
                <LineString id="49070">
                    <coordinates>13.095229629999999,53.331389939999994,0.0 13.09502837,53.331492559999994,0.0</coordinates>
                </LineString>
                <LineString id="49072">
                    <coordinates>13.09502837,53.331492559999994,0.0 13.09482158,53.33159392,0.0</coordinates>
                </LineString>
                <LineString id="49074">
                    <coordinates>13.09042015,53.33123389,0.0 13.090534329999999,53.33119248,0.0 13.09062286,53.33116225999999,0.0 13.090671919999998,53.33114494,0.0</coordinates>
                </LineString>
                <LineString id="49076">
                    <coordinates>13.090671919999998,53.33114494,0.0 13.09085097,53.331045839999994,0.0 13.0910457,53.33094175,0.0 13.091099000000002,53.33091253999999,0.0 13.091221020000003,53.33084932,0.0 13.091238759999998,53.33083906000001,0.0 13.09139873,53.33073816,0.0</coordinates>
                </LineString>
                <LineString id="49078">
                    <coordinates>13.091521129999999,53.33066065999999,0.0 13.09165033,53.33057894,0.0 13.09173026,53.33053136,0.0</coordinates>
                </LineString>
                <LineString id="49080">
                    <coordinates>13.09186103,53.33044044,0.0 13.09201873,53.33033041999998,0.0 13.092243589999997,53.330175389999994,0.0 13.092409859999998,53.33006217999999,0.0 13.09258613,53.32992142,0.0 13.09265558,53.329869679999995,0.0 13.09273423,53.32980103,0.0 13.09288872,53.32966735,0.0 13.09299892,53.329571849999994,0.0</coordinates>
                </LineString>
                <LineString id="49082">
                    <coordinates>13.09299892,53.329571849999994,0.0 13.0931093,53.329480409999995,0.0 13.093267800000001,53.32932293,0.0 13.093376389999996,53.32920553,0.0 13.093462949999997,53.32912046,0.0 13.09357376,53.32899867999999,0.0 13.09363671,53.32892962,0.0 13.093668019999999,53.32890229,0.0 13.09372316,53.32884263,0.0 13.09384611,53.32869262,0.0</coordinates>
                </LineString>
                <LineString id="49084">
                    <coordinates>13.09384611,53.32869262,0.0 13.093945709999998,53.328543059999994,0.0 13.093985009999999,53.32848590999999,0.0 13.09409364,53.32829552,0.0 13.09416997,53.32816713,0.0 13.094194440000003,53.32811435000001,0.0 13.09427941,53.32797532,0.0 13.09432326,53.327889670000005,0.0</coordinates>
                </LineString>
                <LineString id="49086">
                    <coordinates>13.09432326,53.327889670000005,0.0 13.094334799999999,53.327824979999995,0.0 13.09436207,53.32766135000001,0.0</coordinates>
                </LineString>
                <LineString id="49088">
                    <coordinates>13.09436207,53.32766135000001,0.0 13.09442812,53.32743179,0.0 13.09443224,53.32726759999999,0.0 13.09438716,53.32712523000001,0.0</coordinates>
                </LineString>
                <LineString id="49090">
                    <coordinates>13.09438716,53.32712523000001,0.0 13.094276379999998,53.32695235,0.0</coordinates>
                </LineString>
                <LineString id="49092">
                    <coordinates>13.092539760000001,53.325286919999996,0.0 13.092522059999999,53.325291459999995,0.0 13.09241666,53.325282709999996,0.0 13.09223739,53.32524997,0.0 13.09211105,53.325227690000006,0.0 13.092001079999998,53.32521420999999,0.0 13.09175285,53.325179379999994,0.0 13.09162085,53.32515950999999,0.0</coordinates>
                </LineString>
                <LineString id="49094">
                    <coordinates>13.09162085,53.32515950999999,0.0 13.09131838,53.32523758,0.0 13.09104178,53.32531049,0.0 13.090835,53.325358339999994,0.0 13.09061886,53.3254281,0.0 13.09068073,53.325513300000004,0.0 13.090715459999998,53.325506489999995,0.0 13.09072682,53.32551459999999,0.0</coordinates>
                </LineString>
                <LineString id="49096">
                    <coordinates>13.090524590000001,53.33128813999999,0.0 13.09042015,53.33123389,0.0</coordinates>
                </LineString>
                <LineString id="49098">
                    <coordinates>13.09077719,53.331454279999996,0.0 13.090774900000001,53.33144678999999,0.0 13.090759680000001,53.331422780000004,0.0 13.090524590000001,53.33128813999999,0.0</coordinates>
                </LineString>
                <LineString id="49100">
                    <coordinates>13.093553190000002,53.33210994,0.0 13.09372689,53.332110789999994,0.0</coordinates>
                </LineString>
                <LineString id="49102">
                    <coordinates>13.09372689,53.332110789999994,0.0 13.09388532,53.33204046,0.0 13.094278980000002,53.33185173999999,0.0</coordinates>
                </LineString>
                <LineString id="49104">
                    <coordinates>13.094278980000002,53.33185173999999,0.0 13.09482158,53.33159392,0.0</coordinates>
                </LineString>
                <LineString id="49106">
                    <coordinates>13.093553190000002,53.33210994,0.0 13.09346342,53.3320441,0.0 13.09344096,53.33200791999999,0.0</coordinates>
                </LineString>
                <LineString id="49108">
                    <coordinates>13.09344096,53.33200791999999,0.0 13.093323349999999,53.33191482,0.0</coordinates>
                </LineString>
                <LineString id="49110">
                    <coordinates>13.093323349999999,53.33191482,0.0 13.09327311,53.33186261000001,0.0</coordinates>
                </LineString>
                <LineString id="49112">
                    <coordinates>12.99726819,53.36098293,0.0 12.99725557,53.360957389999996,0.0 12.99721516,53.36096019,0.0 12.99704451,53.360959109999996,0.0</coordinates>
                </LineString>
                <LineString id="49114">
                    <coordinates>12.99740322,53.36132140999999,0.0 12.99743058,53.361413979999995,0.0 12.997473170000001,53.36155854999999,0.0 12.99751108,53.36167775999999,0.0 12.997613539999998,53.36203368999998,0.0 12.99768789,53.36225661999999,0.0 12.997777239999998,53.36253947999999,0.0 12.997820690000001,53.36263624000001,0.0 12.9978718,53.362792410000004,0.0 12.997885879999998,53.362822609999995,0.0 12.99790593,53.36284099,0.0 12.997937119999998,53.36286229,0.0 12.99799108,53.362885739999996,0.0 12.998083919999997,53.36290995999999,0.0 12.998157000000003,53.3629215,0.0 12.99826997,53.36293244,0.0 12.998445580000002,53.36294999999999,0.0 12.9986674,53.36296887000002,0.0 12.9989312,53.362987219999994,0.0 12.99923085,53.36300513,0.0 12.999549930000002,53.36302344999999,0.0 12.99977865,53.36303793999999,0.0 12.999955309999997,53.363050559999984,0.0 13.000142219999999,53.36307247,0.0 13.00022755,53.36308379999999,0.0 13.00034233,53.36308481,0.0 13.00051229,53.363081439999995,0.0 13.00064438,53.36307545999999,0.0 13.000777470000001,53.36307381000001,0.0 13.00087906,53.36307879999999,0.0 13.000938799999998,53.36309479999999,0.0 13.001001730000002,53.363112649999984,0.0 13.001009349999999,53.36316899999999,0.0 13.001083190000001,53.36316991000001,0.0</coordinates>
                </LineString>
                <LineString id="49116">
                    <coordinates>12.99726819,53.36098293,0.0 12.99729562,53.36103822,0.0 12.99731701,53.361085089999996,0.0 12.99734554,53.36116534,0.0 12.997362930000001,53.3612195,0.0 12.997387739999999,53.361277449999996,0.0 12.99740322,53.36132140999999,0.0</coordinates>
                </LineString>
                <LineString id="49118">
                    <coordinates>13.001083190000001,53.36316991000001,0.0 13.0011736,53.36315324,0.0 13.00128691,53.36302031999999,0.0 13.00137216,53.36291659,0.0 13.001416619999999,53.36286936999999,0.0 13.00147551,53.362814179999994,0.0 13.001490410000002,53.36279572,0.0 13.00162729,53.36279676,0.0 13.001635739999998,53.36279973999999,0.0 13.001634,53.36280754,0.0</coordinates>
                </LineString>
                <LineString id="49120">
                    <coordinates>13.001320530000001,53.362767410000004,0.0 13.001379939999998,53.36274298000001,0.0 13.001449619999999,53.36272294,0.0 13.00151655,53.36271163,0.0 13.001628599999998,53.36270038999999,0.0 13.001731150000001,53.36269154,0.0 13.00178582,53.36268561999999,0.0 13.00186426,53.3626748,0.0 13.00195703,53.36265801999999,0.0 13.00202187,53.362641489999994,0.0 13.002074189999998,53.36262573999999,0.0 13.002135069999998,53.36260110999999,0.0 13.00220881,53.36256004,0.0 13.00241055,53.36245173,0.0 13.002455049999998,53.36242910999999,0.0 13.002605039999999,53.36232486,0.0 13.002924160000001,53.36209115,0.0 13.003147,53.36194882000001,0.0 13.003227500000001,53.36191066,0.0 13.00334803,53.361856259999996,0.0 13.003478279999998,53.36180808999999,0.0 13.0035593,53.361789110000004,0.0 13.00368458,53.36176661999999,0.0 13.003798479999999,53.361754219999995,0.0 13.00392824,53.36172651999998,0.0 13.00395979,53.36171737,0.0 13.004150620000003,53.36171104,0.0 13.00428031,53.36171357999999,0.0 13.00447355,53.36171891,0.0 13.00458693,53.361725719999995,0.0 13.004805390000001,53.36170922000001,0.0 13.00494837,53.361701120000006,0.0 13.005027579999997,53.361687339999996,0.0 13.00523115,53.36161925999999,0.0 13.005234939999998,53.36158426999999,0.0 13.00529665,53.361521819999986,0.0 13.00531172,53.36147864,0.0 13.005324960000001,53.36144002,0.0 13.005336619999998,53.36140846999999,0.0 13.005347709999999,53.36132513999999,0.0 13.005348299999998,53.36124537999999,0.0 13.00533114,53.36117687,0.0 13.00529027,53.36109351,0.0 13.00521455,53.36092328,0.0 13.005179039999998,53.36086077,0.0 13.005167649999999,53.36075849999999,0.0 13.005154859999996,53.36068113999999,0.0 13.00515826,53.36060078999999,0.0 13.00515736,53.36050066,0.0 13.005125569999999,53.360427049999984,0.0 13.005143259999999,53.360272,0.0 13.00518553,53.36003689000001,0.0 13.00525305,53.359881789999996,0.0 13.0052969,53.35980268,0.0 13.005330709999999,53.359711459999986,0.0 13.005354140000001,53.35965929000001,0.0 13.00537539,53.35949485999999,0.0 13.005391990000001,53.35934034000001,0.0 13.00540996,53.359264419999995,0.0 13.00543373,53.35918843,0.0 13.005477170000002,53.359095999999994,0.0 13.005512529999999,53.35905945,0.0 13.005535169999998,53.35898058,0.0 13.00558925,53.358859409999994,0.0 13.005628189999998,53.358782059999996,0.0 13.005643229999999,53.35870382000001,0.0 13.005669089999998,53.35857191,0.0 13.00569149,53.358449379999996,0.0 13.00572514,53.358252719999996,0.0 13.00577126,53.35805944,0.0 13.005791019999998,53.357979959999994,0.0 13.00585462,53.35785985999999,0.0 13.005893160000001,53.357770290000005,0.0 13.0059108,53.35774626999999,0.0 13.00607443,53.35757494999999,0.0 13.00621565,53.35745334,0.0 13.006311890000001,53.357369569999996,0.0 13.00635822,53.35731253,0.0 13.00644088,53.357223659999995,0.0 13.00645953,53.35720371,0.0 13.006502590000002,53.35716762999999,0.0 13.006592440000002,53.35709508000001,0.0 13.006655259999999,53.357046559999986,0.0 13.006671909999998,53.35703006999999,0.0 13.00671279,53.35698596999999,0.0 13.00678418,53.35690484,0.0 13.00686758,53.35687186,0.0 13.007013109999999,53.356832399999995,0.0 13.007099739999996,53.35681279999999,0.0 13.00717278,53.35678755,0.0 13.007227109999999,53.35677473,0.0 13.00731479,53.356760369999996,0.0 13.007371219999998,53.356752779999994,0.0</coordinates>
                </LineString>
                <LineString id="49122">
                    <coordinates>13.001083190000001,53.36316991000001,0.0 13.001076599999998,53.36312990999999,0.0 13.00107645,53.36309021000001,0.0 13.001087149999996,53.363043029999986,0.0 13.001096279999999,53.363009809999994,0.0 13.001115680000002,53.3629524,0.0 13.001138630000002,53.362916569999996,0.0 13.001160839999999,53.36289223,0.0 13.00118773,53.362858159999995,0.0 13.001241269999998,53.36281533999999,0.0 13.001268769999998,53.36279872,0.0 13.001320530000001,53.362767410000004,0.0</coordinates>
                </LineString>
                <LineString id="49124">
                    <coordinates>13.00072312,53.366707870000006,0.0 13.00067744,53.36662866,0.0</coordinates>
                </LineString>
                <LineString id="49126">
                    <coordinates>13.00067744,53.36662866,0.0 13.00067335,53.36661516,0.0 13.000653120000003,53.36656039999999,0.0 13.000587750000001,53.36641864999999,0.0 13.00052113,53.3662629,0.0 13.00051005,53.36623296,0.0</coordinates>
                </LineString>
                <LineString id="49128">
                    <coordinates>13.00092377,53.3646058,0.0 13.001022129999999,53.364634339999995,0.0 13.001130370000002,53.36466982,0.0 13.00135239,53.36474016999999,0.0 13.00141242,53.364778049999984,0.0</coordinates>
                </LineString>
                <LineString id="49130">
                    <coordinates>13.00048752,53.36616457000001,0.0 13.000471789999999,53.36611679,0.0 13.0004583,53.36609211,0.0 13.000468870000002,53.366002269999996,0.0 13.000501289999997,53.36589038999999,0.0 13.00059249,53.36566890999999,0.0 13.000624039999998,53.36559334999999,0.0</coordinates>
                </LineString>
                <LineString id="49132">
                    <coordinates>13.00141242,53.364778049999984,0.0 13.001431689999999,53.36482338,0.0 13.001420899999998,53.36489699999999,0.0</coordinates>
                </LineString>
                <LineString id="49134">
                    <coordinates>13.000624039999998,53.36559334999999,0.0 13.00068424,53.3653939,0.0 13.000733729999999,53.36521454,0.0 13.000768990000001,53.36508089,0.0 13.000820690000001,53.36491259000001,0.0 13.00087339,53.36474897,0.0 13.00092377,53.3646058,0.0</coordinates>
                </LineString>
                <LineString id="49136">
                    <coordinates>13.00102422,53.36426237,0.0 13.00104335,53.364193869999994,0.0 13.00106533,53.364091609999996,0.0 13.00108755,53.36399278,0.0 13.00110033,53.363927509999996,0.0</coordinates>
                </LineString>
                <LineString id="49138">
                    <coordinates>13.000945019999998,53.36456088,0.0 13.00096033,53.36451159999999,0.0 13.00098363,53.364430769999984,0.0 13.001003009999998,53.364348529999994,0.0 13.00102287,53.36428498999999,0.0 13.00102422,53.36426237,0.0</coordinates>
                </LineString>
                <LineString id="49140">
                    <coordinates>13.001111399999997,53.36384851999998,0.0 13.00111158,53.36382111999999,0.0</coordinates>
                </LineString>
                <LineString id="49142">
                    <coordinates>13.00111158,53.36382111999999,0.0 13.001112670000001,53.36377164,0.0 13.00111002,53.36369381,0.0 13.00110889,53.36357724,0.0 13.0011051,53.36348448999999,0.0 13.00110123,53.363428559999996,0.0 13.001102779999998,53.3633683,0.0</coordinates>
                </LineString>
                <LineString id="49144">
                    <coordinates>13.001083190000001,53.36316991000001,0.0 13.001084849999998,53.36318769999999,0.0</coordinates>
                </LineString>
                <LineString id="49146">
                    <coordinates>13.001102779999998,53.3633683,0.0 13.00109856,53.36333859,0.0 13.001094489999998,53.36328626999999,0.0 13.00108991,53.36324327,0.0 13.001084849999998,53.36318769999999,0.0</coordinates>
                </LineString>
                <LineString id="49148">
                    <coordinates>13.01518971,53.34451042,0.0 13.015044910000002,53.34440312,0.0</coordinates>
                </LineString>
                <LineString id="49150">
                    <coordinates>13.03178978,53.38045646,0.0 13.03207314,53.38052226999999,0.0 13.032356309999997,53.38058895,0.0 13.032595349999998,53.38064662,0.0 13.0327869,53.380684810000005,0.0 13.032859,53.38070078,0.0</coordinates>
                </LineString>
                <LineString id="49152">
                    <coordinates>13.01446592,53.34920859999999,0.0 13.014431699999998,53.349412429999994,0.0 13.014403950000002,53.34957674999999,0.0 13.014370949999998,53.34978579,0.0 13.01431998,53.35010666000001,0.0 13.014285519999998,53.35031665,0.0 13.01423109,53.35068666,0.0 13.014181779999998,53.35098981,0.0 13.014147569999997,53.35115672999999,0.0 13.01410935,53.35140197,0.0 13.014077619999998,53.35159032,0.0 13.014044859999998,53.35178808999999,0.0 13.014028439999999,53.351888249999995,0.0</coordinates>
                </LineString>
                <LineString id="49154">
                    <coordinates>13.014028439999999,53.351888249999995,0.0 13.01399517,53.35203376,0.0</coordinates>
                </LineString>
                <LineString id="49156">
                    <coordinates>13.01399517,53.35203376,0.0 13.01395251,53.35226644,0.0 13.01391247,53.35248813,0.0 13.01386905,53.35269772,0.0 13.0138336,53.35292812,0.0 13.013808349999998,53.35307775999999,0.0 13.01380347,53.35319409,0.0 13.01379293,53.353310580000006,0.0 13.01378208,53.35337587,0.0 13.01379157,53.353489569999994,0.0 13.013800339999998,53.35358585000001,0.0 13.013811180000001,53.35365357,0.0 13.013818069999997,53.35369171,0.0 13.0138517,53.35375479999998,0.0 13.01388162,53.35379534999999,0.0 13.013932079999998,53.35384879,0.0 13.014001599999999,53.353915879999995,0.0 13.01407663,53.353973339999996,0.0 13.01413457,53.35399103999998,0.0 13.01417358,53.35400376,0.0</coordinates>
                </LineString>
                <LineString id="49158">
                    <coordinates>13.01417358,53.35400376,0.0 13.0142602,53.35403274999999,0.0</coordinates>
                </LineString>
                <LineString id="49160">
                    <coordinates>13.0142602,53.35403274999999,0.0 13.014275339999998,53.35408146999999,0.0</coordinates>
                </LineString>
                <LineString id="49162">
                    <coordinates>13.01446592,53.34920859999999,0.0 13.014515569999999,53.34912690999999,0.0</coordinates>
                </LineString>
                <LineString id="49164">
                    <coordinates>13.014515569999999,53.34912690999999,0.0 13.01448542,53.34907894,0.0 13.014514719999998,53.34891622999999,0.0 13.014536699999999,53.34879452,0.0 13.01455625,53.34863418,0.0 13.014592939999998,53.348395489999994,0.0 13.01461847,53.34822620999999,0.0 13.01465394,53.348101629999995,0.0 13.01469849,53.34795383,0.0 13.01475946,53.34777399,0.0 13.014831489999997,53.347594929999985,0.0 13.01485388,53.34755905,0.0 13.01485171,53.34752854,0.0 13.01486683,53.34742424,0.0 13.01487311,53.34727173999999,0.0 13.01486595,53.34716466,0.0 13.01484688,53.34710899,0.0 13.01477833,53.34697479999999,0.0 13.014726719999999,53.34690822999998,0.0 13.014651490000002,53.34683516999999,0.0 13.01464765,53.346715469999985,0.0 13.01466054,53.34669458,0.0 13.014693139999999,53.3466698,0.0</coordinates>
                </LineString>
                <LineString id="49166">
                    <coordinates>13.014693139999999,53.3466698,0.0 13.01461654,53.34655874999999,0.0</coordinates>
                </LineString>
                <LineString id="49168">
                    <coordinates>13.01461654,53.34655874999999,0.0 13.01459588,53.34653278999999,0.0</coordinates>
                </LineString>
                <LineString id="49170">
                    <coordinates>13.01470378,53.34644370999999,0.0 13.014965629999999,53.34638090999999,0.0 13.015235649999997,53.34631216999999,0.0</coordinates>
                </LineString>
                <LineString id="49172">
                    <coordinates>13.015235649999997,53.34631216999999,0.0 13.01534111,53.346285599999995,0.0</coordinates>
                </LineString>
                <LineString id="49174">
                    <coordinates>13.014629440000002,53.34646355,0.0 13.01470378,53.34644370999999,0.0</coordinates>
                </LineString>
                <LineString id="49176">
                    <coordinates>13.01459588,53.34653278999999,0.0 13.014693769999997,53.346484739999994,0.0 13.01470378,53.34644370999999,0.0</coordinates>
                </LineString>
                <LineString id="49178">
                    <coordinates>13.014745439999999,53.34626399999999,0.0 13.014417619999998,53.34622616999999,0.0 13.014289099999996,53.34621163999999,0.0 13.014160170000002,53.346197829999994,0.0</coordinates>
                </LineString>
                <LineString id="49180">
                    <coordinates>13.014160170000002,53.346197829999994,0.0 13.013996249999998,53.346134299999996,0.0</coordinates>
                </LineString>
                <LineString id="49182">
                    <coordinates>13.014629440000002,53.34646355,0.0 13.01469833,53.34634800999999,0.0 13.014745439999999,53.34626399999999,0.0</coordinates>
                </LineString>
                <LineString id="49184">
                    <coordinates>13.014980739999999,53.34514458999998,0.0 13.014907520000001,53.34514957999999,0.0</coordinates>
                </LineString>
                <LineString id="49186">
                    <coordinates>13.01496165,53.3450503,0.0 13.01501902,53.344944850000005,0.0 13.01507976,53.344827769999995,0.0 13.015115709999996,53.344733209999994,0.0 13.01514849,53.34463251,0.0 13.01518971,53.34451042,0.0</coordinates>
                </LineString>
                <LineString id="49188">
                    <coordinates>13.007371219999998,53.356752779999994,0.0 13.0074285,53.35674390999999,0.0 13.00757614,53.35672574000001,0.0 13.00766959,53.35671467,0.0 13.007791829999997,53.35670962999999,0.0 13.00783411,53.356707369999995,0.0 13.00791842,53.35669541,0.0 13.007966670000002,53.35668846,0.0</coordinates>
                </LineString>
                <LineString id="49190">
                    <coordinates>13.007966670000002,53.35668846,0.0 13.008263139999999,53.356647419999994,0.0 13.00830631,53.35664506,0.0</coordinates>
                </LineString>
                <LineString id="49192">
                    <coordinates>13.00830631,53.35664506,0.0 13.008503479999998,53.35661859,0.0 13.008676100000002,53.35659855,0.0</coordinates>
                </LineString>
                <LineString id="49194">
                    <coordinates>13.008676100000002,53.35659855,0.0 13.008821839999998,53.35657699999999,0.0 13.0089245,53.356565219999986,0.0 13.0090097,53.35655308999999,0.0 13.009056960000002,53.35654816,0.0</coordinates>
                </LineString>
                <LineString id="49196">
                    <coordinates>13.009056960000002,53.35654816,0.0 13.00923471,53.356525639999994,0.0 13.009364060000001,53.35650925,0.0 13.00946269,53.35649761999999,0.0</coordinates>
                </LineString>
                <LineString id="49198">
                    <coordinates>13.00946269,53.35649761999999,0.0 13.00961143,53.35647225,0.0 13.009725089999998,53.35644979,0.0 13.009861709999997,53.356432699999985,0.0 13.00989174,53.35643482999998,0.0</coordinates>
                </LineString>
                <LineString id="49200">
                    <coordinates>13.022461259999998,53.37750231,0.0 13.022628929999998,53.37779770000001,0.0 13.022707919999998,53.37794877999999,0.0 13.02275478,53.37802643999999,0.0 13.022838499999999,53.378144979999995,0.0 13.022877619999997,53.37820207,0.0 13.022959950000002,53.37824789000001,0.0 13.02310457,53.37832455,0.0 13.023234310000001,53.37837526,0.0 13.023424009999998,53.37843676000001,0.0 13.023935360000001,53.37856094000001,0.0 13.024424520000002,53.37868619999999,0.0 13.025405559999998,53.37892734,0.0 13.02588486,53.37904432999999,0.0 13.026644489999999,53.37922577,0.0 13.02736962,53.37940343,0.0 13.02777543,53.37949879,0.0 13.028360680000002,53.37963002,0.0 13.02892101,53.37976463999999,0.0 13.029827529999999,53.37997777999998,0.0 13.030377919999998,53.38011065999999,0.0 13.031281230000001,53.380332339999995,0.0 13.03160098,53.38040603,0.0 13.03178978,53.38045646,0.0</coordinates>
                </LineString>
                <LineString id="49202">
                    <coordinates>13.022253069999998,53.37714887999999,0.0 13.022164059999998,53.37700649999999,0.0</coordinates>
                </LineString>
                <LineString id="49204">
                    <coordinates>13.022164059999998,53.37700649999999,0.0 13.022157040000002,53.37699273999999,0.0</coordinates>
                </LineString>
                <LineString id="49206">
                    <coordinates>13.021988559999999,53.37676032999999,0.0 13.021938719999998,53.37663898,0.0</coordinates>
                </LineString>
                <LineString id="49208">
                    <coordinates>13.022157040000002,53.37699273999999,0.0 13.022101940000002,53.37691266,0.0 13.022009010000001,53.376785899999994,0.0 13.021988559999999,53.37676032999999,0.0</coordinates>
                </LineString>
                <LineString id="49210">
                    <coordinates>13.021938719999998,53.37663898,0.0 13.021880049999998,53.376504489999995,0.0</coordinates>
                </LineString>
                <LineString id="49212">
                    <coordinates>13.021880049999998,53.376504489999995,0.0 13.021796129999998,53.376302779999996,0.0 13.02175027,53.37618151000001,0.0 13.021728409999998,53.37611901999999,0.0</coordinates>
                </LineString>
                <LineString id="49214">
                    <coordinates>13.021706460000003,53.37605896,0.0 13.021647890000002,53.37590553,0.0 13.021614439999999,53.37578562999999,0.0</coordinates>
                </LineString>
                <LineString id="49216">
                    <coordinates>13.021728409999998,53.37611901999999,0.0 13.021706460000003,53.37605896,0.0</coordinates>
                </LineString>
                <LineString id="49218">
                    <coordinates>13.021614439999999,53.37578562999999,0.0 13.021597510000001,53.37572361,0.0</coordinates>
                </LineString>
                <LineString id="49220">
                    <coordinates>13.02147881,53.37527230999999,0.0 13.021511229999998,53.37539659,0.0</coordinates>
                </LineString>
                <LineString id="49222">
                    <coordinates>13.021511229999998,53.37539659,0.0 13.02156881,53.37560967,0.0 13.021597510000001,53.37572361,0.0</coordinates>
                </LineString>
                <LineString id="49224">
                    <coordinates>13.02147881,53.37527230999999,0.0 13.021419830000001,53.37504677,0.0</coordinates>
                </LineString>
                <LineString id="49226">
                    <coordinates>13.021241660000001,53.37447462,0.0 13.02106664,53.37451261,0.0</coordinates>
                </LineString>
                <LineString id="49228">
                    <coordinates>13.02140434,53.37499765,0.0 13.02132426,53.37474393000001,0.0 13.021241660000001,53.37447462,0.0</coordinates>
                </LineString>
                <LineString id="49230">
                    <coordinates>13.03389888,53.38095126,0.0 13.033552179999997,53.380865269999994,0.0 13.033341479999999,53.380813350000004,0.0</coordinates>
                </LineString>
                <LineString id="49232">
                    <coordinates>13.033165689999999,53.38077306999998,0.0 13.03298521,53.38072952000001,0.0 13.032859,53.38070078,0.0</coordinates>
                </LineString>
                <LineString id="49234">
                    <coordinates>13.04424708,53.37914179,0.0 13.04419511,53.37918300999999,0.0 13.044108409999998,53.37925014,0.0 13.04405635,53.37928955999999,0.0 13.044012480000001,53.37933035999999,0.0 13.043999659999999,53.379343909999996,0.0 13.04398076,53.379370470000005,0.0 13.043977139999999,53.37939585,0.0 13.043975379999997,53.37941978999999,0.0 13.043981309999998,53.379452150000006,0.0 13.043989650000002,53.37948404000001,0.0 13.043999700000002,53.3795145,0.0 13.04400665,53.379540699999986,0.0 13.04401124,53.3795665,0.0 13.044008119999999,53.37958467000001,0.0 13.04400586,53.37960002,0.0 13.04399218,53.37961845000001,0.0 13.043983150000003,53.37962475,0.0 13.04396509,53.37963031000001,0.0 13.043934079999998,53.379636059999996,0.0 13.04378147,53.37965748,0.0 13.04367512,53.37967202,0.0 13.04363211,53.37967795,0.0 13.04358238,53.37968916999999,0.0 13.043527050000002,53.37970392,0.0 13.043469099999998,53.37972204999999,0.0 13.04339392,53.3797504,0.0 13.043317599999998,53.37978892,0.0 13.043164979999998,53.3798794,0.0 13.04295205,53.38001551,0.0 13.04285572,53.380074979999996,0.0 13.042718910000001,53.38015665999999,0.0 13.042472859999998,53.380317349999984,0.0 13.042265649999997,53.38046142999999,0.0</coordinates>
                </LineString>
                <LineString id="49236">
                    <coordinates>13.035820100000002,53.38138551000001,0.0 13.035845369999999,53.381391969999996,0.0 13.036025060000002,53.38143091,0.0 13.03613443,53.38144621,0.0</coordinates>
                </LineString>
                <LineString id="49238">
                    <coordinates>13.03389888,53.38095126,0.0 13.034239049999998,53.38103781,0.0 13.03464949,53.381143789999996,0.0</coordinates>
                </LineString>
                <LineString id="49240">
                    <coordinates>13.034892949999998,53.38119231999999,0.0 13.035048390000002,53.38122326,0.0</coordinates>
                </LineString>
                <LineString id="49242">
                    <coordinates>13.035408619999998,53.38127988,0.0 13.035450030000002,53.38128543999999,0.0 13.03551043,53.38129575,0.0 13.03578461,53.38136884,0.0</coordinates>
                </LineString>
                <LineString id="49244">
                    <coordinates>13.03578461,53.38136884,0.0 13.03580792,53.38137184999999,0.0 13.035820100000002,53.38138551000001,0.0</coordinates>
                </LineString>
                <LineString id="49246">
                    <coordinates>13.03613443,53.38144621,0.0 13.036185359999998,53.38145074999999,0.0 13.036238369999998,53.38145444999999,0.0 13.036293919999999,53.38145758999999,0.0 13.036355109999999,53.38145737,0.0 13.036414509999998,53.38145609,0.0 13.03649658,53.38145123999999,0.0</coordinates>
                </LineString>
                <LineString id="49248">
                    <coordinates>13.03649658,53.38145123999999,0.0 13.03656223,53.38144775,0.0 13.0366826,53.38143422000001,0.0 13.03688589,53.38140824999999,0.0</coordinates>
                </LineString>
                <LineString id="49250">
                    <coordinates>13.03688589,53.38140824999999,0.0 13.037555220000002,53.38133336,0.0 13.03772028,53.38131282,0.0</coordinates>
                </LineString>
                <LineString id="49252">
                    <coordinates>13.03772028,53.38131282,0.0 13.0378005,53.381302,0.0 13.037882489999998,53.381287869999994,0.0 13.03797089,53.38127258,0.0 13.038092969999997,53.38124483999999,0.0 13.03846393,53.38113942,0.0 13.038657099999998,53.38108469000001,0.0</coordinates>
                </LineString>
                <LineString id="49254">
                    <coordinates>13.038657099999998,53.38108469000001,0.0 13.0387209,53.381065359999994,0.0 13.038911409999999,53.38101724,0.0 13.039047210000001,53.38098228999999,0.0 13.039513799999998,53.38087989999999,0.0</coordinates>
                </LineString>
                <LineString id="49256">
                    <coordinates>13.039513799999998,53.38087989999999,0.0 13.040380539999997,53.38069323,0.0</coordinates>
                </LineString>
                <LineString id="49258">
                    <coordinates>13.04051895,53.38067177999999,0.0 13.040553399999999,53.3806603,0.0 13.04070239,53.380634259999994,0.0 13.040872870000003,53.38062131,0.0 13.04093033,53.38054669,0.0 13.04112888,53.38053812,0.0 13.041226189999998,53.38053389999999,0.0 13.041384489999999,53.380526319999994,0.0</coordinates>
                </LineString>
                <LineString id="49260">
                    <coordinates>13.041384489999999,53.380526319999994,0.0 13.041929229999997,53.38048685999999,0.0 13.04212185,53.380471529999994,0.0</coordinates>
                </LineString>
                <LineString id="49262">
                    <coordinates>13.04212185,53.380471529999994,0.0 13.042265649999997,53.38046142999999,0.0</coordinates>
                </LineString>
                <LineString id="49264">
                    <coordinates>13.0736697,53.36096152,0.0 13.07344592,53.36082351999998,0.0 13.07334353,53.36076159000001,0.0</coordinates>
                </LineString>
                <LineString id="49266">
                    <coordinates>13.07324558,53.36070056,0.0 13.07300289,53.360548990000005,0.0 13.072943949999999,53.360512050000004,0.0</coordinates>
                </LineString>
                <LineString id="49268">
                    <coordinates>13.07334353,53.36076159000001,0.0 13.07324558,53.36070056,0.0</coordinates>
                </LineString>
                <LineString id="49270">
                    <coordinates>13.07239245,53.3601758,0.0 13.07233436,53.36014035,0.0 13.072285039999999,53.36010859999998,0.0</coordinates>
                </LineString>
                <LineString id="49272">
                    <coordinates>13.072285039999999,53.36010859999998,0.0 13.072358299999996,53.36008370999999,0.0 13.07244042,53.36005359999999,0.0</coordinates>
                </LineString>
                <LineString id="49274">
                    <coordinates>13.07244042,53.36005359999999,0.0 13.072408669999998,53.36003274000001,0.0</coordinates>
                </LineString>
                <LineString id="49276">
                    <coordinates>13.07229422,53.35986629999999,0.0 13.072342210000002,53.359848299999996,0.0 13.0724291,53.35981159000001,0.0</coordinates>
                </LineString>
                <LineString id="49278">
                    <coordinates>13.0724291,53.35981159000001,0.0 13.072484270000002,53.35979103999999,0.0 13.072520959999999,53.35977784,0.0 13.072579389999998,53.359754159999994,0.0 13.072635589999999,53.35973185999999,0.0 13.072696319999999,53.35971455999999,0.0 13.07272153,53.35970643,0.0</coordinates>
                </LineString>
                <LineString id="49280">
                    <coordinates>13.07272153,53.35970643,0.0 13.07275972,53.35969433999999,0.0</coordinates>
                </LineString>
                <LineString id="49282">
                    <coordinates>13.07275972,53.35969433999999,0.0 13.072776119999999,53.3596889,0.0</coordinates>
                </LineString>
                <LineString id="49284">
                    <coordinates>13.07380682,53.36089212,0.0 13.07370336,53.36094508,0.0</coordinates>
                </LineString>
                <LineString id="49286">
                    <coordinates>13.07370336,53.36094508,0.0 13.0736697,53.36096152,0.0</coordinates>
                </LineString>
                <LineString id="49288">
                    <coordinates>13.07380682,53.36089212,0.0 13.073757809999998,53.36086573,0.0 13.073687139999997,53.36083056999998,0.0</coordinates>
                </LineString>
                <LineString id="49290">
                    <coordinates>13.07343304,53.36066284999999,0.0 13.073407230000003,53.360647319999984,0.0</coordinates>
                </LineString>
                <LineString id="49292">
                    <coordinates>13.073687139999997,53.36083056999998,0.0 13.07363654,53.360798999999986,0.0 13.073592269999999,53.36076806999999,0.0 13.073535439999999,53.360725689999995,0.0 13.073477000000002,53.360690169999984,0.0 13.07343304,53.36066284999999,0.0</coordinates>
                </LineString>
                <LineString id="49294">
                    <coordinates>13.073217779999998,53.36052880999999,0.0 13.07320272,53.36051901999999,0.0</coordinates>
                </LineString>
                <LineString id="49296">
                    <coordinates>13.07320272,53.36051901999999,0.0 13.073039809999997,53.36041799,0.0 13.072903209999998,53.36033257,0.0 13.072846120000001,53.36029546999998,0.0 13.07282679,53.36028414,0.0 13.072823649999998,53.3602732,0.0 13.07282803,53.360262559999995,0.0 13.072849190000001,53.36024871,0.0 13.07293287,53.36019968,0.0 13.07295648,53.36018686,0.0</coordinates>
                </LineString>
                <LineString id="49298">
                    <coordinates>13.07307422,53.36011854,0.0 13.07309885,53.36010464999999,0.0</coordinates>
                </LineString>
                <LineString id="49300">
                    <coordinates>13.07297607,53.360175270000006,0.0 13.0730484,53.36013332999999,0.0 13.07307422,53.36011854,0.0</coordinates>
                </LineString>
                <LineString id="49302">
                    <coordinates>13.07331023,53.35999189999999,0.0 13.073382139999998,53.35995308999998,0.0</coordinates>
                </LineString>
                <LineString id="49304">
                    <coordinates>13.07309885,53.36010464999999,0.0 13.073198440000002,53.360052220000014,0.0 13.07329541,53.360000379999995,0.0 13.07331023,53.35999189999999,0.0</coordinates>
                </LineString>
                <LineString id="49306">
                    <coordinates>13.07377941,53.35978314,0.0 13.073789899999996,53.35978748,0.0 13.07380631,53.35979994000001,0.0 13.073830330000002,53.35981630999999,0.0</coordinates>
                </LineString>
                <LineString id="49308">
                    <coordinates>13.073382139999998,53.35995308999998,0.0 13.073451230000002,53.35991522999999,0.0 13.07353855,53.35986725000001,0.0 13.073585399999999,53.35984132,0.0 13.07366907,53.35979533999999,0.0 13.073708500000002,53.35978278,0.0 13.07372509,53.359778119999994,0.0 13.07374207,53.35977674,0.0</coordinates>
                </LineString>
                <LineString id="49310">
                    <coordinates>13.073830330000002,53.35981630999999,0.0 13.073940159999998,53.35978424,0.0 13.074098520000001,53.35973963,0.0 13.074158049999996,53.35972253999999,0.0</coordinates>
                </LineString>
                <LineString id="49312">
                    <coordinates>13.07443636,53.35962375999999,0.0 13.074321159999998,53.35966831999998,0.0</coordinates>
                </LineString>
                <LineString id="49314">
                    <coordinates>13.074202609999999,53.35970914000001,0.0 13.07424574,53.35969802000001,0.0 13.07426778,53.35968959,0.0</coordinates>
                </LineString>
                <LineString id="49316">
                    <coordinates>13.074158049999996,53.35972253999999,0.0 13.074202609999999,53.35970914000001,0.0</coordinates>
                </LineString>
                <LineString id="49318">
                    <coordinates>13.07426778,53.35968959,0.0 13.074281579999996,53.35968465999999,0.0</coordinates>
                </LineString>
                <LineString id="49320">
                    <coordinates>13.074281579999996,53.35968465999999,0.0 13.074321159999998,53.35966831999998,0.0</coordinates>
                </LineString>
                <LineString id="49322">
                    <coordinates>13.072776119999999,53.3596889,0.0 13.07271375,53.35963739000001,0.0</coordinates>
                </LineString>
                <LineString id="49324">
                    <coordinates>13.07274402,53.3593678,0.0 13.072724850000002,53.35943983,0.0</coordinates>
                </LineString>
                <LineString id="49326">
                    <coordinates>13.07262463,53.35956433999999,0.0 13.072687240000002,53.359615659999996,0.0</coordinates>
                </LineString>
                <LineString id="49328">
                    <coordinates>13.072687240000002,53.359615659999996,0.0 13.07271375,53.35963739000001,0.0</coordinates>
                </LineString>
                <LineString id="49330">
                    <coordinates>13.07262463,53.35956433999999,0.0 13.07261495,53.3595557,0.0 13.07266912,53.359532359999996,0.0 13.07270373,53.359517059999995,0.0 13.072723789999998,53.35950591999999,0.0 13.07273053,53.35949968,0.0 13.072731369999998,53.35948933999999,0.0 13.072732849999998,53.35948138999999,0.0 13.072731060000002,53.35947417,0.0 13.07272231,53.35946104,0.0 13.072724850000002,53.35943983,0.0</coordinates>
                </LineString>
                <LineString id="49332">
                    <coordinates>13.07274402,53.3593678,0.0 13.072753410000002,53.35933402,0.0</coordinates>
                </LineString>
                <LineString id="49334">
                    <coordinates>13.06994572,53.35857643999999,0.0 13.070116509999998,53.35848084,0.0 13.07027898,53.358391219999994,0.0</coordinates>
                </LineString>
                <LineString id="49336">
                    <coordinates>13.07202034,53.35924054,0.0 13.07203204,53.35921215,0.0</coordinates>
                </LineString>
                <LineString id="49338">
                    <coordinates>13.07202034,53.35924054,0.0 13.072095849999998,53.35925232999999,0.0 13.072211829999999,53.35926576999999,0.0</coordinates>
                </LineString>
                <LineString id="49340">
                    <coordinates>13.072211829999999,53.35926576999999,0.0 13.07228745,53.35927280999999,0.0</coordinates>
                </LineString>
                <LineString id="49342">
                    <coordinates>13.072515530000002,53.35930572000001,0.0 13.072597859999998,53.35931567,0.0 13.07267171,53.35932452,0.0 13.072753410000002,53.35933402,0.0</coordinates>
                </LineString>
                <LineString id="49344">
                    <coordinates>13.07228745,53.35927280999999,0.0 13.07245081,53.359298349999996,0.0 13.072515530000002,53.35930572000001,0.0</coordinates>
                </LineString>
                <LineString id="49346">
                    <coordinates>13.0705888,53.35822747,0.0 13.07058926,53.3582272,0.0</coordinates>
                </LineString>
                <LineString id="49348">
                    <coordinates>13.07058926,53.3582272,0.0 13.07070766,53.35816219,0.0</coordinates>
                </LineString>
                <LineString id="49350">
                    <coordinates>13.07070766,53.35816219,0.0 13.070804619999999,53.35810689000001,0.0 13.07089784,53.35805358999998,0.0</coordinates>
                </LineString>
                <LineString id="49352">
                    <coordinates>13.07203639,53.35738907,0.0 13.072120350000002,53.35733995,0.0 13.07224134,53.35727203,0.0</coordinates>
                </LineString>
                <LineString id="49354">
                    <coordinates>13.07327054,53.359367999999996,0.0 13.0733991,53.359330509999985,0.0 13.07345418,53.359315349999996,0.0 13.07366225,53.35922860999999,0.0 13.073735359999999,53.35919796999999,0.0</coordinates>
                </LineString>
                <LineString id="49356">
                    <coordinates>13.072753410000002,53.35933402,0.0 13.07297642,53.35935147,0.0 13.07320906,53.35936950999999,0.0 13.07325425,53.35937265999999,0.0 13.07327054,53.359367999999996,0.0</coordinates>
                </LineString>
                <LineString id="49358">
                    <coordinates>13.07224709,53.35726857,0.0 13.07225166,53.35726583999999,0.0</coordinates>
                </LineString>
                <LineString id="49360">
                    <coordinates>13.072244049999998,53.35726116,0.0 13.07211413,53.35718092,0.0 13.072011509999998,53.357118539999995,0.0 13.071992919999998,53.35710808,0.0</coordinates>
                </LineString>
                <LineString id="49362">
                    <coordinates>13.07025673,53.35817938,0.0 13.070351510000002,53.35812637,0.0 13.070468049999999,53.35806277999998,0.0 13.070627179999999,53.35797451999999,0.0 13.07075236,53.35790037000001,0.0 13.070889289999997,53.35780103999999,0.0 13.071052039999998,53.35770581,0.0 13.07106105,53.35770225,0.0 13.07115806,53.35761799,0.0 13.071269619999999,53.35753910999999,0.0 13.07147388,53.35741760999999,0.0 13.07164547,53.35731557999999,0.0 13.07168481,53.35728708999999,0.0 13.07175066,53.357245549999995,0.0 13.07182896,53.35720006999999,0.0 13.071992919999998,53.35710808,0.0</coordinates>
                </LineString>
                <LineString id="49364">
                    <coordinates>13.07224134,53.35727203,0.0 13.07224709,53.35726857,0.0</coordinates>
                </LineString>
                <LineString id="49366">
                    <coordinates>13.07225166,53.35726583999999,0.0 13.072244049999998,53.35726116,0.0</coordinates>
                </LineString>
                <LineString id="49368">
                    <coordinates>13.022253069999998,53.37714887999999,0.0 13.022358920000002,53.37731091999999,0.0 13.02243954,53.37746402999999,0.0 13.022461259999998,53.37750231,0.0</coordinates>
                </LineString>
                <LineString id="49370">
                    <coordinates>13.10282678,53.308035679999996,0.0 13.10277653,53.3082773,0.0</coordinates>
                </LineString>
                <LineString id="49372">
                    <coordinates>13.097630180000001,53.327975509999995,0.0 13.0976329,53.32797556999999,0.0</coordinates>
                </LineString>
                <LineString id="49374">
                    <coordinates>13.09752616,53.32787855,0.0 13.09772072,53.32713414,0.0 13.097835660000001,53.325338359999996,0.0 13.097858879999999,53.32526788999999,0.0 13.097950029999998,53.324470169999984,0.0 13.097995199999998,53.324081859999986,0.0 13.098073399999999,53.323617389999995,0.0 13.098144909999997,53.32336802999998,0.0 13.098172990000004,53.32308101000001,0.0 13.098241039999998,53.322428259999995,0.0 13.098319909999999,53.32180208,0.0 13.09837502,53.321301070000004,0.0 13.098198170000002,53.32106564,0.0</coordinates>
                </LineString>
                <LineString id="49376">
                    <coordinates>13.098198170000002,53.32106564,0.0 13.09815091,53.32106089,0.0 13.09819616,53.32064859999999,0.0 13.098317070000002,53.319683559999994,0.0 13.09837703,53.31919162999999,0.0</coordinates>
                </LineString>
                <LineString id="49378">
                    <coordinates>13.061560679999998,53.35278011,0.0 13.06150225,53.35280427,0.0 13.06165007,53.35290096,0.0 13.061711119999998,53.3529328,0.0 13.061805429999998,53.35295427999999,0.0 13.061943709999998,53.352966059999986,0.0 13.06212473,53.35297188,0.0 13.06242081,53.35297985,0.0 13.062469699999998,53.35301730999999,0.0 13.062521509999998,53.353047409999995,0.0 13.06269628,53.35320383999999,0.0 13.0628029,53.35322793999999,0.0 13.062854429999998,53.353254459999995,0.0 13.06289695,53.353281179999996,0.0 13.063064080000002,53.35343510999999,0.0 13.06315437,53.35354466999999,0.0 13.06331343,53.353689739999986,0.0 13.06351152,53.35379607,0.0</coordinates>
                </LineString>
                <LineString id="49380">
                    <coordinates>13.098802790000002,53.314647490000006,0.0 13.098682269999998,53.314582449999996,0.0 13.09855355,53.31452708,0.0 13.098487749999999,53.31450522,0.0 13.09846671,53.314489249999994,0.0 13.09844092,53.31441512,0.0 13.098423030000001,53.31433126,0.0 13.098477769999997,53.31429593999999,0.0 13.098566200000002,53.314202630000004,0.0 13.0988705,53.31396032,0.0 13.099075049999998,53.31366404999999,0.0 13.099221679999996,53.313451609999994,0.0 13.09934196,53.313228099999996,0.0 13.099384820000001,53.31312097,0.0 13.09940159,53.31298232999999,0.0 13.09939725,53.312805469999994,0.0 13.099366819999997,53.31268883,0.0 13.09934518,53.31258619999999,0.0 13.099358239999999,53.31244947999999,0.0 13.099407159999997,53.31235641999999,0.0 13.099449469999998,53.31224611999999,0.0 13.0994681,53.3121276,0.0 13.09948813,53.31206651000001,0.0 13.09953135,53.31199312,0.0 13.09957781,53.31191094999999,0.0 13.099619219999997,53.31183758,0.0 13.09963015,53.31176790999999,0.0 13.099725370000002,53.31139844999999,0.0 13.09979732,53.31111169999999,0.0 13.09980541,53.31107357,0.0 13.09985642,53.310957609999996,0.0 13.09994592,53.31079749999999,0.0 13.10015168,53.31061134,0.0 13.10034358,53.3104504,0.0 13.10071666,53.310064569999994,0.0</coordinates>
                </LineString>
                <LineString id="49382">
                    <coordinates>13.10071666,53.310064569999994,0.0 13.100867709999998,53.30992172999999,0.0 13.101187149999998,53.30962338,0.0 13.101403909999998,53.30945962,0.0 13.10161748,53.30930781,0.0 13.102075840000001,53.30897751,0.0 13.10220778,53.30887064000001,0.0 13.10236721,53.30871763,0.0 13.10254853,53.30852346999999,0.0 13.10272947,53.308339309999994,0.0</coordinates>
                </LineString>
                <LineString id="49384">
                    <coordinates>13.10272947,53.308339309999994,0.0 13.10277653,53.3082773,0.0</coordinates>
                </LineString>
                <LineString id="49386">
                    <coordinates>13.1028353,53.30797772999998,0.0 13.102801860000001,53.30794653,0.0</coordinates>
                </LineString>
                <LineString id="49388">
                    <coordinates>13.102839159999998,53.3079814,0.0 13.1028353,53.30797772999998,0.0</coordinates>
                </LineString>
                <LineString id="49390">
                    <coordinates>13.102801860000001,53.30794653,0.0 13.102889009999998,53.30792343,0.0 13.10292,53.307784119999994,0.0 13.102975379999998,53.30760779,0.0 13.10305175,53.30737489,0.0 13.103109800000002,53.30721069,0.0 13.103114500000002,53.30709615,0.0 13.10305615,53.30692386,0.0 13.10310854,53.30659454,0.0 13.10317955,53.30633242999999,0.0</coordinates>
                </LineString>
                <LineString id="49392">
                    <coordinates>13.10317955,53.30633242999999,0.0 13.10349678,53.30550615,0.0</coordinates>
                </LineString>
                <LineString id="49394">
                    <coordinates>13.10375066,53.30488457999999,0.0 13.10376739,53.30487660000001,0.0</coordinates>
                </LineString>
                <LineString id="49396">
                    <coordinates>13.09837703,53.31919162999999,0.0 13.098524599999996,53.31764713,0.0 13.098764020000003,53.31569432,0.0 13.09886936,53.31483968,0.0 13.09887699,53.31477677,0.0 13.09888147,53.3147266,0.0 13.098874329999997,53.31469418999999,0.0 13.0988338,53.31466421,0.0 13.098802790000002,53.314647490000006,0.0</coordinates>
                </LineString>
                <LineString id="49398">
                    <coordinates>13.097551449999997,53.32796793,0.0 13.09753877,53.32794669999999,0.0 13.09752616,53.32787855,0.0</coordinates>
                </LineString>
                <LineString id="49400">
                    <coordinates>13.09755503,53.32797393999999,0.0 13.097551449999997,53.32796793,0.0</coordinates>
                </LineString>
                <LineString id="49402">
                    <coordinates>13.10349678,53.30550615,0.0 13.103544029999998,53.30538369999999,0.0 13.103538429999999,53.30535606,0.0 13.10362438,53.30520596,0.0 13.103617369999998,53.30517661,0.0 13.10370239,53.30502688,0.0 13.103717979999999,53.30499473,0.0 13.10373377,53.30489248,0.0 13.10375066,53.30488457999999,0.0</coordinates>
                </LineString>
                <LineString id="49404">
                    <coordinates>13.073735359999999,53.35919796999999,0.0 13.073793999999998,53.359173099999985,0.0</coordinates>
                </LineString>
                <LineString id="49406">
                    <coordinates>13.03538799,53.3812771,0.0 13.035408619999998,53.38127988,0.0</coordinates>
                </LineString>
                <LineString id="49408">
                    <coordinates>13.035048390000002,53.38122326,0.0 13.03524749,53.381262929999984,0.0 13.035367209999999,53.381274229999995,0.0 13.03538799,53.3812771,0.0</coordinates>
                </LineString>
                <LineString id="49410">
                    <coordinates>13.094276379999998,53.32695235,0.0 13.09425604,53.32683526999999,0.0 13.094166729999998,53.32672325,0.0 13.09407681,53.326595329999996,0.0 13.093875699999998,53.326357589999986,0.0</coordinates>
                </LineString>
                <LineString id="49412">
                    <coordinates>13.093875699999998,53.326357589999986,0.0 13.09352872,53.32595404999999,0.0</coordinates>
                </LineString>
                <LineString id="49414">
                    <coordinates>13.09352872,53.32595404999999,0.0 13.093177059999999,53.325544349999994,0.0 13.09267162,53.32525312,0.0</coordinates>
                </LineString>
                <LineString id="49416">
                    <coordinates>13.00994121,53.37726821,0.0 13.01006555,53.37727408,0.0 13.010577170000001,53.37729762,0.0 13.01105204,53.37731751,0.0</coordinates>
                </LineString>
                <LineString id="49418">
                    <coordinates>13.01105204,53.37731751,0.0 13.01143256,53.377209269999994,0.0 13.01161268,53.37715706000001,0.0 13.012113070000002,53.37701280000001,0.0 13.012645899999999,53.37685907,0.0 13.013074940000001,53.37671559000001,0.0 13.01353803,53.37658866999999,0.0 13.01406645,53.376443669999986,0.0 13.01459086,53.37629873999999,0.0 13.015370510000002,53.37608347,0.0 13.015870189999998,53.37594927,0.0 13.016456279999996,53.37579399999999,0.0 13.01696637,53.37564815,0.0 13.0174841,53.37550107,0.0</coordinates>
                </LineString>
                <LineString id="49420">
                    <coordinates>13.019126879999998,53.37503608000001,0.0 13.01959762,53.37490132,0.0 13.020226429999997,53.37472036999999,0.0 13.020342139999997,53.374683649999994,0.0 13.020637510000002,53.37461554000001,0.0 13.020811369999999,53.374572869999994,0.0 13.02106664,53.37451261,0.0</coordinates>
                </LineString>
                <LineString id="49422">
                    <coordinates>13.0725802,53.36037203,0.0 13.072602079999998,53.36038744,0.0</coordinates>
                </LineString>
                <LineString id="49424">
                    <coordinates>13.072943949999999,53.360512050000004,0.0 13.072785419999999,53.36041320999999,0.0 13.072729439999998,53.36037769,0.0 13.07265897,53.36035559999999,0.0 13.072602079999998,53.36038744,0.0</coordinates>
                </LineString>
                <LineString id="49426">
                    <coordinates>13.07234947,53.360365179999995,0.0 13.07239245,53.3601758,0.0</coordinates>
                </LineString>
                <LineString id="49428">
                    <coordinates>13.07247354,53.36031919,0.0 13.072450269999996,53.36030459999999,0.0</coordinates>
                </LineString>
                <LineString id="49430">
                    <coordinates>13.0725802,53.36037203,0.0 13.07247354,53.36031919,0.0</coordinates>
                </LineString>
                <LineString id="49432">
                    <coordinates>13.07234947,53.360365179999995,0.0 13.072438619999998,53.36031137999999,0.0 13.072450269999996,53.36030459999999,0.0</coordinates>
                </LineString>
                <LineString id="49434">
                    <coordinates>13.069367380000001,53.35822785,0.0 13.06960575,53.35823609,0.0 13.069868929999997,53.358221619999995,0.0</coordinates>
                </LineString>
                <LineString id="49436">
                    <coordinates>13.069367380000001,53.35822785,0.0 13.06930697,53.358232269999995,0.0 13.06915404,53.35814088,0.0</coordinates>
                </LineString>
                <LineString id="49438">
                    <coordinates>13.06915404,53.35814088,0.0 13.069030030000002,53.35806726,0.0 13.06883288,53.35794698000001,0.0 13.068747709999998,53.357899429999996,0.0 13.068742439999998,53.357878379999995,0.0 13.06872152,53.35784732999999,0.0 13.068624739999999,53.35779881,0.0 13.068559,53.357798839999994,0.0 13.06851609,53.35780513,0.0 13.068419129999999,53.357823929999995,0.0</coordinates>
                </LineString>
                <LineString id="49440">
                    <coordinates>13.068285239999998,53.35776166,0.0 13.068193769999999,53.35775336999999,0.0 13.06811284,53.357752729999994,0.0 13.068091699999998,53.35775273,0.0 13.068053750000002,53.35774795,0.0 13.068043929999998,53.35773386,0.0 13.06804428,53.35772419,0.0 13.06802523,53.35758938,0.0 13.068019239999998,53.35756305999999,0.0 13.067994309999998,53.357479689999984,0.0 13.06797686,53.35743178,0.0 13.067935189999998,53.35738867,0.0 13.067946859999997,53.357376869999996,0.0 13.068035559999997,53.35733435,0.0 13.068004500000002,53.35729560000001,0.0 13.06796192,53.35723031999999,0.0 13.06790143,53.357141160000005,0.0 13.067854949999997,53.35706617999998,0.0 13.06777783,53.35697247,0.0 13.067741999999999,53.35692854,0.0 13.067612079999998,53.35683812999998,0.0 13.067484359999998,53.35674494,0.0 13.06742443,53.356715439999995,0.0 13.06734583,53.356694790000006,0.0 13.067240749999998,53.356647209999984,0.0 13.067162000000001,53.3566165,0.0 13.06695064,53.356481720000005,0.0 13.066775299999998,53.356368019999984,0.0</coordinates>
                </LineString>
                <LineString id="49442">
                    <coordinates>13.068419129999999,53.357823929999995,0.0 13.068410399999998,53.35782763999999,0.0 13.068331349999998,53.35778586,0.0 13.068285239999998,53.35776166,0.0</coordinates>
                </LineString>
                <LineString id="49444">
                    <coordinates>13.066775299999998,53.356368019999984,0.0 13.06660868,53.35626532,0.0 13.066468939999998,53.35593685999999,0.0 13.066354529999998,53.35571139999999,0.0 13.066244529999999,53.35555944999999,0.0 13.06620736,53.35549627999999,0.0 13.066208140000002,53.35545519000001,0.0 13.066186240000002,53.35543491999999,0.0 13.06612232,53.35535008,0.0 13.066070020000002,53.35529212,0.0 13.065965550000001,53.35519009,0.0 13.06588252,53.35513119000001,0.0 13.06578075,53.35504403,0.0 13.065724969999996,53.35499034,0.0 13.065566249999998,53.35488349,0.0 13.06554011,53.35488063,0.0 13.06552475,53.3548733,0.0</coordinates>
                </LineString>
                <LineString id="49446">
                    <coordinates>13.06552475,53.3548733,0.0 13.065399399999999,53.354770959999996,0.0 13.065233089999998,53.35463909999999,0.0 13.064869589999997,53.354569119999994,0.0 13.06457029,53.354452159999994,0.0 13.06423652,53.35427632999999,0.0 13.064231719999999,53.35425020999999,0.0 13.064163759999998,53.35420314999999,0.0 13.06396756,53.35403561999999,0.0 13.063836819999999,53.35393485,0.0 13.06351152,53.35379607,0.0</coordinates>
                </LineString>
                <LineString id="49448">
                    <coordinates>13.06208366,53.35293089999999,0.0 13.061846710000001,53.352926260000004,0.0 13.06170294,53.35288345999999,0.0 13.061560679999998,53.35278011,0.0</coordinates>
                </LineString>
                <LineString id="49450">
                    <coordinates>13.014907520000001,53.34514957999999,0.0 13.01485618,53.3452237,0.0 13.014805039999999,53.3452991,0.0 13.014803779999998,53.34530644,0.0</coordinates>
                </LineString>
                <LineString id="49452">
                    <coordinates>13.014803779999998,53.34530644,0.0 13.01480004,53.34532938,0.0</coordinates>
                </LineString>
                <LineString id="49454">
                    <coordinates>13.069868929999997,53.358221619999995,0.0 13.06989308,53.35822034,0.0 13.07008441,53.35823106,0.0 13.070162839999998,53.35822939999999,0.0</coordinates>
                </LineString>
                <LineString id="49456">
                    <coordinates>13.070162839999998,53.35822939999999,0.0 13.070187919999999,53.358218199999996,0.0 13.07025673,53.35817938,0.0</coordinates>
                </LineString>
                <LineString id="49458">
                    <coordinates>13.072408669999998,53.36003274000001,0.0 13.07235703,53.36000100999999,0.0 13.07227654,53.359951589999994,0.0 13.07222386,53.359919950000005,0.0 13.07222157,53.35990936000001,0.0 13.072224820000002,53.35990237,0.0 13.072229109999997,53.35989572999999,0.0 13.07224222,53.359889040000006,0.0 13.072268429999998,53.35987595000001,0.0 13.07229422,53.35986629999999,0.0</coordinates>
                </LineString>
                <LineString id="49460">
                    <coordinates>13.00051005,53.36623296,0.0 13.00048752,53.36616457000001,0.0</coordinates>
                </LineString>
                <LineString id="49462">
                    <coordinates>13.01501373,53.34515022,0.0 13.014980739999999,53.34514458999998,0.0</coordinates>
                </LineString>
                <LineString id="49464">
                    <coordinates>13.01501373,53.34515022,0.0 13.01501369,53.34514888,0.0 13.01501969,53.34512664999998,0.0 13.01501721,53.345118879999994,0.0 13.01499895,53.34508381999999,0.0 13.01497288,53.34506105999999,0.0 13.01496165,53.3450503,0.0</coordinates>
                </LineString>
                <LineString id="49466">
                    <coordinates>13.014956629999999,53.34532507,0.0 13.014989390000002,53.34524808,0.0 13.01501373,53.34515022,0.0</coordinates>
                </LineString>
                <LineString id="49468">
                    <coordinates>13.00110033,53.363927509999996,0.0 13.00111133,53.36388551,0.0 13.001111399999997,53.36384851999998,0.0</coordinates>
                </LineString>
                <LineString id="49470">
                    <coordinates>13.021419830000001,53.37504677,0.0 13.02140434,53.37499765,0.0</coordinates>
                </LineString>
                <LineString id="49472">
                    <coordinates>13.07089784,53.35805358999998,0.0 13.071112130000001,53.35793013,0.0 13.071181109999998,53.35788945999999,0.0</coordinates>
                </LineString>
                <LineString id="49474">
                    <coordinates>13.01105204,53.37731751,0.0 13.01084351,53.37720457999999,0.0 13.01062178,53.37677518,0.0 13.01048501,53.37651032,0.0 13.01007066,53.375987820000006,0.0 13.00921092,53.37553355,0.0 13.00870134,53.37526419,0.0 13.00800966,53.37493276,0.0 13.006979199999998,53.374482189999995,0.0 13.006758509999997,53.37438743999999,0.0</coordinates>
                </LineString>
                <LineString id="49476">
                    <coordinates>13.006758509999997,53.37438743999999,0.0 13.00603278,53.374075899999994,0.0 13.0059055,53.374021279999994,0.0 13.00536214,53.37391349000001,0.0 13.00494595,53.37373337999999,0.0</coordinates>
                </LineString>
                <LineString id="49478">
                    <coordinates>13.10397808,53.30489201,0.0 13.10377687,53.30487725,0.0</coordinates>
                </LineString>
                <LineString id="49480">
                    <coordinates>13.09755503,53.32797393999999,0.0 13.097630180000001,53.327975509999995,0.0</coordinates>
                </LineString>
                <LineString id="49482">
                    <coordinates>13.073940429999999,53.35912156,0.0 13.073793999999998,53.359173099999985,0.0</coordinates>
                </LineString>
                <LineString id="49484">
                    <coordinates>13.073940429999999,53.35912156,0.0 13.0739873,53.359156039999995,0.0</coordinates>
                </LineString>
                <LineString id="49486">
                    <coordinates>13.03464949,53.381143789999996,0.0 13.034892949999998,53.38119231999999,0.0</coordinates>
                </LineString>
                <LineString id="49488">
                    <coordinates>13.09139873,53.33073816,0.0 13.091521129999999,53.33066065999999,0.0</coordinates>
                </LineString>
                <LineString id="49490">
                    <coordinates>13.09173026,53.33053136,0.0 13.091841889999998,53.33045387000001,0.0 13.09186103,53.33044044,0.0</coordinates>
                </LineString>
                <LineString id="49492">
                    <coordinates>13.07027898,53.358391219999994,0.0 13.07040571,53.358322910000005,0.0 13.07044845,53.35830045,0.0</coordinates>
                </LineString>
                <LineString id="49494">
                    <coordinates>13.00890497,53.37722071,0.0 13.00893119,53.37722196,0.0 13.0093715,53.37724315,0.0 13.00951334,53.37724803,0.0 13.00994121,53.37726821,0.0</coordinates>
                </LineString>
                <LineString id="49496">
                    <coordinates>13.07374207,53.35977674,0.0 13.07376274,53.3597786,0.0</coordinates>
                </LineString>
                <LineString id="49498">
                    <coordinates>13.07376274,53.3597786,0.0 13.07377256,53.35978020999999,0.0 13.07377941,53.35978314,0.0</coordinates>
                </LineString>
                <LineString id="49500">
                    <coordinates>13.008278809999998,53.377193340000005,0.0 13.00855217,53.37720424999999,0.0 13.00890497,53.37722071,0.0</coordinates>
                </LineString>
                <LineString id="49502">
                    <coordinates>13.049094899999998,53.38295230000001,0.0 13.049112599999999,53.3828803,0.0 13.049579800000002,53.38204294999999,0.0 13.049968479999999,53.38135283,0.0 13.05009436,53.38117345999999,0.0 13.05028045,53.38081255999999,0.0 13.05034658,53.38069947,0.0</coordinates>
                </LineString>
                <LineString id="49504">
                    <coordinates>13.049094899999998,53.38295230000001,0.0 13.04838445,53.38292165,0.0 13.04768494,53.38281773999999,0.0 13.04731916,53.382707280000005,0.0 13.04692623,53.38262947999999,0.0</coordinates>
                </LineString>
                <LineString id="49506">
                    <coordinates>13.071181109999998,53.35788945999999,0.0 13.071433879999999,53.35773969,0.0 13.07167148,53.35760055,0.0 13.071689869999998,53.35758996999998,0.0</coordinates>
                </LineString>
                <LineString id="49508">
                    <coordinates>13.09267162,53.32525312,0.0 13.092539760000001,53.325286919999996,0.0</coordinates>
                </LineString>
                <LineString id="49510">
                    <coordinates>13.069813089999998,53.35865124000001,0.0 13.06986031,53.35864681,0.0 13.06990021,53.35864889000001,0.0 13.06992437,53.35865923,0.0 13.070092639999997,53.35874969,0.0 13.07015906,53.35875745,0.0 13.070241260000001,53.358770119999996,0.0 13.070299839999997,53.358783979999984,0.0 13.070437759999999,53.358835549999995,0.0 13.070519129999997,53.35888038999998,0.0 13.07084032,53.35907894,0.0 13.070906849999997,53.35910145999999,0.0 13.07147352,53.35919476,0.0 13.071698769999998,53.35921763999999,0.0 13.071896200000001,53.3592332,0.0 13.071926469999998,53.359197039999984,0.0</coordinates>
                </LineString>
                <LineString id="49512">
                    <coordinates>13.07203204,53.35921215,0.0 13.071926469999998,53.359197039999984,0.0</coordinates>
                </LineString>
                <LineString id="49514">
                    <coordinates>13.09327311,53.33186261000001,0.0 13.093217609999998,53.33181794,0.0 13.09313934,53.33185905,0.0 13.093134470000003,53.331864040000006,0.0 13.093072679999999,53.33188685000001,0.0</coordinates>
                </LineString>
                <LineString id="49516">
                    <coordinates>13.093072679999999,53.33188685000001,0.0 13.092423,53.33210124000001,0.0 13.09212621,53.33218463,0.0</coordinates>
                </LineString>
                <LineString id="49518">
                    <coordinates>13.09212621,53.33218463,0.0 13.09204815,53.33222336999999,0.0 13.09153035,53.33241777,0.0 13.09145921,53.3324406,0.0 13.091382979999999,53.332466069999995,0.0</coordinates>
                </LineString>
                <LineString id="49520">
                    <coordinates>13.09066591,53.33201353,0.0 13.090732709999996,53.33208549999999,0.0 13.091203089999999,53.33239242999999,0.0 13.0912687,53.332435159999996,0.0 13.09130754,53.332452809999985,0.0 13.09134182,53.33245998999999,0.0 13.091382979999999,53.332466069999995,0.0</coordinates>
                </LineString>
                <LineString id="49522">
                    <coordinates>13.09066591,53.33201353,0.0 13.090666109999999,53.33186609999999,0.0 13.090655489999998,53.33180289,0.0 13.090647580000002,53.33166022,0.0 13.090681699999998,53.33154817,0.0 13.09077478,53.33146119,0.0 13.09077719,53.331454279999996,0.0</coordinates>
                </LineString>
                <LineString id="49524">
                    <coordinates>13.073407230000003,53.360647319999984,0.0 13.07330686,53.36058602999999,0.0 13.073239469999999,53.36054275,0.0</coordinates>
                </LineString>
                <LineString id="49526">
                    <coordinates>13.073239469999999,53.36054275,0.0 13.073217779999998,53.36052880999999,0.0</coordinates>
                </LineString>
                <LineString id="49528">
                    <coordinates>13.071689869999998,53.35758996999998,0.0 13.07187922,53.35748095,0.0 13.07203639,53.35738907,0.0</coordinates>
                </LineString>
                <LineString id="49530">
                    <coordinates>13.0174841,53.37550107,0.0 13.01823062,53.375290449999994,0.0 13.018987580000001,53.37507599999999,0.0 13.019126879999998,53.37503608000001,0.0</coordinates>
                </LineString>
                <LineString id="49532">
                    <coordinates>13.07044845,53.35830045,0.0 13.0705888,53.35822747,0.0</coordinates>
                </LineString>
                <LineString id="49534">
                    <coordinates>13.069813089999998,53.35865124000001,0.0 13.06994572,53.35857643999999,0.0</coordinates>
                </LineString>
                <LineString id="49536">
                    <coordinates>13.03072322,53.34520536000001,0.0 13.03088442,53.34532398999999,0.0 13.030963160000002,53.34551764,0.0 13.031284009999998,53.34566634,0.0 13.031684170000002,53.34585297999999,0.0 13.031934659999997,53.345965529999994,0.0</coordinates>
                </LineString>
                <LineString id="49538">
                    <coordinates>13.028987909999998,53.34505922999999,0.0 13.029401609999997,53.34507087999999,0.0 13.02998152,53.34509173,0.0 13.03010534,53.34509617999999,0.0 13.0302536,53.34512256,0.0 13.03049638,53.3451659,0.0 13.030599319999999,53.34518447,0.0 13.03072322,53.34520536000001,0.0</coordinates>
                </LineString>
                <LineString id="49540">
                    <coordinates>13.02819735,53.34508063999999,0.0 13.02834693,53.34506375,0.0 13.02878741,53.3450593,0.0 13.028987909999998,53.34505922999999,0.0</coordinates>
                </LineString>
                <LineString id="49542">
                    <coordinates>13.02452368,53.34588712,0.0 13.024705779999998,53.34584789,0.0 13.024863949999999,53.34580101,0.0 13.025048520000002,53.34575311999999,0.0 13.025458830000002,53.3456153,0.0 13.025652079999999,53.345549259999984,0.0 13.02581068,53.345466210000005,0.0 13.025947169999997,53.34539278999999,0.0 13.026237400000001,53.3453433,0.0 13.026475489999997,53.34532093,0.0 13.026625329999998,53.345304869999985,0.0 13.026747500000003,53.345287330000005,0.0 13.027037679999998,53.34523389,0.0 13.027551359999999,53.345156659999994,0.0 13.02798,53.34510529,0.0 13.02819735,53.34508063999999,0.0</coordinates>
                </LineString>
                <LineString id="49544">
                    <coordinates>13.02389913,53.34597585,0.0 13.024205859999999,53.345931310000005,0.0 13.02452368,53.34588712,0.0</coordinates>
                </LineString>
                <LineString id="49546">
                    <coordinates>13.01775173,53.345847969999994,0.0 13.01802179,53.345829859999995,0.0 13.01845091,53.34580659999999,0.0 13.018645859999998,53.34579504999999,0.0 13.019129490000001,53.34580143,0.0 13.019733029999998,53.34580911999999,0.0 13.019948230000004,53.34581928,0.0 13.02029301,53.34583597000001,0.0 13.020623289999998,53.34585129999999,0.0 13.021003929999997,53.34587857999999,0.0 13.021227799999998,53.34589380999999,0.0 13.021363659999999,53.34590017,0.0 13.02186372,53.34604495,0.0 13.02215071,53.34613127999999,0.0 13.022217270000002,53.34615133999999,0.0 13.0223521,53.346168559999995,0.0 13.022502649999998,53.346136019999996,0.0 13.02286809,53.346060269999995,0.0 13.02295884,53.346070579999996,0.0 13.023070019999999,53.34607483999999,0.0 13.023145879999998,53.34607569999999,0.0 13.023248239999997,53.34606913,0.0 13.023380880000001,53.34605135000002,0.0 13.02364612,53.346013559999996,0.0 13.02389913,53.34597585,0.0</coordinates>
                </LineString>
                <LineString id="49548">
                    <coordinates>13.015692179999999,53.34619477999998,0.0 13.01587639,53.34614963,0.0 13.016237249999998,53.346059409999995,0.0 13.016441969999997,53.346010579999984,0.0 13.016577489999998,53.34597597999999,0.0 13.016875579999999,53.345945539999995,0.0 13.017128680000003,53.3459212,0.0 13.017425459999998,53.34588566000001,0.0 13.017684440000002,53.345852509999986,0.0 13.01775173,53.345847969999994,0.0</coordinates>
                </LineString>
                <LineString id="49550">
                    <coordinates>13.01534111,53.346285599999995,0.0 13.01551691,53.34623933,0.0 13.015595809999999,53.346221269999994,0.0</coordinates>
                </LineString>
                <LineString id="49552">
                    <coordinates>13.01518971,53.34451042,0.0 13.015044910000002,53.34440312,0.0</coordinates>
                </LineString>
                <LineString id="49554">
                    <coordinates>13.014160170000002,53.346197829999994,0.0 13.013996249999998,53.346134299999996,0.0</coordinates>
                </LineString>
                <LineString id="49556">
                    <coordinates>13.013996249999998,53.346134299999996,0.0 13.01389194,53.34609326,0.0 13.013684609999999,53.346208929999996,0.0</coordinates>
                </LineString>
            </MultiGeometry>
        </Placemark>
        <Placemark id="49563">
            <name>MultiPoint</name>
            <styleUrl>#49640</styleUrl>
            <MultiGeometry id="49562">
                <Point id="49564">
                    <coordinates>12.997271935685,53.3613289296607,0.0</coordinates>
                </Point>
                <Point id="49566">
                    <coordinates>13.001283484000002,53.363062359999994,0.0</coordinates>
                </Point>
                <Point id="49568">
                    <coordinates>13.001098209999999,53.363289681999994,0.0</coordinates>
                </Point>
                <Point id="49570">
                    <coordinates>13.015594786999998,53.346323183,0.0</coordinates>
                </Point>
                <Point id="49572">
                    <coordinates>13.015852716434502,53.3461778641846,0.0</coordinates>
                </Point>
                <Point id="49574">
                    <coordinates>13.015687440598702,53.3462031722879,0.0</coordinates>
                </Point>
                <Point id="49576">
                    <coordinates>13.001224505748198,53.3667777408683,0.0</coordinates>
                </Point>
                <Point id="49578">
                    <coordinates>13.000859475520897,53.366689432416585,0.0</coordinates>
                </Point>
                <Point id="49580">
                    <coordinates>13.0005307055717,53.3666803722876,0.0</coordinates>
                </Point>
                <Point id="49582">
                    <coordinates>13.000593645003,53.366215867141705,0.0</coordinates>
                </Point>
                <Point id="49584">
                    <coordinates>13.001299272680898,53.36565929201501,0.0</coordinates>
                </Point>
                <Point id="49586">
                    <coordinates>13.0013226646364,53.364970410945006,0.0</coordinates>
                </Point>
                <Point id="49588">
                    <coordinates>13.001105539765998,53.364268614808594,0.0</coordinates>
                </Point>
                <Point id="49590">
                    <coordinates>13.0013751024174,53.363308700881106,0.0</coordinates>
                </Point>
                <Point id="49592">
                    <coordinates>13.001271372205698,53.3626887601642,0.0</coordinates>
                </Point>
                <Point id="49594">
                    <coordinates>13.001642614140698,53.362816750223594,0.0</coordinates>
                </Point>
                <Point id="49596">
                    <coordinates>12.997064315981103,53.361014139484,0.0</coordinates>
                </Point>
                <Point id="49598">
                    <coordinates>12.9970818177082,53.3607960679807,0.0</coordinates>
                </Point>
                <Point id="49600">
                    <coordinates>12.9966123106255,53.36079283780828,0.0</coordinates>
                </Point>
                <Point id="49602">
                    <coordinates>13.032204342404398,53.34569973793649,0.0</coordinates>
                </Point>
                <Point id="49604">
                    <coordinates>13.015599778444699,53.3461207470235,0.0</coordinates>
                </Point>
                <Point id="49606">
                    <coordinates>13.0151804791142,53.34621341473769,0.0</coordinates>
                </Point>
                <Point id="49608">
                    <coordinates>13.0147177703382,53.34545743205959,0.0</coordinates>
                </Point>
                <Point id="49610">
                    <coordinates>13.014403489159697,53.34527634907019,0.0</coordinates>
                </Point>
                <Point id="49612">
                    <coordinates>13.0741195448009,53.359239118728794,0.0</coordinates>
                </Point>
                <Point id="49614">
                    <coordinates>13.074090078463898,53.35919608970639,0.0</coordinates>
                </Point>
                <Point id="49616">
                    <coordinates>13.062578988247202,53.352639354886904,0.0</coordinates>
                </Point>
                <Point id="49618">
                    <coordinates>13.090811028600397,53.32553149240979,0.0</coordinates>
                </Point>
                <Point id="49620">
                    <coordinates>13.1052947558282,53.304849779651995,0.0</coordinates>
                </Point>
                <Point id="49622">
                    <coordinates>13.000513896999998,53.366403006999995,0.0</coordinates>
                </Point>
                <Point id="49624">
                    <coordinates>13.0012095920458,53.3638485884679,0.0</coordinates>
                </Point>
                <Point id="49626">
                    <coordinates>13.004646924068599,53.37387389373889,0.0</coordinates>
                </Point>
                <Point id="49628">
                    <coordinates>13.0063250573559,53.37474992437069,0.0</coordinates>
                </Point>
                <Point id="49630">
                    <coordinates>13.045730179999998,53.383121373999984,0.0</coordinates>
                </Point>
                <Point id="49632">
                    <coordinates>13.000941643999997,53.363539302,0.0</coordinates>
                </Point>
                <Point id="49634">
                    <coordinates>13.013881555999998,53.34646812799999,0.0</coordinates>
                </Point>
                <Point id="49636">
                    <coordinates>13.013806832456698,53.3462691459481,0.0</coordinates>
                </Point>
                <Point id="49638">
                    <coordinates>13.015096249299798,53.34430879962038,0.0</coordinates>
                </Point>
            </MultiGeometry>
        </Placemark>
    </Document>
</kml>
