<?xml version="1.0" encoding="UTF-8"?>
<kml xmlns="http://www.opengis.net/kml/2.2" xmlns:gx="http://www.google.com/kml/ext/2.2">
    <Document id="44467">
        <Style id="45242">
            <IconStyle id="45243">
                <color>ff0000ff</color>
                <colorMode>normal</colorMode>
                <scale>1</scale>
                <heading>0</heading>
                <Icon id="45244">
                    <href>http://maps.google.com/mapfiles/kml/pushpin/ylw-pushpin.png</href>
                </Icon>
            </IconStyle>
            <LineStyle id="45245">
                <color>ff0000ff</color>
                <colorMode>normal</colorMode>
                <width>5</width>
            </LineStyle>
        </Style>
        <Style id="45268">
            <IconStyle id="45270">
                <colorMode>normal</colorMode>
                <scale>1</scale>
                <heading>0</heading>
                <Icon id="45271">
                    <href>http://maps.google.com/mapfiles/kml/shapes/placemark_circle.png</href>
                </Icon>
            </IconStyle>
            <LabelStyle id="45269">
                <colorMode>normal</colorMode>
                <scale>0.0</scale>
            </LabelStyle>
        </Style>
        <open>1</open>
        <Placemark id="44469">
            <name>MultiLine</name>
            <styleUrl>#45242</styleUrl>
            <MultiGeometry id="44468">
                <LineString id="44470">
                    <coordinates>13.561908829999998,53.67511437,0.0 13.561916680000001,53.67515126000001,0.0</coordinates>
                </LineString>
                <LineString id="44472">
                    <coordinates>13.48899091,53.67621914,0.0 13.489063840000002,53.67620608000001,0.0</coordinates>
                </LineString>
                <LineString id="44474">
                    <coordinates>13.558247609999999,53.67777043999999,0.0 13.558269759999998,53.67771608999999,0.0</coordinates>
                </LineString>
                <LineString id="44476">
                    <coordinates>13.558217069999998,53.67785231999999,0.0 13.558247609999999,53.67777043999999,0.0</coordinates>
                </LineString>
                <LineString id="44478">
                    <coordinates>13.558269759999998,53.67771608999999,0.0 13.558307250000002,53.67764882,0.0 13.558490949999998,53.67753219999999,0.0 13.55867102,53.6774463,0.0</coordinates>
                </LineString>
                <LineString id="44480">
                    <coordinates>13.55867102,53.6774463,0.0 13.55870347,53.67743042,0.0</coordinates>
                </LineString>
                <LineString id="44482">
                    <coordinates>13.55870347,53.67743042,0.0 13.558877219999998,53.67736471,0.0</coordinates>
                </LineString>
                <LineString id="44484">
                    <coordinates>13.558877219999998,53.67736471,0.0 13.5589298,53.67735427,0.0</coordinates>
                </LineString>
                <LineString id="44486">
                    <coordinates>13.55895101,53.67735137999999,0.0 13.559025970000002,53.67734138,0.0 13.559159719999998,53.67731315999998,0.0</coordinates>
                </LineString>
                <LineString id="44488">
                    <coordinates>13.559159719999998,53.67731315999998,0.0 13.559373829999997,53.67726835999998,0.0 13.559500869999999,53.677244460000004,0.0 13.559722180000001,53.67719979,0.0 13.55983999,53.67717969,0.0 13.559888079999999,53.67717225999999,0.0</coordinates>
                </LineString>
                <LineString id="44490">
                    <coordinates>13.559888079999999,53.67717225999999,0.0 13.560115250000003,53.6771353,0.0 13.56029874,53.677105659999995,0.0 13.560403709999997,53.677089349999996,0.0 13.56047452,53.67707805,0.0</coordinates>
                </LineString>
                <LineString id="44492">
                    <coordinates>13.54214013,53.67584172,0.0 13.54222244,53.67575863999999,0.0</coordinates>
                </LineString>
                <LineString id="44494">
                    <coordinates>13.542458049999999,53.675503289999995,0.0 13.542515719999999,53.67544310999999,0.0 13.542668339999997,53.6752777,0.0 13.54274333,53.67519561,0.0 13.54277629,53.67515949,0.0</coordinates>
                </LineString>
                <LineString id="44496">
                    <coordinates>13.542424179999998,53.67554105000001,0.0 13.542458049999999,53.675503289999995,0.0</coordinates>
                </LineString>
                <LineString id="44498">
                    <coordinates>13.54277629,53.67515949,0.0 13.542837250000002,53.67509507,0.0</coordinates>
                </LineString>
                <LineString id="44500">
                    <coordinates>13.54222244,53.67575863999999,0.0 13.542285049999998,53.675693249999995,0.0 13.54237444,53.67559411999999,0.0</coordinates>
                </LineString>
                <LineString id="44502">
                    <coordinates>13.54237444,53.67559411999999,0.0 13.542424179999998,53.67554105000001,0.0</coordinates>
                </LineString>
                <LineString id="44504">
                    <coordinates>13.542837250000002,53.67509507,0.0 13.54289033,53.67503474,0.0 13.54291133,53.67501523999999,0.0</coordinates>
                </LineString>
                <LineString id="44506">
                    <coordinates>13.54291133,53.67501523999999,0.0 13.542771,53.67497045999999,0.0</coordinates>
                </LineString>
                <LineString id="44508">
                    <coordinates>13.542831999999999,53.67490183,0.0 13.542771,53.67497045999999,0.0</coordinates>
                </LineString>
                <LineString id="44510">
                    <coordinates>13.543274809999998,53.67458256,0.0 13.5433783,53.67453298,0.0</coordinates>
                </LineString>
                <LineString id="44512">
                    <coordinates>13.542831999999999,53.67490183,0.0 13.542866399999998,53.674865489999995,0.0 13.542913909999996,53.67481735999999,0.0</coordinates>
                </LineString>
                <LineString id="44514">
                    <coordinates>13.542913909999996,53.67481735999999,0.0 13.542981889999998,53.674760500000005,0.0 13.54303526,53.67472371,0.0 13.543146510000001,53.67465678999999,0.0 13.54324074,53.67459992,0.0</coordinates>
                </LineString>
                <LineString id="44516">
                    <coordinates>13.54324074,53.67459992,0.0 13.543274809999998,53.67458256,0.0</coordinates>
                </LineString>
                <LineString id="44518">
                    <coordinates>13.5433783,53.67453298,0.0 13.543440849999998,53.67450689,0.0</coordinates>
                </LineString>
                <LineString id="44520">
                    <coordinates>13.543440849999998,53.67450689,0.0 13.543463489999999,53.674493559999995,0.0</coordinates>
                </LineString>
                <LineString id="44522">
                    <coordinates>13.544018909999998,53.67454482,0.0 13.54418104,53.67457156999999,0.0 13.544356469999999,53.67458636999999,0.0 13.54449113,53.674591080000006,0.0 13.54458398,53.67458575999999,0.0 13.54464853,53.67457772,0.0 13.54473808,53.67455083,0.0 13.544819919999998,53.674519329999995,0.0</coordinates>
                </LineString>
                <LineString id="44524">
                    <coordinates>13.54352027,53.67445878999999,0.0 13.543773819999998,53.67450265999999,0.0</coordinates>
                </LineString>
                <LineString id="44526">
                    <coordinates>13.543463489999999,53.674493559999995,0.0 13.54352027,53.67445878999999,0.0</coordinates>
                </LineString>
                <LineString id="44528">
                    <coordinates>13.54513722,53.674340740000005,0.0 13.545071770000002,53.674378589999996,0.0</coordinates>
                </LineString>
                <LineString id="44530">
                    <coordinates>13.544819919999998,53.674519329999995,0.0 13.544864230000002,53.67449982999999,0.0 13.544938200000002,53.67445488,0.0 13.545071770000002,53.674378589999996,0.0</coordinates>
                </LineString>
                <LineString id="44532">
                    <coordinates>13.545368190000001,53.67410718000001,0.0 13.5453293,53.67408385,0.0</coordinates>
                </LineString>
                <LineString id="44534">
                    <coordinates>13.5453293,53.67408385,0.0 13.545273580000002,53.67405243000001,0.0 13.5452666,53.67404388999999,0.0</coordinates>
                </LineString>
                <LineString id="44536">
                    <coordinates>13.5452666,53.67404388999999,0.0 13.54522251,53.67400764,0.0 13.545200379999999,53.67398820999999,0.0 13.545171329999999,53.67396479999999,0.0 13.54515803,53.673950749999996,0.0</coordinates>
                </LineString>
                <LineString id="44538">
                    <coordinates>13.54515803,53.673950749999996,0.0 13.54507808,53.67384815999999,0.0 13.545033320000002,53.673787759999996,0.0</coordinates>
                </LineString>
                <LineString id="44540">
                    <coordinates>13.54513722,53.674340740000005,0.0 13.54519072,53.67430984,0.0 13.54528286,53.674244630000004,0.0 13.545428250000002,53.67414449,0.0</coordinates>
                </LineString>
                <LineString id="44542">
                    <coordinates>13.545428250000002,53.67414449,0.0 13.545368190000001,53.67410718000001,0.0</coordinates>
                </LineString>
                <LineString id="44544">
                    <coordinates>13.545033320000002,53.673787759999996,0.0 13.544959000000002,53.673685559999996,0.0</coordinates>
                </LineString>
                <LineString id="44546">
                    <coordinates>13.544959000000002,53.673685559999996,0.0 13.544938659999998,53.67364498999999,0.0 13.54487678,53.67353377999999,0.0 13.54487447,53.67352776999998,0.0</coordinates>
                </LineString>
                <LineString id="44548">
                    <coordinates>13.54487447,53.67352776999998,0.0 13.54486545,53.67349371,0.0 13.544863919999997,53.673451699999994,0.0 13.54487133,53.67340772000001,0.0 13.54487726,53.67337722,0.0 13.54488791,53.67334677,0.0</coordinates>
                </LineString>
                <LineString id="44550">
                    <coordinates>13.544925479999996,53.67327878,0.0 13.545043169999998,53.673149489999986,0.0 13.545104020000002,53.6730835,0.0</coordinates>
                </LineString>
                <LineString id="44552">
                    <coordinates>13.545104020000002,53.6730835,0.0 13.54514602,53.673040669999985,0.0</coordinates>
                </LineString>
                <LineString id="44554">
                    <coordinates>13.54514602,53.673040669999985,0.0 13.545194180000001,53.67299166000001,0.0</coordinates>
                </LineString>
                <LineString id="44556">
                    <coordinates>13.545194180000001,53.67299166000001,0.0 13.54530461,53.672873720000005,0.0</coordinates>
                </LineString>
                <LineString id="44558">
                    <coordinates>13.54488791,53.67334677,0.0 13.544913859999998,53.673298289999984,0.0 13.544925479999996,53.67327878,0.0</coordinates>
                </LineString>
                <LineString id="44560">
                    <coordinates>13.556615880000003,53.67236507999999,0.0 13.55651217,53.67229667000001,0.0 13.55643657,53.672253569999995,0.0</coordinates>
                </LineString>
                <LineString id="44562">
                    <coordinates>13.556615880000003,53.67236507999999,0.0 13.55673221,53.67241711,0.0</coordinates>
                </LineString>
                <LineString id="44564">
                    <coordinates>13.557160679999999,53.67253149999999,0.0 13.55721891,53.67257255999999,0.0 13.55723323,53.67258419999999,0.0 13.557251570000002,53.67259208,0.0</coordinates>
                </LineString>
                <LineString id="44566">
                    <coordinates>13.55673221,53.67241711,0.0 13.5566711,53.672446179999994,0.0 13.5565112,53.672519109999996,0.0 13.556470949999998,53.67253723,0.0</coordinates>
                </LineString>
                <LineString id="44568">
                    <coordinates>13.556458339999999,53.67254353999999,0.0 13.5560028,53.67274420999999,0.0 13.555956030000003,53.67276433000001,0.0 13.555855380000002,53.67280450999999,0.0 13.55578101,53.67283453,0.0</coordinates>
                </LineString>
                <LineString id="44570">
                    <coordinates>13.556470949999998,53.67253723,0.0 13.556458339999999,53.67254353999999,0.0</coordinates>
                </LineString>
                <LineString id="44572">
                    <coordinates>13.555757180000002,53.67284363,0.0 13.555632240000001,53.67289516,0.0 13.555473329999998,53.67296818999999,0.0</coordinates>
                </LineString>
                <LineString id="44574">
                    <coordinates>13.55643657,53.672253569999995,0.0 13.556340440000001,53.67230352999999,0.0 13.556062009999998,53.67245383000001,0.0 13.55599651,53.672479839999994,0.0</coordinates>
                </LineString>
                <LineString id="44576">
                    <coordinates>13.557327880000003,53.67242148,0.0 13.557337120000001,53.67246757,0.0 13.557351419999996,53.67248805999999,0.0 13.55736691,53.67250701999999,0.0</coordinates>
                </LineString>
                <LineString id="44578">
                    <coordinates>13.55578101,53.67283453,0.0 13.555757180000002,53.67284363,0.0</coordinates>
                </LineString>
                <LineString id="44580">
                    <coordinates>13.56096448,53.67421795999999,0.0 13.560703889999996,53.67408612,0.0</coordinates>
                </LineString>
                <LineString id="44582">
                    <coordinates>13.560703889999996,53.67408612,0.0 13.56061401,53.67404239999999,0.0 13.56056936,53.67402535999999,0.0</coordinates>
                </LineString>
                <LineString id="44584">
                    <coordinates>13.55736691,53.67250701999999,0.0 13.557391789999999,53.67252898,0.0 13.55740838,53.67254000999999,0.0 13.55745533,53.67256487999999,0.0 13.557506479999999,53.672586460000005,0.0 13.557571129999998,53.67261016,0.0</coordinates>
                </LineString>
                <LineString id="44586">
                    <coordinates>13.557251570000002,53.67259208,0.0 13.55736691,53.67250701999999,0.0</coordinates>
                </LineString>
                <LineString id="44588">
                    <coordinates>13.557327880000003,53.67242148,0.0 13.557004869999997,53.67226604999998,0.0 13.556874619999997,53.67220009999998,0.0</coordinates>
                </LineString>
                <LineString id="44590">
                    <coordinates>13.561304169999998,53.67439459,0.0 13.561146909999998,53.674309779999994,0.0</coordinates>
                </LineString>
                <LineString id="44592">
                    <coordinates>13.561146909999998,53.674309779999994,0.0 13.56100009,53.67423620999999,0.0 13.56096448,53.67421795999999,0.0</coordinates>
                </LineString>
                <LineString id="44594">
                    <coordinates>13.56056936,53.67402535999999,0.0 13.560411589999998,53.673960969999996,0.0 13.56032576,53.67393010999999,0.0 13.560139689999998,53.67385056999999,0.0 13.559828200000002,53.67371467,0.0 13.5597635,53.67368443,0.0</coordinates>
                </LineString>
                <LineString id="44596">
                    <coordinates>13.5594565,53.67353829,0.0 13.559273660000002,53.6734465,0.0 13.559033469999997,53.67332042999999,0.0 13.55886122,53.673227729999994,0.0</coordinates>
                </LineString>
                <LineString id="44598">
                    <coordinates>13.55886122,53.673227729999994,0.0 13.558642450000002,53.67310783,0.0</coordinates>
                </LineString>
                <LineString id="44600">
                    <coordinates>13.5580258,53.67279186,0.0 13.557966739999998,53.67276299,0.0 13.557906739999998,53.67273689999999,0.0 13.55778588,53.67268944,0.0 13.55774285,53.672674779999994,0.0 13.55769099,53.67265468,0.0</coordinates>
                </LineString>
                <LineString id="44602">
                    <coordinates>13.55769099,53.67265468,0.0 13.557571129999998,53.67261016,0.0</coordinates>
                </LineString>
                <LineString id="44604">
                    <coordinates>13.55871172,53.67954097999999,0.0 13.558665650000002,53.67948188,0.0</coordinates>
                </LineString>
                <LineString id="44606">
                    <coordinates>13.558665650000002,53.67948188,0.0 13.558625600000001,53.67943373000001,0.0</coordinates>
                </LineString>
                <LineString id="44608">
                    <coordinates>13.56047452,53.67707805,0.0 13.560492809999998,53.67707358,0.0 13.56063361,53.67705038999999,0.0 13.560926259999999,53.677005259999994,0.0 13.561108690000001,53.67697807999999,0.0</coordinates>
                </LineString>
                <LineString id="44610">
                    <coordinates>13.561108690000001,53.67697807999999,0.0 13.56114262,53.67697372999999,0.0 13.561219240000002,53.67695483,0.0 13.561287039999998,53.67693982999999,0.0</coordinates>
                </LineString>
                <LineString id="44612">
                    <coordinates>13.561287039999998,53.67693982999999,0.0 13.5614033,53.67691299999999,0.0 13.56147436,53.676894909999994,0.0</coordinates>
                </LineString>
                <LineString id="44614">
                    <coordinates>13.56147436,53.676894909999994,0.0 13.561563440000002,53.67687431,0.0 13.56178613,53.67683247,0.0 13.56197771,53.67679375999999,0.0 13.56206276,53.67677877999999,0.0</coordinates>
                </LineString>
                <LineString id="44616">
                    <coordinates>13.56206276,53.67677877999999,0.0 13.562370229999999,53.67671474,0.0 13.562569689999998,53.67667093,0.0</coordinates>
                </LineString>
                <LineString id="44618">
                    <coordinates>13.561056429999999,53.67581262,0.0 13.561108709999996,53.67580242,0.0 13.561200810000003,53.675782579999996,0.0 13.561311839999998,53.67575085,0.0 13.56147385,53.675704399999994,0.0</coordinates>
                </LineString>
                <LineString id="44620">
                    <coordinates>13.56147385,53.675704399999994,0.0 13.56185859,53.67558728,0.0</coordinates>
                </LineString>
                <LineString id="44622">
                    <coordinates>13.56194648,53.675683719999995,0.0 13.561958769999999,53.67572499999999,0.0</coordinates>
                </LineString>
                <LineString id="44624">
                    <coordinates>13.56185859,53.67558728,0.0 13.56186502,53.67557186999999,0.0 13.561882059999999,53.675523469999995,0.0 13.561881,53.67551359,0.0 13.561804969999999,53.67537125,0.0 13.56172675,53.67521348999998,0.0</coordinates>
                </LineString>
                <LineString id="44626">
                    <coordinates>13.561710269999999,53.674746539999994,0.0 13.56174804,53.67480031,0.0 13.56178552,53.67484770000001,0.0</coordinates>
                </LineString>
                <LineString id="44628">
                    <coordinates>13.56178552,53.67484770000001,0.0 13.56183147,53.674920560000004,0.0 13.561849350000001,53.67494825,0.0</coordinates>
                </LineString>
                <LineString id="44630">
                    <coordinates>13.561849350000001,53.67494825,0.0 13.561867469999997,53.67498948999999,0.0 13.561880229999998,53.67502363,0.0 13.561888419999999,53.67505207999999,0.0 13.561908829999998,53.67511437,0.0</coordinates>
                </LineString>
                <LineString id="44632">
                    <coordinates>13.56172675,53.67521348999998,0.0 13.561916680000001,53.67515126000001,0.0</coordinates>
                </LineString>
                <LineString id="44634">
                    <coordinates>13.56166123,53.67468577000001,0.0 13.56164151,53.6746652,0.0 13.56163119,53.67465225,0.0</coordinates>
                </LineString>
                <LineString id="44636">
                    <coordinates>13.56163119,53.67465225,0.0 13.56159771,53.67461783,0.0</coordinates>
                </LineString>
                <LineString id="44638">
                    <coordinates>13.56159771,53.67461783,0.0 13.56154578,53.674567579999994,0.0 13.561504329999998,53.67453317999999,0.0 13.561444189999998,53.67448951999999,0.0 13.56139134,53.67445180000001,0.0</coordinates>
                </LineString>
                <LineString id="44640">
                    <coordinates>13.56139134,53.67445180000001,0.0 13.56135815,53.67442932,0.0 13.561334910000001,53.67441482000002,0.0 13.561304169999998,53.67439459,0.0</coordinates>
                </LineString>
                <LineString id="44642">
                    <coordinates>13.545332769999998,53.67263087,0.0 13.54547605,53.67268219,0.0</coordinates>
                </LineString>
                <LineString id="44644">
                    <coordinates>13.54547605,53.67268219,0.0 13.545392760000002,53.67276892000001,0.0</coordinates>
                </LineString>
                <LineString id="44646">
                    <coordinates>13.545392760000002,53.67276892000001,0.0 13.54535981,53.67280628,0.0</coordinates>
                </LineString>
                <LineString id="44648">
                    <coordinates>13.54535981,53.67280628,0.0 13.54530461,53.672873720000005,0.0</coordinates>
                </LineString>
                <LineString id="44650">
                    <coordinates>13.544663499999999,53.67061743999999,0.0 13.54445096,53.67056817999999,0.0 13.544331810000001,53.67053804999999,0.0</coordinates>
                </LineString>
                <LineString id="44652">
                    <coordinates>13.53069565,53.67225918999999,0.0 13.530714129999998,53.67223238999999,0.0 13.53103129,53.67219585000001,0.0</coordinates>
                </LineString>
                <LineString id="44654">
                    <coordinates>13.557941489999997,53.67878796999999,0.0 13.5579114,53.67876032,0.0 13.557889550000002,53.67873081,0.0 13.55787229,53.67870266,0.0 13.55785194,53.678653309999994,0.0 13.557843799999999,53.678622520000005,0.0 13.557843960000001,53.678595650000005,0.0</coordinates>
                </LineString>
                <LineString id="44656">
                    <coordinates>13.555473329999998,53.67296818999999,0.0 13.555183119999999,53.67308686999999,0.0 13.55498787,53.67316819999999,0.0 13.554837690000001,53.67321070999999,0.0</coordinates>
                </LineString>
                <LineString id="44658">
                    <coordinates>13.554837690000001,53.67321070999999,0.0 13.555070289999998,53.67339826999999,0.0 13.555218349999999,53.67351161,0.0 13.555251679999998,53.67353719,0.0 13.555348739999998,53.67361802,0.0</coordinates>
                </LineString>
                <LineString id="44660">
                    <coordinates>13.555348739999998,53.67361802,0.0 13.55548592,53.67373528,0.0 13.55567478,53.67386427,0.0 13.55571363,53.67388207999999,0.0 13.555746209999999,53.67390272,0.0 13.555996459999998,53.67404681,0.0 13.556264539999997,53.67420271,0.0</coordinates>
                </LineString>
                <LineString id="44662">
                    <coordinates>13.556264539999997,53.67420271,0.0 13.556352379999998,53.67426281,0.0 13.55641607,53.67431674,0.0 13.556456379999998,53.67435063999999,0.0</coordinates>
                </LineString>
                <LineString id="44664">
                    <coordinates>13.556456379999998,53.67435063999999,0.0 13.55658729,53.67446296999999,0.0</coordinates>
                </LineString>
                <LineString id="44666">
                    <coordinates>13.55658729,53.67446296999999,0.0 13.55667728,53.67454092999999,0.0</coordinates>
                </LineString>
                <LineString id="44668">
                    <coordinates>13.55690822,53.67472406,0.0 13.55709649,53.6748714,0.0 13.5572735,53.675004179999995,0.0 13.557421449999998,53.675116499999994,0.0</coordinates>
                </LineString>
                <LineString id="44670">
                    <coordinates>13.55599651,53.672479839999994,0.0 13.55563619,53.67263002999999,0.0 13.55541444,53.67271873,0.0 13.555318269999997,53.672753879999995,0.0 13.555134150000002,53.67281253000001,0.0 13.555009999999998,53.67286576000001,0.0 13.55467244,53.6730115,0.0</coordinates>
                </LineString>
                <LineString id="44672">
                    <coordinates>13.55467244,53.6730115,0.0 13.554272,53.67318637,0.0 13.554211340000002,53.673199329999996,0.0 13.55402941,53.67327839,0.0 13.553881799999997,53.67343825,0.0</coordinates>
                </LineString>
                <LineString id="44674">
                    <coordinates>13.553881799999997,53.67343825,0.0 13.55383796,53.67357696,0.0 13.55379334,53.67371973000001,0.0</coordinates>
                </LineString>
                <LineString id="44676">
                    <coordinates>13.55379334,53.67371973000001,0.0 13.553960309999999,53.673845919999984,0.0 13.5540415,53.67389038,0.0 13.554153220000002,53.67395333,0.0 13.55436439,53.674110159999984,0.0 13.55467464,53.674339919999994,0.0</coordinates>
                </LineString>
                <LineString id="44678">
                    <coordinates>13.557421449999998,53.675116499999994,0.0 13.557354589999997,53.67526151999999,0.0 13.55730227,53.675373449999995,0.0 13.557254930000001,53.67547576,0.0</coordinates>
                </LineString>
                <LineString id="44680">
                    <coordinates>13.558201239999999,53.67604085999999,0.0 13.558431099999998,53.67601547,0.0 13.5586896,53.67598614,0.0</coordinates>
                </LineString>
                <LineString id="44682">
                    <coordinates>13.5586896,53.67598614,0.0 13.558903300000003,53.67598224999999,0.0 13.5593858,53.67597381,0.0</coordinates>
                </LineString>
                <LineString id="44684">
                    <coordinates>13.5593858,53.67597381,0.0 13.559860370000003,53.67596126000001,0.0 13.560022839999997,53.67595593999999,0.0</coordinates>
                </LineString>
                <LineString id="44686">
                    <coordinates>13.560022839999997,53.67595593999999,0.0 13.560462019999997,53.675908509999985,0.0 13.56060895,53.67589098999999,0.0</coordinates>
                </LineString>
                <LineString id="44688">
                    <coordinates>13.56060895,53.67589098999999,0.0 13.56094545,53.675832,0.0 13.561056429999999,53.67581262,0.0</coordinates>
                </LineString>
                <LineString id="44690">
                    <coordinates>13.55467464,53.674339919999994,0.0 13.554752170000002,53.67440318999999,0.0 13.55484803,53.674482129999994,0.0</coordinates>
                </LineString>
                <LineString id="44692">
                    <coordinates>13.55484803,53.674482129999994,0.0 13.55503224,53.67462564,0.0 13.555114400000003,53.67468989,0.0 13.55513304,53.674700749999985,0.0</coordinates>
                </LineString>
                <LineString id="44694">
                    <coordinates>13.56220448,53.67614021,0.0 13.562324459999997,53.676307339999994,0.0 13.562389109999998,53.67639372999999,0.0 13.562454589999998,53.67648026,0.0 13.562482719999998,53.67654187,0.0</coordinates>
                </LineString>
                <LineString id="44696">
                    <coordinates>13.562569689999998,53.67667093,0.0 13.562482719999998,53.67654187,0.0</coordinates>
                </LineString>
                <LineString id="44698">
                    <coordinates>13.561958769999999,53.67572499999999,0.0 13.561989099999996,53.6757769,0.0</coordinates>
                </LineString>
                <LineString id="44700">
                    <coordinates>13.5597635,53.67368443,0.0 13.559506739999998,53.67356294,0.0 13.5594565,53.67353829,0.0</coordinates>
                </LineString>
                <LineString id="44702">
                    <coordinates>13.543977739999999,53.67453801,0.0 13.543988409999999,53.67453982,0.0 13.544018909999998,53.67454482,0.0</coordinates>
                </LineString>
                <LineString id="44704">
                    <coordinates>13.543773819999998,53.67450265999999,0.0 13.543977739999999,53.67453801,0.0</coordinates>
                </LineString>
                <LineString id="44706">
                    <coordinates>13.528485819999998,53.67267377999999,0.0 13.52851923,53.67266687000001,0.0</coordinates>
                </LineString>
                <LineString id="44708">
                    <coordinates>13.53548281,53.6707476,0.0 13.53548977,53.670743609999995,0.0</coordinates>
                </LineString>
                <LineString id="44710">
                    <coordinates>13.535233789999998,53.670889769999995,0.0 13.53548281,53.6707476,0.0</coordinates>
                </LineString>
                <LineString id="44712">
                    <coordinates>13.56166123,53.67468577000001,0.0 13.561704430000002,53.67473823000001,0.0 13.561710269999999,53.674746539999994,0.0</coordinates>
                </LineString>
                <LineString id="44714">
                    <coordinates>13.560793919999998,53.683019230000006,0.0 13.560811719999997,53.682890789999995,0.0 13.5607247,53.68186483,0.0 13.56069582,53.681738870000004,0.0 13.56063509,53.68150827999999,0.0 13.56059637,53.68141528,0.0 13.56050916,53.68127697,0.0 13.560408789999999,53.6811351,0.0 13.560357829999997,53.68105954999999,0.0</coordinates>
                </LineString>
                <LineString id="44716">
                    <coordinates>13.55871172,53.67954097999999,0.0 13.55875559,53.67976057,0.0 13.55875999,53.679780709999996,0.0 13.558901190000002,53.68006386000001,0.0 13.55925705,53.68001881,0.0 13.559530420000002,53.68000498,0.0 13.559650470000001,53.68008681,0.0 13.559802780000002,53.68029835,0.0 13.56003155,53.68061691,0.0 13.560259379999998,53.68093133,0.0 13.560357829999997,53.68105954999999,0.0</coordinates>
                </LineString>
                <LineString id="44718">
                    <coordinates>13.54537442,53.67258326999999,0.0 13.54537061,53.67258774999999,0.0 13.545332769999998,53.67263087,0.0</coordinates>
                </LineString>
                <LineString id="44720">
                    <coordinates>13.54532728,53.672628929999995,0.0 13.545332769999998,53.67263087,0.0</coordinates>
                </LineString>
                <LineString id="44722">
                    <coordinates>13.544254529999998,53.67200112999999,0.0 13.54431913,53.67202797000001,0.0 13.544407509999996,53.67206445,0.0 13.545013330000002,53.67234006,0.0 13.54538883,53.67253512,0.0</coordinates>
                </LineString>
                <LineString id="44724">
                    <coordinates>13.543837619999998,53.67180554,0.0 13.544136649999999,53.671947319999994,0.0 13.544254529999998,53.67200112999999,0.0</coordinates>
                </LineString>
                <LineString id="44726">
                    <coordinates>13.54362609,53.67171335,0.0 13.543837619999998,53.67180554,0.0</coordinates>
                </LineString>
                <LineString id="44728">
                    <coordinates>13.54362609,53.67171335,0.0 13.54356379,53.67168304999999,0.0</coordinates>
                </LineString>
                <LineString id="44730">
                    <coordinates>13.542636679999998,53.67123929000001,0.0 13.543265520000002,53.67153242,0.0</coordinates>
                </LineString>
                <LineString id="44732">
                    <coordinates>13.54110801,53.67052254000001,0.0 13.5409126,53.67042263,0.0</coordinates>
                </LineString>
                <LineString id="44734">
                    <coordinates>13.562027589999998,53.67585995,0.0 13.562045729999998,53.67586700999999,0.0</coordinates>
                </LineString>
                <LineString id="44736">
                    <coordinates>13.56043324,53.68376520000001,0.0 13.560741929999999,53.68323337,0.0 13.56079081,53.68304287,0.0 13.560792750000001,53.68302822,0.0</coordinates>
                </LineString>
                <LineString id="44738">
                    <coordinates>13.560792750000001,53.68302822,0.0 13.560793919999998,53.683019230000006,0.0</coordinates>
                </LineString>
                <LineString id="44740">
                    <coordinates>13.56185859,53.67558728,0.0 13.561895799999999,53.67566175,0.0</coordinates>
                </LineString>
                <LineString id="44742">
                    <coordinates>13.561895799999999,53.67566175,0.0 13.56193183,53.67566210999999,0.0</coordinates>
                </LineString>
                <LineString id="44744">
                    <coordinates>13.56194224,53.67567867000001,0.0 13.56194648,53.675683719999995,0.0</coordinates>
                </LineString>
                <LineString id="44746">
                    <coordinates>13.56193663,53.67567094,0.0 13.56194224,53.67567867000001,0.0</coordinates>
                </LineString>
                <LineString id="44748">
                    <coordinates>13.56193183,53.67566210999999,0.0 13.56193663,53.67567094,0.0</coordinates>
                </LineString>
                <LineString id="44750">
                    <coordinates>13.561989099999996,53.6757769,0.0 13.562011779999999,53.675821479999996,0.0</coordinates>
                </LineString>
                <LineString id="44752">
                    <coordinates>13.562045729999998,53.67586700999999,0.0 13.562076269999999,53.67587787,0.0</coordinates>
                </LineString>
                <LineString id="44754">
                    <coordinates>13.562182720000001,53.67610068,0.0 13.56220448,53.67614021,0.0</coordinates>
                </LineString>
                <LineString id="44756">
                    <coordinates>13.562076269999999,53.67587787,0.0 13.562118340000001,53.67597641999999,0.0</coordinates>
                </LineString>
                <LineString id="44758">
                    <coordinates>13.562118340000001,53.67597641999999,0.0 13.562182720000001,53.67610068,0.0</coordinates>
                </LineString>
                <LineString id="44760">
                    <coordinates>13.556744499999999,53.672413119999995,0.0 13.556815729999999,53.67246861999999,0.0 13.556912869999998,53.67247227999999,0.0 13.55705273,53.672521489999994,0.0</coordinates>
                </LineString>
                <LineString id="44762">
                    <coordinates>13.55705273,53.672521489999994,0.0 13.557160679999999,53.67253149999999,0.0</coordinates>
                </LineString>
                <LineString id="44764">
                    <coordinates>13.556615880000003,53.67236507999999,0.0 13.556744499999999,53.672413119999995,0.0</coordinates>
                </LineString>
                <LineString id="44766">
                    <coordinates>13.533301989999998,53.671824599999994,0.0 13.533486629999997,53.67179843,0.0 13.533976579999997,53.67155528,0.0 13.534086769999998,53.67150018,0.0</coordinates>
                </LineString>
                <LineString id="44768">
                    <coordinates>13.55667728,53.67454092999999,0.0 13.556728360000001,53.67458383999999,0.0 13.55687921,53.674701279999994,0.0 13.55690822,53.67472406,0.0</coordinates>
                </LineString>
                <LineString id="44770">
                    <coordinates>13.538602539999998,53.66919822999999,0.0 13.538696689999998,53.66924628999999,0.0 13.538708209999998,53.66926723,0.0</coordinates>
                </LineString>
                <LineString id="44772">
                    <coordinates>13.538226480000002,53.66912668,0.0 13.5382386,53.669125390000005,0.0</coordinates>
                </LineString>
                <LineString id="44774">
                    <coordinates>13.54626916,53.67180761000001,0.0 13.54618821,53.67194093999999,0.0</coordinates>
                </LineString>
                <LineString id="44776">
                    <coordinates>13.54600567,53.672085259999996,0.0 13.54592239,53.672127999999994,0.0 13.545866559999999,53.67216438999999,0.0 13.54572377,53.67227969999998,0.0 13.545510559999999,53.6724483,0.0 13.54537695,53.672559590000006,0.0 13.54533844,53.672605,0.0</coordinates>
                </LineString>
                <LineString id="44778">
                    <coordinates>13.546624290000002,53.67151035,0.0 13.54661592,53.67152415999999,0.0 13.546590170000002,53.671548470000005,0.0 13.546455039999998,53.67166181000001,0.0 13.54626916,53.67180761000001,0.0</coordinates>
                </LineString>
                <LineString id="44780">
                    <coordinates>13.54533844,53.672605,0.0 13.5453481,53.672604750000005,0.0</coordinates>
                </LineString>
                <LineString id="44782">
                    <coordinates>13.54532728,53.672628929999995,0.0 13.5453481,53.672604750000005,0.0</coordinates>
                </LineString>
                <LineString id="44784">
                    <coordinates>13.54618821,53.67194093999999,0.0 13.546105889999998,53.67199977999999,0.0 13.54600567,53.672085259999996,0.0</coordinates>
                </LineString>
                <LineString id="44786">
                    <coordinates>13.556874619999997,53.67220009999998,0.0 13.556928859999998,53.67220737999999,0.0</coordinates>
                </LineString>
                <LineString id="44788">
                    <coordinates>13.54538883,53.67253512,0.0 13.545407369999998,53.67254422,0.0 13.54537442,53.67258326999999,0.0</coordinates>
                </LineString>
                <LineString id="44790">
                    <coordinates>13.5382386,53.669125390000005,0.0 13.53834504,53.66911414,0.0 13.538389800000001,53.66910989999999,0.0 13.538432689999999,53.669111799999996,0.0</coordinates>
                </LineString>
                <LineString id="44792">
                    <coordinates>13.538708209999998,53.66926723,0.0 13.538764469999998,53.66929550999999,0.0 13.53886269,53.66934592,0.0 13.539148469999999,53.66947000999999,0.0 13.539425569999997,53.66959580999999,0.0 13.539729539999998,53.66973066,0.0</coordinates>
                </LineString>
                <LineString id="44794">
                    <coordinates>13.54090612,53.67029011999999,0.0 13.54086863,53.67028489999999,0.0 13.54070366,53.67019982,0.0 13.54058845,53.67014504000001,0.0 13.54049824,53.67010410000001,0.0 13.54024263,53.66999111999999,0.0 13.540068029999999,53.669886229999996,0.0 13.539729539999998,53.66973066,0.0</coordinates>
                </LineString>
                <LineString id="44796">
                    <coordinates>13.538083110000002,53.66922921999999,0.0 13.538166879999999,53.669175769999995,0.0</coordinates>
                </LineString>
                <LineString id="44798">
                    <coordinates>13.5589298,53.67735427,0.0 13.55895101,53.67735137999999,0.0</coordinates>
                </LineString>
                <LineString id="44800">
                    <coordinates>13.465897039999998,53.68121872999998,0.0 13.46646634,53.681103809999996,0.0 13.466770999999998,53.68104182999999,0.0</coordinates>
                </LineString>
                <LineString id="44802">
                    <coordinates>13.466770999999998,53.68104182999999,0.0 13.46768485,53.68085789999999,0.0 13.468647509999998,53.68065814999999,0.0 13.46943688,53.68049935999999,0.0 13.469662819999998,53.68045224,0.0 13.470063569999999,53.680367319999995,0.0 13.470773839999998,53.680212529999984,0.0</coordinates>
                </LineString>
                <LineString id="44804">
                    <coordinates>13.470773839999998,53.680212529999984,0.0 13.47135669,53.680093949999986,0.0 13.471495130000001,53.68006407,0.0 13.47252206,53.67985770999999,0.0 13.473308260000001,53.679690910000005,0.0 13.474017679999998,53.679536809999995,0.0 13.47432495,53.67946901999999,0.0</coordinates>
                </LineString>
                <LineString id="44806">
                    <coordinates>13.47432495,53.67946901999999,0.0 13.47501917,53.67930519,0.0 13.475542629999998,53.67918794,0.0 13.475717039999997,53.67914890999999,0.0</coordinates>
                </LineString>
                <LineString id="44808">
                    <coordinates>13.475717039999997,53.67914890999999,0.0 13.476409409999999,53.67900119,0.0 13.476794710000002,53.67891810999999,0.0 13.477809839999999,53.678692219999995,0.0</coordinates>
                </LineString>
                <LineString id="44810">
                    <coordinates>13.477809839999999,53.678692219999995,0.0 13.47853391,53.67852338,0.0 13.479238809999998,53.678379969999995,0.0 13.479958049999999,53.67822575,0.0 13.48065924,53.67807504999999,0.0</coordinates>
                </LineString>
                <LineString id="44812">
                    <coordinates>13.48065924,53.67807504999999,0.0 13.481445530000002,53.67790374,0.0 13.482060699999998,53.677764659999994,0.0 13.48277282,53.677610050000006,0.0 13.483478689999998,53.677451999999995,0.0</coordinates>
                </LineString>
                <LineString id="44814">
                    <coordinates>13.483478689999998,53.677451999999995,0.0 13.48418127,53.677294,0.0 13.484886889999997,53.677146579999985,0.0 13.485585899999998,53.67697638999999,0.0 13.48628813,53.67682573999999,0.0 13.487002059999996,53.676673279999996,0.0</coordinates>
                </LineString>
                <LineString id="44816">
                    <coordinates>13.489063840000002,53.67620608000001,0.0 13.489684729999999,53.676089239999996,0.0 13.489838359999998,53.67598633,0.0 13.48995328,53.67596535999999,0.0 13.489930349999996,53.675911639999995,0.0 13.490236369999996,53.675855150000004,0.0 13.49029598,53.675843939999986,0.0 13.490459590000002,53.67584574999999,0.0</coordinates>
                </LineString>
                <LineString id="44818">
                    <coordinates>13.490459590000002,53.67584574999999,0.0 13.490492479999999,53.67584959,0.0</coordinates>
                </LineString>
                <LineString id="44820">
                    <coordinates>13.490530199999998,53.67584564,0.0 13.49056808,53.67584871,0.0</coordinates>
                </LineString>
                <LineString id="44822">
                    <coordinates>13.49056808,53.67584871,0.0 13.49069383,53.67586057,0.0 13.490847009999998,53.675877060000005,0.0</coordinates>
                </LineString>
                <LineString id="44824">
                    <coordinates>13.490847009999998,53.675877060000005,0.0 13.490925990000001,53.67572684999999,0.0</coordinates>
                </LineString>
                <LineString id="44826">
                    <coordinates>13.496313280000003,53.67618688,0.0 13.49650554,53.67617691999999,0.0 13.496766219999996,53.67615502999999,0.0 13.497203959999998,53.6761246,0.0 13.497714469999998,53.6760908,0.0 13.498200579999999,53.67606241,0.0 13.4986425,53.676039579999994,0.0</coordinates>
                </LineString>
                <LineString id="44828">
                    <coordinates>13.4986425,53.676039579999994,0.0 13.498659079999998,53.67613699999999,0.0 13.498932879999998,53.676120710000006,0.0</coordinates>
                </LineString>
                <LineString id="44830">
                    <coordinates>13.495907309999998,53.67617856999999,0.0 13.49615927,53.6761786,0.0</coordinates>
                </LineString>
                <LineString id="44832">
                    <coordinates>13.496159619999998,53.67619487999999,0.0 13.49615927,53.6761786,0.0</coordinates>
                </LineString>
                <LineString id="44834">
                    <coordinates>13.495907309999998,53.67617856999999,0.0 13.495900690000003,53.67619847,0.0 13.495655599999997,53.67621104999999,0.0</coordinates>
                </LineString>
                <LineString id="44836">
                    <coordinates>13.49483021,53.676271029999995,0.0 13.494822509999999,53.67627165,0.0</coordinates>
                </LineString>
                <LineString id="44838">
                    <coordinates>13.491683219999999,53.67597945999999,0.0 13.491718680000002,53.67590707,0.0</coordinates>
                </LineString>
                <LineString id="44840">
                    <coordinates>13.491683219999999,53.67597945999999,0.0 13.491947760000002,53.67602023,0.0 13.492325620000003,53.67608124000001,0.0 13.49303561,53.67619791999999,0.0 13.493240139999997,53.67622873999999,0.0</coordinates>
                </LineString>
                <LineString id="44842">
                    <coordinates>13.493240139999997,53.67622873999999,0.0 13.49332767,53.67624327,0.0</coordinates>
                </LineString>
                <LineString id="44844">
                    <coordinates>13.49332767,53.67624327,0.0 13.49345155,53.67626400999999,0.0 13.493501869999998,53.67627248,0.0</coordinates>
                </LineString>
                <LineString id="44846">
                    <coordinates>13.493501869999998,53.67627248,0.0 13.49368123,53.67629540000001,0.0 13.493790829999998,53.67630728999999,0.0 13.493929799999998,53.67631467,0.0 13.49396632,53.67631632,0.0</coordinates>
                </LineString>
                <LineString id="44848">
                    <coordinates>13.49396632,53.67631632,0.0 13.494119849999999,53.676315669999994,0.0 13.49420173,53.67631233,0.0</coordinates>
                </LineString>
                <LineString id="44850">
                    <coordinates>13.49420173,53.67631233,0.0 13.494553669999998,53.67629012,0.0</coordinates>
                </LineString>
                <LineString id="44852">
                    <coordinates>13.494553669999998,53.67629012,0.0 13.494822509999999,53.67627165,0.0</coordinates>
                </LineString>
                <LineString id="44854">
                    <coordinates>13.491718680000002,53.67590707,0.0 13.4916976,53.67590433,0.0</coordinates>
                </LineString>
                <LineString id="44856">
                    <coordinates>13.4916976,53.67590433,0.0 13.49167327,53.67589828,0.0</coordinates>
                </LineString>
                <LineString id="44858">
                    <coordinates>13.49094312,53.67572639,0.0 13.4909413,53.67571883000001,0.0</coordinates>
                </LineString>
                <LineString id="44860">
                    <coordinates>13.49094312,53.67572639,0.0 13.490925990000001,53.67572684999999,0.0</coordinates>
                </LineString>
                <LineString id="44862">
                    <coordinates>13.4909413,53.67571883000001,0.0 13.491050270000002,53.67573694,0.0</coordinates>
                </LineString>
                <LineString id="44864">
                    <coordinates>13.491050270000002,53.67573694,0.0 13.49124992,53.67577417,0.0</coordinates>
                </LineString>
                <LineString id="44866">
                    <coordinates>13.49124992,53.67577417,0.0 13.49158302,53.675833219999994,0.0</coordinates>
                </LineString>
                <LineString id="44868">
                    <coordinates>13.49158302,53.675833219999994,0.0 13.491680800000001,53.67588116,0.0</coordinates>
                </LineString>
                <LineString id="44870">
                    <coordinates>13.49167327,53.67589828,0.0 13.491678670000002,53.67588849,0.0</coordinates>
                </LineString>
                <LineString id="44872">
                    <coordinates>13.491678670000002,53.67588849,0.0 13.491680800000001,53.67588116,0.0</coordinates>
                </LineString>
                <LineString id="44874">
                    <coordinates>13.499764479999998,53.676087489999986,0.0 13.500412390000001,53.676045040000005,0.0 13.501166739999999,53.67599362,0.0 13.501936909999998,53.675950029999996,0.0 13.502694669999999,53.675898379999985,0.0 13.503351860000002,53.67586239,0.0</coordinates>
                </LineString>
                <LineString id="44876">
                    <coordinates>13.503351860000002,53.67586239,0.0 13.504826039999996,53.67576996999999,0.0 13.505270919999996,53.6757408,0.0</coordinates>
                </LineString>
                <LineString id="44878">
                    <coordinates>13.505270919999996,53.6757408,0.0 13.506049669999998,53.67569466,0.0 13.506960310000002,53.67563393999999,0.0 13.507400699999996,53.67560073,0.0 13.507990709999998,53.675562049999996,0.0 13.5087479,53.67551473999999,0.0 13.509504160000002,53.67546013,0.0</coordinates>
                </LineString>
                <LineString id="44880">
                    <coordinates>13.510896869999996,53.6753654,0.0 13.51091984,53.67536394999999,0.0</coordinates>
                </LineString>
                <LineString id="44882">
                    <coordinates>13.51091984,53.67536394999999,0.0 13.511015549999998,53.67535415,0.0 13.51176143,53.67529909999998,0.0 13.512611840000002,53.67524394000001,0.0 13.513397039999997,53.67518578,0.0</coordinates>
                </LineString>
                <LineString id="44884">
                    <coordinates>13.513397039999997,53.67518578,0.0 13.514466679999998,53.675114109999996,0.0 13.514777800000001,53.675092479999996,0.0 13.515301959999999,53.675043429999995,0.0</coordinates>
                </LineString>
                <LineString id="44886">
                    <coordinates>13.515301959999999,53.675043429999995,0.0 13.515485049999999,53.674974599999985,0.0</coordinates>
                </LineString>
                <LineString id="44888">
                    <coordinates>13.498932879999998,53.676120710000006,0.0 13.499049040000001,53.67611694,0.0 13.49922657,53.67611123,0.0 13.499372259999996,53.67610399,0.0 13.49951496,53.67609812999999,0.0 13.499703019999998,53.67609117,0.0</coordinates>
                </LineString>
                <LineString id="44890">
                    <coordinates>13.499703019999998,53.67609117,0.0 13.499764479999998,53.676087489999986,0.0</coordinates>
                </LineString>
                <LineString id="44892">
                    <coordinates>13.487002059999996,53.676673279999996,0.0 13.487425049999999,53.67658127000001,0.0 13.487692299999999,53.67652134,0.0 13.488391159999997,53.67635365,0.0 13.48895795,53.676224999999995,0.0 13.48899091,53.67621914,0.0</coordinates>
                </LineString>
                <LineString id="44894">
                    <coordinates>13.490492479999999,53.67584959,0.0 13.490530199999998,53.67584564,0.0</coordinates>
                </LineString>
                <LineString id="44896">
                    <coordinates>13.496159619999998,53.67619487999999,0.0 13.496313280000003,53.67618688,0.0</coordinates>
                </LineString>
                <LineString id="44898">
                    <coordinates>13.494834290000002,53.67627071,0.0 13.49483021,53.676271029999995,0.0</coordinates>
                </LineString>
                <LineString id="44900">
                    <coordinates>13.495655599999997,53.67621104999999,0.0 13.49534767,53.67623165,0.0 13.494834290000002,53.67627071,0.0</coordinates>
                </LineString>
                <LineString id="44902">
                    <coordinates>13.509504160000002,53.67546013,0.0 13.510257790000002,53.675406120000005,0.0 13.510896869999996,53.6753654,0.0</coordinates>
                </LineString>
                <LineString id="44904">
                    <coordinates>13.558625600000001,53.67943373000001,0.0 13.558600029999996,53.67940408,0.0 13.558584669999998,53.679390389999995,0.0 13.558565019999998,53.67938290999999,0.0 13.55854334,53.67938108999999,0.0 13.558530930000002,53.67937423000001,0.0 13.558520619999998,53.67936799999999,0.0 13.55850325,53.67935066,0.0 13.558483979999998,53.67932073,0.0</coordinates>
                </LineString>
                <LineString id="44906">
                    <coordinates>13.558483979999998,53.67932073,0.0 13.55847552,53.67930435000001,0.0 13.55844111,53.67925737,0.0 13.55837236,53.67916668000001,0.0 13.558301449999998,53.679072309999995,0.0</coordinates>
                </LineString>
                <LineString id="44908">
                    <coordinates>13.558301449999998,53.679072309999995,0.0 13.55821347,53.67905189,0.0</coordinates>
                </LineString>
                <LineString id="44910">
                    <coordinates>13.55821347,53.67905189,0.0 13.558156700000001,53.67906351,0.0 13.55801088,53.6789123,0.0 13.557992069999997,53.678891609999994,0.0 13.55793275,53.678813149999996,0.0 13.557941489999997,53.67878796999999,0.0</coordinates>
                </LineString>
                <LineString id="44912">
                    <coordinates>13.557843960000001,53.678595650000005,0.0 13.557844029999998,53.67858267999999,0.0 13.557848030000002,53.678541419999995,0.0</coordinates>
                </LineString>
                <LineString id="44914">
                    <coordinates>13.557848030000002,53.678541419999995,0.0 13.55785824,53.67849979999999,0.0 13.55789004,53.67843364,0.0 13.557949879999999,53.67834538999998,0.0 13.558022839999998,53.67823369,0.0</coordinates>
                </LineString>
                <LineString id="44916">
                    <coordinates>13.558022839999998,53.67823369,0.0 13.558077249999998,53.67814972000001,0.0</coordinates>
                </LineString>
                <LineString id="44918">
                    <coordinates>13.558077249999998,53.67814972000001,0.0 13.55809262,53.67811729999999,0.0 13.55812446,53.67809802999999,0.0 13.558217069999998,53.67785231999999,0.0</coordinates>
                </LineString>
                <LineString id="44920">
                    <coordinates>13.539337449999998,53.676679679999985,0.0 13.539279019999999,53.67671812,0.0</coordinates>
                </LineString>
                <LineString id="44922">
                    <coordinates>13.539279019999999,53.67671812,0.0 13.53922038,53.67673292999999,0.0</coordinates>
                </LineString>
                <LineString id="44924">
                    <coordinates>13.53922038,53.67673292999999,0.0 13.53831848,53.67673283999999,0.0 13.53821346,53.67678777,0.0</coordinates>
                </LineString>
                <LineString id="44926">
                    <coordinates>13.542013499999998,53.675985649999994,0.0 13.542105520000002,53.67588120999999,0.0 13.54214013,53.67584172,0.0</coordinates>
                </LineString>
                <LineString id="44928">
                    <coordinates>13.562011779999999,53.675821479999996,0.0 13.562027589999998,53.67585995,0.0</coordinates>
                </LineString>
                <LineString id="44930">
                    <coordinates>13.515301959999999,53.675043429999995,0.0 13.515485049999999,53.674974599999985,0.0</coordinates>
                </LineString>
                <LineString id="44932">
                    <coordinates>13.51760409,53.67434206,0.0 13.51808586,53.67419825,0.0 13.51828246,53.674139360000005,0.0 13.518952439999998,53.67395918,0.0 13.51925273,53.67386070999999,0.0</coordinates>
                </LineString>
                <LineString id="44934">
                    <coordinates>13.51925273,53.67386070999999,0.0 13.519606569999999,53.67377019,0.0 13.52015313,53.6736353,0.0 13.52035894,53.673590710000006,0.0 13.52079732,53.67350479,0.0 13.521373169999999,53.673395949999986,0.0 13.521548140000002,53.67336267000001,0.0 13.52203332,53.67328251,0.0</coordinates>
                </LineString>
                <LineString id="44936">
                    <coordinates>13.52203332,53.67328251,0.0 13.522609739999998,53.673208389999985,0.0 13.522944950000001,53.67318885,0.0 13.5233976,53.67315888,0.0 13.523603799999998,53.67313975999999,0.0 13.52415363,53.67308140999999,0.0 13.52489422,53.673017959999996,0.0</coordinates>
                </LineString>
                <LineString id="44938">
                    <coordinates>13.558642450000002,53.67310783,0.0 13.55841303,53.67298649,0.0 13.558184719999998,53.67287024999999,0.0 13.558052559999998,53.67280410999998,0.0 13.5580258,53.67279186,0.0</coordinates>
                </LineString>
                <LineString id="44940">
                    <coordinates>13.52489422,53.673017959999996,0.0 13.52565954,53.67295948999999,0.0 13.525949099999998,53.67293942,0.0 13.52624911,53.67291638,0.0 13.52639268,53.67290785,0.0 13.526707589999997,53.67286897,0.0 13.52717211,53.67280879999999,0.0 13.527621390000002,53.67275317000001,0.0 13.5278525,53.67272437,0.0 13.527870659999998,53.67277881,0.0 13.52820517,53.67273168,0.0 13.528485819999998,53.67267377999999,0.0</coordinates>
                </LineString>
                <LineString id="44942">
                    <coordinates>13.52851923,53.67266687000001,0.0 13.528919919999996,53.672584089999994,0.0 13.52935326,53.67252342999999,0.0 13.52965534,53.672483100000015,0.0 13.53009346,53.67239331999999,0.0</coordinates>
                </LineString>
                <LineString id="44944">
                    <coordinates>13.53009346,53.67239331999999,0.0 13.530366229999998,53.672335379999986,0.0 13.530599849999998,53.67228817,0.0 13.53066565,53.67227514000001,0.0 13.53069565,53.67225918999999,0.0</coordinates>
                </LineString>
                <LineString id="44946">
                    <coordinates>13.515485049999999,53.674974599999985,0.0 13.51569925,53.67490626,0.0 13.515900319999998,53.674844809999996,0.0 13.51625406,53.674742759999994,0.0 13.516936799999998,53.674540369999995,0.0 13.51760409,53.67434206,0.0</coordinates>
                </LineString>
                <LineString id="44948">
                    <coordinates>13.53103129,53.67219585000001,0.0 13.531079869999997,53.672190240000006,0.0</coordinates>
                </LineString>
                <LineString id="44950">
                    <coordinates>13.531079869999997,53.672190240000006,0.0 13.531214120000001,53.67209156,0.0</coordinates>
                </LineString>
                <LineString id="44952">
                    <coordinates>13.531214120000001,53.67209156,0.0 13.53122765,53.67208068,0.0 13.53151053,53.672042049999995,0.0</coordinates>
                </LineString>
                <LineString id="44954">
                    <coordinates>13.53151053,53.672042049999995,0.0 13.53189853,53.67198796,0.0 13.5320223,53.67197397999999,0.0</coordinates>
                </LineString>
                <LineString id="44956">
                    <coordinates>13.5320223,53.67197397999999,0.0 13.53207806,53.67196894999999,0.0 13.53227296,53.671946260000006,0.0</coordinates>
                </LineString>
                <LineString id="44958">
                    <coordinates>13.53227296,53.671946260000006,0.0 13.532313199999999,53.67194900999999,0.0</coordinates>
                </LineString>
                <LineString id="44960">
                    <coordinates>13.53275597,53.67188783,0.0 13.532814699999998,53.671881069999976,0.0</coordinates>
                </LineString>
                <LineString id="44962">
                    <coordinates>13.532814699999998,53.671881069999976,0.0 13.532916599999998,53.67187015,0.0 13.53304501,53.67185455,0.0</coordinates>
                </LineString>
                <LineString id="44964">
                    <coordinates>13.53304501,53.67185455,0.0 13.53311806,53.67184628,0.0</coordinates>
                </LineString>
                <LineString id="44966">
                    <coordinates>13.532313199999999,53.67194900999999,0.0 13.532354150000002,53.67194433,0.0</coordinates>
                </LineString>
                <LineString id="44968">
                    <coordinates>13.532354150000002,53.67194433,0.0 13.532554139999998,53.67192038,0.0</coordinates>
                </LineString>
                <LineString id="44970">
                    <coordinates>13.532554139999998,53.67192038,0.0 13.532562250000002,53.671920369999995,0.0</coordinates>
                </LineString>
                <LineString id="44972">
                    <coordinates>13.532562250000002,53.671920369999995,0.0 13.53261836,53.671913249999996,0.0</coordinates>
                </LineString>
                <LineString id="44974">
                    <coordinates>13.53261836,53.671913249999996,0.0 13.53265184,53.67190968999999,0.0 13.53275597,53.67188783,0.0</coordinates>
                </LineString>
                <LineString id="44976">
                    <coordinates>13.53311806,53.67184628,0.0 13.53320751,53.671836109999994,0.0</coordinates>
                </LineString>
                <LineString id="44978">
                    <coordinates>13.53320751,53.671836109999994,0.0 13.533301989999998,53.671824599999994,0.0</coordinates>
                </LineString>
                <LineString id="44980">
                    <coordinates>13.534086769999998,53.67150018,0.0 13.534334699999999,53.671375600000005,0.0</coordinates>
                </LineString>
                <LineString id="44982">
                    <coordinates>13.534334699999999,53.671375600000005,0.0 13.534584370000001,53.67124803000001,0.0</coordinates>
                </LineString>
                <LineString id="44984">
                    <coordinates>13.534584370000001,53.67124803000001,0.0 13.53482619,53.67112015,0.0 13.53500291,53.671020790000014,0.0</coordinates>
                </LineString>
                <LineString id="44986">
                    <coordinates>13.53500291,53.671020790000014,0.0 13.535233789999998,53.670889769999995,0.0</coordinates>
                </LineString>
                <LineString id="44988">
                    <coordinates>13.53548977,53.670743609999995,0.0 13.53553813,53.670715830000006,0.0</coordinates>
                </LineString>
                <LineString id="44990">
                    <coordinates>13.53553813,53.670715830000006,0.0 13.535657999999998,53.67064540999999,0.0</coordinates>
                </LineString>
                <LineString id="44992">
                    <coordinates>13.535657999999998,53.67064540999999,0.0 13.535689320000001,53.67062711,0.0</coordinates>
                </LineString>
                <LineString id="44994">
                    <coordinates>13.535689320000001,53.67062711,0.0 13.535888309999999,53.67051694,0.0</coordinates>
                </LineString>
                <LineString id="44996">
                    <coordinates>13.535888309999999,53.67051694,0.0 13.535935929999999,53.670489539999984,0.0</coordinates>
                </LineString>
                <LineString id="44998">
                    <coordinates>13.535935929999999,53.670489539999984,0.0 13.53612948,53.67037736999999,0.0 13.53637277,53.67024773999999,0.0</coordinates>
                </LineString>
                <LineString id="45000">
                    <coordinates>13.53637277,53.67024773999999,0.0 13.536584320000001,53.670137360000005,0.0</coordinates>
                </LineString>
                <LineString id="45002">
                    <coordinates>13.536584320000001,53.670137360000005,0.0 13.53666455,53.67008176,0.0</coordinates>
                </LineString>
                <LineString id="45004">
                    <coordinates>13.53666455,53.67008176,0.0 13.53681814,53.66998298999999,0.0</coordinates>
                </LineString>
                <LineString id="45006">
                    <coordinates>13.53681814,53.66998298999999,0.0 13.536713199999998,53.66993253999999,0.0</coordinates>
                </LineString>
                <LineString id="45008">
                    <coordinates>13.536713199999998,53.66993253999999,0.0 13.536967259999999,53.669796039999994,0.0 13.53744266,53.66955438999999,0.0</coordinates>
                </LineString>
                <LineString id="45010">
                    <coordinates>13.53744266,53.66955438999999,0.0 13.53775695,53.66939782,0.0</coordinates>
                </LineString>
                <LineString id="45012">
                    <coordinates>13.53775695,53.66939782,0.0 13.537896149999998,53.66933105999999,0.0 13.53807002,53.66923705999999,0.0</coordinates>
                </LineString>
                <LineString id="45014">
                    <coordinates>13.53807002,53.66923705999999,0.0 13.538083110000002,53.66922921999999,0.0</coordinates>
                </LineString>
                <LineString id="45016">
                    <coordinates>13.538166879999999,53.669175769999995,0.0 13.538173119999998,53.66917175999999,0.0</coordinates>
                </LineString>
                <LineString id="45018">
                    <coordinates>13.538173119999998,53.66917175999999,0.0 13.538240669999999,53.66913769999999,0.0</coordinates>
                </LineString>
                <LineString id="45020">
                    <coordinates>13.538240669999999,53.66913769999999,0.0 13.538226480000002,53.66912668,0.0</coordinates>
                </LineString>
                <LineString id="45022">
                    <coordinates>13.538432689999999,53.669111799999996,0.0 13.538472760000001,53.66913055,0.0</coordinates>
                </LineString>
                <LineString id="45024">
                    <coordinates>13.541157819999999,53.67054769999999,0.0 13.541508889999998,53.67071451999999,0.0 13.541616729999998,53.670768239999994,0.0 13.54178247,53.67084613999999,0.0</coordinates>
                </LineString>
                <LineString id="45026">
                    <coordinates>13.54178247,53.67084613999999,0.0 13.541842550000002,53.67087323,0.0</coordinates>
                </LineString>
                <LineString id="45028">
                    <coordinates>13.541842550000002,53.67087323,0.0 13.542140429999998,53.6710141,0.0</coordinates>
                </LineString>
                <LineString id="45030">
                    <coordinates>13.542140429999998,53.6710141,0.0 13.542460660000001,53.67115889000001,0.0 13.542636679999998,53.67123929000001,0.0</coordinates>
                </LineString>
                <LineString id="45032">
                    <coordinates>13.543265520000002,53.67153242,0.0 13.543315490000001,53.67155332,0.0 13.543343759999999,53.67156764999999,0.0</coordinates>
                </LineString>
                <LineString id="45034">
                    <coordinates>13.543343759999999,53.67156764999999,0.0 13.54356379,53.67168304999999,0.0</coordinates>
                </LineString>
                <LineString id="45036">
                    <coordinates>13.541157819999999,53.67054769999999,0.0 13.54110801,53.67052254000001,0.0</coordinates>
                </LineString>
                <LineString id="45038">
                    <coordinates>13.5409126,53.67042263,0.0 13.540808540000002,53.67036860000001,0.0</coordinates>
                </LineString>
                <LineString id="45040">
                    <coordinates>13.540808540000002,53.67036860000001,0.0 13.54080258,53.67036423,0.0</coordinates>
                </LineString>
                <LineString id="45042">
                    <coordinates>13.54080258,53.67036423,0.0 13.54090612,53.67029011999999,0.0</coordinates>
                </LineString>
                <LineString id="45044">
                    <coordinates>13.546624290000002,53.67151035,0.0 13.546622529999997,53.67150167999999,0.0</coordinates>
                </LineString>
                <LineString id="45046">
                    <coordinates>13.546622529999997,53.67150167999999,0.0 13.546617749999998,53.67148687999999,0.0 13.54659996,53.67146976,0.0 13.54649825,53.6714321,0.0</coordinates>
                </LineString>
                <LineString id="45048">
                    <coordinates>13.54649825,53.6714321,0.0 13.546475649999998,53.67142150000001,0.0</coordinates>
                </LineString>
                <LineString id="45050">
                    <coordinates>13.546475649999998,53.67142150000001,0.0 13.54646399,53.67141605,0.0 13.54628111,53.67132235,0.0 13.546168110000002,53.67125573,0.0</coordinates>
                </LineString>
                <LineString id="45052">
                    <coordinates>13.546168110000002,53.67125573,0.0 13.5460643,53.671196479999985,0.0</coordinates>
                </LineString>
                <LineString id="45054">
                    <coordinates>13.5460643,53.671196479999985,0.0 13.545899870000001,53.67110306,0.0 13.54577939,53.671033439999995,0.0</coordinates>
                </LineString>
                <LineString id="45056">
                    <coordinates>13.54577939,53.671033439999995,0.0 13.54575441,53.67102343,0.0</coordinates>
                </LineString>
                <LineString id="45058">
                    <coordinates>13.545751959999999,53.67102229999999,0.0 13.545616830000002,53.6709559,0.0 13.545483939999999,53.67090899999999,0.0</coordinates>
                </LineString>
                <LineString id="45060">
                    <coordinates>13.545483939999999,53.67090899999999,0.0 13.545407479999996,53.67088292999999,0.0 13.54533692,53.670855129999985,0.0</coordinates>
                </LineString>
                <LineString id="45062">
                    <coordinates>13.54533692,53.670855129999985,0.0 13.545238420000002,53.67081408000001,0.0</coordinates>
                </LineString>
                <LineString id="45064">
                    <coordinates>13.545238420000002,53.67081408000001,0.0 13.54520099,53.67079572,0.0</coordinates>
                </LineString>
                <LineString id="45066">
                    <coordinates>13.54520099,53.67079572,0.0 13.544948619999998,53.67068861999999,0.0</coordinates>
                </LineString>
                <LineString id="45068">
                    <coordinates>13.54469857,53.67062501000001,0.0 13.544663499999999,53.67061743999999,0.0</coordinates>
                </LineString>
                <LineString id="45070">
                    <coordinates>13.544948619999998,53.67068861999999,0.0 13.5449296,53.670680349999984,0.0 13.544857879999999,53.67066234999999,0.0 13.54469857,53.67062501000001,0.0</coordinates>
                </LineString>
                <LineString id="45072">
                    <coordinates>13.54575441,53.67102343,0.0 13.545751959999999,53.67102229999999,0.0</coordinates>
                </LineString>
                <LineString id="45074">
                    <coordinates>13.538472760000001,53.66913055,0.0 13.53859185,53.669191229999996,0.0</coordinates>
                </LineString>
                <LineString id="45076">
                    <coordinates>13.53859185,53.669191229999996,0.0 13.538602539999998,53.66919822999999,0.0</coordinates>
                </LineString>
                <LineString id="45078">
                    <coordinates>13.541586519999997,53.67645746,0.0 13.54146599,53.676594019999996,0.0 13.54144739,53.67661289999999,0.0</coordinates>
                </LineString>
                <LineString id="45080">
                    <coordinates>13.54144739,53.67661289999999,0.0 13.54140875,53.67665277,0.0</coordinates>
                </LineString>
                <LineString id="45082">
                    <coordinates>13.54140875,53.67665277,0.0 13.54123873,53.6768238,0.0 13.54117953,53.67688228,0.0 13.541124980000001,53.67692673,0.0</coordinates>
                </LineString>
                <LineString id="45084">
                    <coordinates>13.541124980000001,53.67692673,0.0 13.5409959,53.67704585,0.0</coordinates>
                </LineString>
                <LineString id="45086">
                    <coordinates>13.54089697,53.67701028,0.0 13.5409959,53.67704585,0.0</coordinates>
                </LineString>
                <LineString id="45088">
                    <coordinates>13.541586519999997,53.67645746,0.0 13.54165563,53.676383859999994,0.0</coordinates>
                </LineString>
                <LineString id="45090">
                    <coordinates>13.54165563,53.676383859999994,0.0 13.54173907,53.67629683999999,0.0</coordinates>
                </LineString>
                <LineString id="45092">
                    <coordinates>13.54173907,53.67629683999999,0.0 13.541775569999999,53.67625681999999,0.0 13.541875599999997,53.67614378,0.0</coordinates>
                </LineString>
                <LineString id="45094">
                    <coordinates>13.541875599999997,53.67614378,0.0 13.542013499999998,53.675985649999994,0.0</coordinates>
                </LineString>
                <LineString id="45096">
                    <coordinates>13.54089697,53.67701028,0.0 13.540845290000002,53.677052890000006,0.0</coordinates>
                </LineString>
                <LineString id="45098">
                    <coordinates>13.540845290000002,53.677052890000006,0.0 13.540718150000002,53.67717145000001,0.0</coordinates>
                </LineString>
                <LineString id="45100">
                    <coordinates>13.540718150000002,53.67717145000001,0.0 13.540627239999997,53.67724928999999,0.0</coordinates>
                </LineString>
                <LineString id="45102">
                    <coordinates>13.540627239999997,53.67724928999999,0.0 13.54057157,53.67730008,0.0</coordinates>
                </LineString>
                <LineString id="45104">
                    <coordinates>13.54057157,53.67730008,0.0 13.54032249,53.67718609,0.0 13.5399119,53.67699105999999,0.0 13.5397025,53.6768923,0.0 13.53963742,53.67686426,0.0 13.53943831,53.67675661,0.0 13.539337449999998,53.676679679999985,0.0</coordinates>
                </LineString>
                <LineString id="45106">
                    <coordinates>13.45033178,53.68290595999999,0.0 13.45036851,53.6829012,0.0</coordinates>
                </LineString>
                <LineString id="45108">
                    <coordinates>13.426168739999998,53.68477278999999,0.0 13.426172529999999,53.68486418999999,0.0</coordinates>
                </LineString>
                <LineString id="45110">
                    <coordinates>13.426172529999999,53.68486418999999,0.0 13.42616686,53.6848821,0.0 13.426145049999999,53.68489395000001,0.0 13.42606759,53.68491538000001,0.0</coordinates>
                </LineString>
                <LineString id="45112">
                    <coordinates>13.42606759,53.68491538000001,0.0 13.42569479,53.68500723,0.0 13.42547797,53.68506045,0.0</coordinates>
                </LineString>
                <LineString id="45114">
                    <coordinates>13.42547797,53.68506045,0.0 13.425407659999998,53.68507844,0.0</coordinates>
                </LineString>
                <LineString id="45116">
                    <coordinates>13.425407659999998,53.68507844,0.0 13.425064440000002,53.68515923,0.0 13.42455252,53.68527585999999,0.0 13.424167499999998,53.68536509,0.0</coordinates>
                </LineString>
                <LineString id="45118">
                    <coordinates>13.424167499999998,53.68536509,0.0 13.42410026,53.685276869999996,0.0</coordinates>
                </LineString>
                <LineString id="45120">
                    <coordinates>13.426168739999998,53.68477278999999,0.0 13.42626826,53.6847697,0.0</coordinates>
                </LineString>
                <LineString id="45122">
                    <coordinates>13.426600180000001,53.68484129000001,0.0 13.42662071,53.684841509999984,0.0</coordinates>
                </LineString>
                <LineString id="45124">
                    <coordinates>13.42662071,53.684841509999984,0.0 13.426640319999999,53.68484272999999,0.0</coordinates>
                </LineString>
                <LineString id="45126">
                    <coordinates>13.426640319999999,53.68484272999999,0.0 13.427034509999999,53.68486021,0.0</coordinates>
                </LineString>
                <LineString id="45128">
                    <coordinates>13.427034509999999,53.68486021,0.0 13.427045259999998,53.68497152999999,0.0 13.42706619,53.68499873,0.0 13.42709516,53.68501405999999,0.0 13.42712305,53.68502803,0.0 13.42715095,53.685042,0.0 13.427171860000001,53.68505678000001,0.0 13.42729545,53.68517303999999,0.0 13.427360929999999,53.68523858,0.0 13.427390129999997,53.68526919,0.0 13.42742533,53.68530302999999,0.0 13.427462729999998,53.685323849999996,0.0 13.42749651,53.685331850000004,0.0 13.427618809999998,53.685353969999994,0.0</coordinates>
                </LineString>
                <LineString id="45130">
                    <coordinates>13.427700470000001,53.68544902,0.0 13.427619109999997,53.68537821999999,0.0</coordinates>
                </LineString>
                <LineString id="45132">
                    <coordinates>13.427618809999998,53.685353969999994,0.0 13.427619109999997,53.68537821999999,0.0</coordinates>
                </LineString>
                <LineString id="45134">
                    <coordinates>13.427700470000001,53.68544902,0.0 13.42769639,53.6854894,0.0</coordinates>
                </LineString>
                <LineString id="45136">
                    <coordinates>13.42769639,53.6854894,0.0 13.428135230000002,53.68548232,0.0 13.428763730000002,53.68548212999999,0.0 13.428834790000003,53.68548794,0.0</coordinates>
                </LineString>
                <LineString id="45138">
                    <coordinates>13.429389090000003,53.68551031,0.0 13.429316519999999,53.68551176999999,0.0 13.429295869999999,53.68551436999999,0.0</coordinates>
                </LineString>
                <LineString id="45140">
                    <coordinates>13.428834790000003,53.68548794,0.0 13.42888574,53.68552201999999,0.0 13.4291819,53.68552118000001,0.0 13.429251,53.68552038,0.0 13.429295869999999,53.68551436999999,0.0</coordinates>
                </LineString>
                <LineString id="45142">
                    <coordinates>13.429389090000003,53.68551031,0.0 13.429414149999998,53.68550840999998,0.0</coordinates>
                </LineString>
                <LineString id="45144">
                    <coordinates>13.429414149999998,53.68550840999998,0.0 13.429448169999999,53.68549449,0.0 13.42947472,53.68549141,0.0 13.429508279999999,53.685485269999994,0.0</coordinates>
                </LineString>
                <LineString id="45146">
                    <coordinates>13.429508279999999,53.685485269999994,0.0 13.429636,53.68546471,0.0</coordinates>
                </LineString>
                <LineString id="45148">
                    <coordinates>13.429636,53.68546471,0.0 13.4297954,53.68544668,0.0</coordinates>
                </LineString>
                <LineString id="45150">
                    <coordinates>13.4297954,53.68544668,0.0 13.429862369999999,53.68542093,0.0 13.429951329999998,53.68537561999999,0.0</coordinates>
                </LineString>
                <LineString id="45152">
                    <coordinates>13.429951329999998,53.68537561999999,0.0 13.43024392,53.68526039000001,0.0 13.43078125,53.68504682999999,0.0 13.431405199999999,53.68478820000001,0.0 13.43147755,53.684756179999994,0.0 13.431504630000001,53.68474193,0.0 13.43152508,53.68473109999999,0.0 13.431543489999996,53.68472625999999,0.0 13.43157297,53.68472118,0.0</coordinates>
                </LineString>
                <LineString id="45154">
                    <coordinates>13.43157297,53.68472118,0.0 13.431651739999998,53.68471294999999,0.0</coordinates>
                </LineString>
                <LineString id="45156">
                    <coordinates>13.432458979999998,53.68472035999999,0.0 13.432470779999997,53.68472049999999,0.0 13.43259398,53.68474616999999,0.0 13.4328672,53.68473350000001,0.0 13.433035579999999,53.68472908,0.0 13.4331342,53.684734719999994,0.0 13.433197819999998,53.68473865999998,0.0 13.43326029,53.68474396,0.0 13.43340246,53.68477739,0.0 13.43347648,53.68479964,0.0 13.43353063,53.68481687999999,0.0</coordinates>
                </LineString>
                <LineString id="45158">
                    <coordinates>13.43353063,53.68481687999999,0.0 13.433593170000002,53.684776070000005,0.0 13.43379259,53.68485498,0.0</coordinates>
                </LineString>
                <LineString id="45160">
                    <coordinates>13.43379259,53.68485498,0.0 13.433851919999999,53.684813569999996,0.0 13.43386895,53.68478769,0.0</coordinates>
                </LineString>
                <LineString id="45162">
                    <coordinates>13.43386895,53.68478769,0.0 13.43385692,53.68475098,0.0 13.433927090000001,53.68474432000001,0.0</coordinates>
                </LineString>
                <LineString id="45164">
                    <coordinates>13.433927090000001,53.68474432000001,0.0 13.43424282,53.68470932999999,0.0 13.434485309999998,53.684680619999995,0.0 13.43497277,53.68462535999999,0.0 13.43551881,53.68455859000001,0.0 13.435659429999996,53.68450808,0.0 13.43586098,53.68448144,0.0</coordinates>
                </LineString>
                <LineString id="45166">
                    <coordinates>13.43586098,53.68448144,0.0 13.436100709999998,53.68444741999999,0.0</coordinates>
                </LineString>
                <LineString id="45168">
                    <coordinates>13.436100709999998,53.68444741999999,0.0 13.436330340000001,53.68445354000001,0.0</coordinates>
                </LineString>
                <LineString id="45170">
                    <coordinates>13.43742766,53.68433112,0.0 13.437632639999999,53.68430673999999,0.0</coordinates>
                </LineString>
                <LineString id="45172">
                    <coordinates>13.437632639999999,53.68430673999999,0.0 13.437721769999998,53.68429583999999,0.0</coordinates>
                </LineString>
                <LineString id="45174">
                    <coordinates>13.437721769999998,53.68429583999999,0.0 13.437943660000002,53.68426728000001,0.0 13.43816231,53.6842418,0.0</coordinates>
                </LineString>
                <LineString id="45176">
                    <coordinates>13.43816231,53.6842418,0.0 13.438366289999998,53.68421713,0.0 13.438729439999998,53.68416475,0.0 13.43876086,53.684160309999996,0.0 13.438845629999998,53.684157690000006,0.0</coordinates>
                </LineString>
                <LineString id="45178">
                    <coordinates>13.438845629999998,53.684157690000006,0.0 13.43908829,53.684142,0.0 13.439791499999997,53.684058439999994,0.0 13.440267799999999,53.68399796999999,0.0 13.44066778,53.683946459999994,0.0 13.440969600000003,53.68391183999999,0.0</coordinates>
                </LineString>
                <LineString id="45180">
                    <coordinates>13.440969600000003,53.68391183999999,0.0 13.44147922,53.683861920000005,0.0 13.441974349999999,53.68381371,0.0 13.44250017,53.68375998,0.0 13.44288608,53.68372074,0.0 13.443342339999997,53.68367349999999,0.0 13.443835800000002,53.68362129999999,0.0 13.44428444,53.68357176,0.0</coordinates>
                </LineString>
                <LineString id="45182">
                    <coordinates>13.44428444,53.68357176,0.0 13.44481005,53.68351155,0.0 13.44531551,53.68345977999999,0.0 13.445749879999997,53.683422919999984,0.0 13.446054729999998,53.68340584999999,0.0 13.446542449999999,53.683360349999994,0.0 13.44667551,53.683343580000006,0.0 13.446963659999998,53.68330421999999,0.0</coordinates>
                </LineString>
                <LineString id="45184">
                    <coordinates>13.446963659999998,53.68330421999999,0.0 13.44744684,53.68323978999999,0.0 13.447578209999998,53.68322199,0.0 13.44802392,53.68316408,0.0</coordinates>
                </LineString>
                <LineString id="45186">
                    <coordinates>13.44802392,53.68316408,0.0 13.448433410000002,53.68311417999999,0.0 13.448945399999998,53.68305199,0.0 13.449468449999998,53.682990229999994,0.0</coordinates>
                </LineString>
                <LineString id="45188">
                    <coordinates>13.449468449999998,53.682990229999994,0.0 13.449553989999998,53.682984929999996,0.0</coordinates>
                </LineString>
                <LineString id="45190">
                    <coordinates>13.45016898,53.682920360000004,0.0 13.45004905,53.68293341,0.0</coordinates>
                </LineString>
                <LineString id="45192">
                    <coordinates>13.449553989999998,53.682984929999996,0.0 13.45004905,53.68293341,0.0</coordinates>
                </LineString>
                <LineString id="45194">
                    <coordinates>13.45016898,53.682920360000004,0.0 13.45033178,53.68290595999999,0.0</coordinates>
                </LineString>
                <LineString id="45196">
                    <coordinates>13.45036851,53.6829012,0.0 13.45078795,53.682852479999994,0.0 13.45082348,53.68285497999999,0.0</coordinates>
                </LineString>
                <LineString id="45198">
                    <coordinates>13.45082348,53.68285497999999,0.0 13.4510051,53.68286062999999,0.0 13.45141585,53.68280490999999,0.0 13.451769309999998,53.68276358999999,0.0</coordinates>
                </LineString>
                <LineString id="45200">
                    <coordinates>13.451769309999998,53.68276358999999,0.0 13.451923419999998,53.682747909999996,0.0 13.452130109999999,53.682725139999995,0.0 13.452384479999997,53.682699559999996,0.0 13.45248234,53.6826904,0.0</coordinates>
                </LineString>
                <LineString id="45202">
                    <coordinates>13.45248234,53.6826904,0.0 13.45299241,53.68263933999999,0.0 13.45337762,53.68259771000001,0.0</coordinates>
                </LineString>
                <LineString id="45204">
                    <coordinates>13.45337762,53.68259771000001,0.0 13.45351073,53.68258626,0.0 13.453712,53.68257288999999,0.0 13.45397564,53.68255056,0.0</coordinates>
                </LineString>
                <LineString id="45206">
                    <coordinates>13.45397564,53.68255056,0.0 13.454720359999998,53.68246872,0.0 13.45546434,53.68239733000001,0.0 13.455645839999999,53.68237747,0.0</coordinates>
                </LineString>
                <LineString id="45208">
                    <coordinates>13.455645839999999,53.68237747,0.0 13.455787339999997,53.682358099999995,0.0</coordinates>
                </LineString>
                <LineString id="45210">
                    <coordinates>13.455787339999997,53.682358099999995,0.0 13.456098370000001,53.682326069999995,0.0 13.456329349999999,53.68229268999999,0.0 13.45655632,53.68225703999999,0.0 13.456687919999998,53.682242529999996,0.0 13.45687537,53.68222031,0.0 13.456984899999998,53.682208389999985,0.0</coordinates>
                </LineString>
                <LineString id="45212">
                    <coordinates>13.456984899999998,53.682208389999985,0.0 13.4573139,53.682188069999995,0.0 13.45741165,53.682183519999995,0.0 13.45757662,53.68217702,0.0 13.4576803,53.68217357,0.0 13.457839389999998,53.68216268,0.0 13.458113139999998,53.68213456,0.0</coordinates>
                </LineString>
                <LineString id="45214">
                    <coordinates>13.458113139999998,53.68213456,0.0 13.45848845,53.68209847,0.0 13.45897252,53.68203515,0.0 13.459257529999999,53.681994429999996,0.0 13.459504,53.681952020000004,0.0 13.45961485,53.68193483999999,0.0 13.45978122,53.68191594999999,0.0</coordinates>
                </LineString>
                <LineString id="45216">
                    <coordinates>13.45978122,53.68191594999999,0.0 13.46046826,53.68183899999998,0.0</coordinates>
                </LineString>
                <LineString id="45218">
                    <coordinates>13.46046826,53.68183899999998,0.0 13.4607486,53.681803099999996,0.0 13.46111437,53.68176408,0.0 13.461484139999998,53.681717430000006,0.0 13.461792050000001,53.68168506,0.0</coordinates>
                </LineString>
                <LineString id="45220">
                    <coordinates>13.461792050000001,53.68168506,0.0 13.461924890000002,53.681715520000004,0.0 13.462005610000002,53.6817439,0.0 13.462140810000001,53.68178844,0.0</coordinates>
                </LineString>
                <LineString id="45222">
                    <coordinates>13.462140810000001,53.68178844,0.0 13.462695309999999,53.68172096999999,0.0</coordinates>
                </LineString>
                <LineString id="45224">
                    <coordinates>13.462695309999999,53.68172096999999,0.0 13.46328714,53.681643969999996,0.0</coordinates>
                </LineString>
                <LineString id="45226">
                    <coordinates>13.46328714,53.681643969999996,0.0 13.46343717,53.68162494,0.0 13.46398817,53.68155806000001,0.0 13.46420217,53.681528490000005,0.0 13.46447849,53.681493929999995,0.0</coordinates>
                </LineString>
                <LineString id="45228">
                    <coordinates>13.46447849,53.681493929999995,0.0 13.46488557,53.68141455999999,0.0 13.465426039999999,53.6813108,0.0 13.465897039999998,53.68121872999998,0.0</coordinates>
                </LineString>
                <LineString id="45230">
                    <coordinates>13.465897039999998,53.68121872999998,0.0 13.46646634,53.681103809999996,0.0 13.466770999999998,53.68104182999999,0.0</coordinates>
                </LineString>
                <LineString id="45232">
                    <coordinates>13.431651739999998,53.68471294999999,0.0 13.43174379,53.684713769999995,0.0 13.43215989,53.68471737,0.0 13.432417149999997,53.68471992,0.0</coordinates>
                </LineString>
                <LineString id="45234">
                    <coordinates>13.432417149999997,53.68471992,0.0 13.432458979999998,53.68472035999999,0.0</coordinates>
                </LineString>
                <LineString id="45236">
                    <coordinates>13.436330340000001,53.68445354000001,0.0 13.43684571,53.68440397,0.0 13.43730864,53.684345269999994,0.0 13.43742766,53.68433112,0.0</coordinates>
                </LineString>
                <LineString id="45238">
                    <coordinates>13.42626826,53.6847697,0.0 13.426273049999999,53.68482259,0.0 13.4262871,53.68483823,0.0 13.426314949999998,53.6848503,0.0 13.426341560000001,53.6848549,0.0</coordinates>
                </LineString>
                <LineString id="45240">
                    <coordinates>13.426341560000001,53.6848549,0.0 13.42637285,53.68485322,0.0 13.426421459999998,53.684848559999985,0.0 13.426452749999997,53.68484544,0.0 13.426505930000001,53.684840799999996,0.0 13.426558069999999,53.68484022999999,0.0 13.426592879999996,53.68484118999999,0.0 13.426600180000001,53.68484129000001,0.0</coordinates>
                </LineString>
            </MultiGeometry>
        </Placemark>
        <Placemark id="45247">
            <name>MultiPoint</name>
            <styleUrl>#45268</styleUrl>
            <MultiGeometry id="45246">
                <Point id="45248">
                    <coordinates>13.537738484,53.67684199299999,0.0</coordinates>
                </Point>
                <Point id="45250">
                    <coordinates>13.557821349182998,53.67589243506699,0.0</coordinates>
                </Point>
                <Point id="45252">
                    <coordinates>13.5549518712633,53.6747035507589,0.0</coordinates>
                </Point>
                <Point id="45254">
                    <coordinates>13.554883796991799,53.67436570685279,0.0</coordinates>
                </Point>
                <Point id="45256">
                    <coordinates>13.557133997905398,53.675564406574495,0.0</coordinates>
                </Point>
                <Point id="45258">
                    <coordinates>13.556368188693899,53.674447612150196,0.0</coordinates>
                </Point>
                <Point id="45260">
                    <coordinates>13.5552033453454,53.674793227082795,0.0</coordinates>
                </Point>
                <Point id="45262">
                    <coordinates>13.555824033104598,53.672898126469,0.0</coordinates>
                </Point>
                <Point id="45264">
                    <coordinates>13.555848884853898,53.67288763702259,0.0</coordinates>
                </Point>
                <Point id="45266">
                    <coordinates>13.5441585318695,53.6706013828711,0.0</coordinates>
                </Point>
            </MultiGeometry>
        </Placemark>
    </Document>
</kml>
