<?xml version="1.0" encoding="UTF-8"?>
<kml xmlns="http://www.opengis.net/kml/2.2" xmlns:gx="http://www.google.com/kml/ext/2.2">
    <Document id="98517">
        <Style id="98888">
            <IconStyle id="98889">
                <color>ff0000ff</color>
                <colorMode>normal</colorMode>
                <scale>1</scale>
                <heading>0</heading>
                <Icon id="98890">
                    <href>http://maps.google.com/mapfiles/kml/pushpin/ylw-pushpin.png</href>
                </Icon>
            </IconStyle>
            <LineStyle id="98891">
                <color>ff0000ff</color>
                <colorMode>normal</colorMode>
                <width>5</width>
            </LineStyle>
        </Style>
        <Style id="98904">
            <IconStyle id="98906">
                <colorMode>normal</colorMode>
                <scale>1</scale>
                <heading>0</heading>
                <Icon id="98907">
                    <href>http://maps.google.com/mapfiles/kml/shapes/placemark_circle.png</href>
                </Icon>
            </IconStyle>
            <LabelStyle id="98905">
                <colorMode>normal</colorMode>
                <scale>0.0</scale>
            </LabelStyle>
        </Style>
        <open>1</open>
        <Placemark id="98519">
            <name>MultiLine</name>
            <styleUrl>#98888</styleUrl>
            <MultiGeometry id="98518">
                <LineString id="98520">
                    <coordinates>12.769243450000001,53.374180659999986,0.0 12.769311969999997,53.37420713999999,0.0 12.76932005,53.37421031,0.0</coordinates>
                </LineString>
                <LineString id="98522">
                    <coordinates>12.76932005,53.37421031,0.0 12.76934031,53.37419626,0.0</coordinates>
                </LineString>
                <LineString id="98524">
                    <coordinates>12.77801166,53.37598790999999,0.0 12.77801049,53.37598863,0.0 12.777578380000001,53.37615811999999,0.0 12.777027099999998,53.37627635999999,0.0 12.776439970000002,53.37640841999999,0.0 12.776133709999998,53.37647513999998,0.0 12.775892819999997,53.37653912,0.0 12.775340169999998,53.37668640999999,0.0 12.774456819999997,53.37684788,0.0 12.774149119999999,53.376959219999996,0.0 12.77400577,53.37705151,0.0</coordinates>
                </LineString>
                <LineString id="98526">
                    <coordinates>12.770079639999999,53.37523178,0.0 12.7688671,53.37500166,0.0</coordinates>
                </LineString>
                <LineString id="98528">
                    <coordinates>12.7688671,53.37500166,0.0 12.768775119999999,53.37487335,0.0 12.76934031,53.37419626,0.0</coordinates>
                </LineString>
                <LineString id="98530">
                    <coordinates>12.770231059999999,53.37514705999999,0.0 12.77051526,53.37511843,0.0</coordinates>
                </LineString>
                <LineString id="98532">
                    <coordinates>12.77111207,53.37514084,0.0 12.770963429999998,53.375129259999994,0.0 12.77067418,53.37512355,0.0 12.77051526,53.37511843,0.0</coordinates>
                </LineString>
                <LineString id="98534">
                    <coordinates>12.770079639999999,53.37523178,0.0 12.770231059999999,53.37514705999999,0.0</coordinates>
                </LineString>
                <LineString id="98536">
                    <coordinates>12.771662289999998,53.37532089,0.0 12.77111207,53.37514084,0.0</coordinates>
                </LineString>
                <LineString id="98538">
                    <coordinates>12.77353922,53.376485609999996,0.0 12.77296235,53.376105869999996,0.0 12.772653909999999,53.37588938999999,0.0 12.772274699999999,53.37564515999999,0.0 12.77176736,53.37537360999999,0.0 12.771662289999998,53.37532089,0.0</coordinates>
                </LineString>
                <LineString id="98540">
                    <coordinates>12.77400577,53.37705151,0.0 12.77380103,53.376732340000004,0.0</coordinates>
                </LineString>
                <LineString id="98542">
                    <coordinates>12.77380103,53.376732340000004,0.0 12.77353922,53.376485609999996,0.0</coordinates>
                </LineString>
                <LineString id="98544">
                    <coordinates>12.77801166,53.37598790999999,0.0 12.778333169999998,53.37593285999998,0.0</coordinates>
                </LineString>
                <LineString id="98546">
                    <coordinates>12.62460055,53.33637164999999,0.0 12.62471139,53.33641975,0.0 12.62489549,53.33642249999999,0.0 12.625029999999999,53.33641175999999,0.0</coordinates>
                </LineString>
                <LineString id="98548">
                    <coordinates>12.625029999999999,53.33641175999999,0.0 12.62506763,53.33641785,0.0 12.62519717,53.33641277000001,0.0</coordinates>
                </LineString>
                <LineString id="98550">
                    <coordinates>12.624587979999998,53.336366289999994,0.0 12.62459108,53.33632047999999,0.0 12.624579570000002,53.336210169999994,0.0 12.62455931,53.33588028,0.0 12.6245531,53.33569091,0.0 12.6244865,53.33505287,0.0 12.62445299,53.33470216,0.0 12.624426709999998,53.33447793999999,0.0 12.624405749999998,53.33416178,0.0 12.624412860000001,53.333889660000004,0.0</coordinates>
                </LineString>
                <LineString id="98552">
                    <coordinates>12.62433697,53.333428309999995,0.0 12.62433178,53.33338212,0.0 12.62435271,53.33292809000001,0.0 12.62435788,53.332175979999995,0.0 12.62438254,53.33182876,0.0 12.624468479999999,53.33126218999999,0.0 12.62451519,53.3310298,0.0 12.6245144,53.330962039999996,0.0</coordinates>
                </LineString>
                <LineString id="98554">
                    <coordinates>12.624412860000001,53.333889660000004,0.0 12.62433697,53.333428309999995,0.0</coordinates>
                </LineString>
                <LineString id="98556">
                    <coordinates>12.62519717,53.33641277000001,0.0 12.62751464,53.33635459999999,0.0</coordinates>
                </LineString>
                <LineString id="98558">
                    <coordinates>12.624587979999998,53.336366289999994,0.0 12.62460055,53.33637164999999,0.0</coordinates>
                </LineString>
                <LineString id="98560">
                    <coordinates>12.664067329999998,53.300857019999995,0.0 12.66403204,53.300814949999996,0.0</coordinates>
                </LineString>
                <LineString id="98562">
                    <coordinates>12.62433697,53.333428309999995,0.0 12.62433178,53.33338212,0.0 12.62435271,53.33292809000001,0.0 12.62435788,53.332175979999995,0.0 12.62438254,53.33182876,0.0 12.624468479999999,53.33126218999999,0.0 12.62451519,53.3310298,0.0 12.6245144,53.330962039999996,0.0</coordinates>
                </LineString>
                <LineString id="98564">
                    <coordinates>12.62447669,53.33070842000001,0.0 12.624581629999998,53.33059982999999,0.0 12.62470935,53.33051093000001,0.0 12.62477085,53.33047352,0.0 12.624819109999999,53.33044809999999,0.0 12.624883859999999,53.33041365999999,0.0</coordinates>
                </LineString>
                <LineString id="98566">
                    <coordinates>12.6245144,53.330962039999996,0.0 12.624415070000001,53.33085505,0.0 12.624415650000001,53.330820259999996,0.0 12.62447669,53.33070842000001,0.0</coordinates>
                </LineString>
                <LineString id="98568">
                    <coordinates>12.6249173,53.33039885999999,0.0 12.625195840000002,53.33026376,0.0 12.62575027,53.330015370000005,0.0 12.62596621,53.32991077999999,0.0 12.626026169999998,53.32979860999999,0.0 12.626131719999997,53.329708069999995,0.0 12.626507069999999,53.32956780999999,0.0 12.6267618,53.32951341999999,0.0</coordinates>
                </LineString>
                <LineString id="98570">
                    <coordinates>12.6267618,53.32951341999999,0.0 12.62721962,53.32927443,0.0</coordinates>
                </LineString>
                <LineString id="98572">
                    <coordinates>12.62904194,53.328198730000004,0.0 12.629192749999998,53.32799937,0.0 12.629255379999998,53.32788125999999,0.0 12.62935883,53.32762937,0.0 12.629392679999999,53.327563149999996,0.0 12.62952853,53.32733939999999,0.0 12.62982097,53.32706470000001,0.0</coordinates>
                </LineString>
                <LineString id="98574">
                    <coordinates>12.63044074,53.32656255999999,0.0 12.63081219,53.32626335,0.0</coordinates>
                </LineString>
                <LineString id="98576">
                    <coordinates>12.62982097,53.32706470000001,0.0 12.6298757,53.32701714,0.0 12.63007892,53.326857919999995,0.0 12.63044074,53.32656255999999,0.0</coordinates>
                </LineString>
                <LineString id="98578">
                    <coordinates>12.63151831,53.32595475,0.0 12.631784469999998,53.325862529999995,0.0</coordinates>
                </LineString>
                <LineString id="98580">
                    <coordinates>12.631784469999998,53.325862529999995,0.0 12.63214013,53.32572348,0.0 12.632240769999997,53.325671109999995,0.0 12.63244974,53.325560599999996,0.0 12.63275961,53.32536966999999,0.0 12.63323505,53.32501637000001,0.0 12.63373457,53.32466357,0.0 12.6344067,53.324203610000005,0.0</coordinates>
                </LineString>
                <LineString id="98582">
                    <coordinates>12.63497952,53.323735619999994,0.0 12.635102079999998,53.32361971,0.0</coordinates>
                </LineString>
                <LineString id="98584">
                    <coordinates>12.6344067,53.324203610000005,0.0 12.63472275,53.32397986999999,0.0 12.63485724,53.323852959999996,0.0</coordinates>
                </LineString>
                <LineString id="98586">
                    <coordinates>12.63485724,53.323852959999996,0.0 12.63497952,53.323735619999994,0.0</coordinates>
                </LineString>
                <LineString id="98588">
                    <coordinates>12.635102079999998,53.32361971,0.0 12.635351310000003,53.32331814,0.0 12.6356565,53.32290401,0.0 12.63607323,53.32250956,0.0</coordinates>
                </LineString>
                <LineString id="98590">
                    <coordinates>12.63607323,53.32250956,0.0 12.63622637,53.32236186,0.0 12.63645016,53.322139499999984,0.0 12.637015540000002,53.32160415,0.0 12.63740553,53.321219559999996,0.0</coordinates>
                </LineString>
                <LineString id="98592">
                    <coordinates>12.63740553,53.321219559999996,0.0 12.63780158,53.32082581,0.0 12.63817868,53.32043675999999,0.0 12.638566919999999,53.32005197999999,0.0 12.638998209999999,53.31964028,0.0 12.639235979999999,53.31941061999999,0.0 12.63953424,53.31910932,0.0 12.64001258,53.31871216,0.0 12.64047673,53.31831741999999,0.0 12.640824059999998,53.318031379999994,0.0 12.64119504,53.317736350000004,0.0 12.641589859999996,53.317417809999995,0.0 12.64210519,53.31701199,0.0 12.64249569,53.31670105,0.0</coordinates>
                </LineString>
                <LineString id="98594">
                    <coordinates>12.63081219,53.32626335,0.0 12.631002439999998,53.326151129999985,0.0 12.631384799999998,53.32600033,0.0 12.63151831,53.32595475,0.0</coordinates>
                </LineString>
                <LineString id="98596">
                    <coordinates>12.62721962,53.32927443,0.0 12.627297610000001,53.32923709000001,0.0 12.627370589999996,53.32920522999999,0.0 12.62751264,53.32914049,0.0 12.62770138,53.329046909999995,0.0 12.627927230000001,53.32893824,0.0 12.628140450000002,53.32883433,0.0 12.628245070000002,53.32878267,0.0 12.628377399999998,53.32870702000001,0.0 12.62856691,53.32861322,0.0 12.62858921,53.328601169999985,0.0 12.62876776,53.32846787,0.0 12.62883308,53.32839488999999,0.0 12.62891046,53.328345829999996,0.0 12.628999,53.328251030000004,0.0 12.62904194,53.328198730000004,0.0</coordinates>
                </LineString>
                <LineString id="98598">
                    <coordinates>12.624883859999999,53.33041365999999,0.0 12.6249173,53.33039885999999,0.0</coordinates>
                </LineString>
                <LineString id="98600">
                    <coordinates>12.64249569,53.31670105,0.0 12.6430165,53.31630004000001,0.0</coordinates>
                </LineString>
                <LineString id="98602">
                    <coordinates>12.63740553,53.321219559999996,0.0 12.63780158,53.32082581,0.0 12.63817868,53.32043675999999,0.0 12.638566919999999,53.32005197999999,0.0 12.638998209999999,53.31964028,0.0 12.639235979999999,53.31941061999999,0.0 12.63953424,53.31910932,0.0 12.64001258,53.31871216,0.0 12.64047673,53.31831741999999,0.0 12.640824059999998,53.318031379999994,0.0 12.64119504,53.317736350000004,0.0 12.641589859999996,53.317417809999995,0.0 12.64210519,53.31701199,0.0 12.64249569,53.31670105,0.0</coordinates>
                </LineString>
                <LineString id="98604">
                    <coordinates>12.6430165,53.31630004000001,0.0 12.643313789999999,53.31609544,0.0 12.64358202,53.31588270999999,0.0 12.643932859999998,53.315602219999995,0.0 12.644150339999998,53.31542056,0.0 12.64438445,53.315194420000005,0.0 12.64455238,53.3150282,0.0 12.645181499999998,53.31439855999999,0.0 12.645396920000001,53.31419112999999,0.0 12.64558974,53.31400296999999,0.0 12.645989769999996,53.31361923999999,0.0 12.646432160000002,53.313193219999995,0.0 12.6470049,53.31264699,0.0 12.647402859999998,53.31226504000001,0.0 12.647800749999998,53.311875779999994,0.0 12.648197160000002,53.31148656999999,0.0 12.648581139999997,53.311092719999984,0.0</coordinates>
                </LineString>
                <LineString id="98606">
                    <coordinates>12.648581139999997,53.311092719999984,0.0 12.648806789999998,53.31087896999999,0.0 12.64888565,53.31081926,0.0 12.649042589999997,53.310774939999995,0.0 12.649079089999999,53.31076036999999,0.0 12.64911671,53.31073876,0.0 12.64936796,53.310475489999995,0.0 12.64979018,53.31010291,0.0</coordinates>
                </LineString>
                <LineString id="98608">
                    <coordinates>12.65076796,53.30924968,0.0 12.65079989,53.30924581,0.0</coordinates>
                </LineString>
                <LineString id="98610">
                    <coordinates>12.65079989,53.30924581,0.0 12.65086573,53.30926999999999,0.0 12.650981019999998,53.30932193,0.0 12.65109911,53.30938351999998,0.0 12.651160980000002,53.30938828000001,0.0</coordinates>
                </LineString>
                <LineString id="98612">
                    <coordinates>12.651195990000002,53.309358519999996,0.0 12.651200450000001,53.30935476999999,0.0</coordinates>
                </LineString>
                <LineString id="98614">
                    <coordinates>12.651160980000002,53.30938828000001,0.0 12.651195990000002,53.309358519999996,0.0</coordinates>
                </LineString>
                <LineString id="98616">
                    <coordinates>12.65079989,53.30924581,0.0 12.65137109,53.308696440000006,0.0 12.65158412,53.308529109999995,0.0 12.65176212,53.308388660000006,0.0</coordinates>
                </LineString>
                <LineString id="98618">
                    <coordinates>12.652867159999998,53.30749866,0.0 12.65305811,53.30737675999999,0.0</coordinates>
                </LineString>
                <LineString id="98620">
                    <coordinates>12.65415442,53.306751680000005,0.0 12.654341490000002,53.30664384999999,0.0 12.65449516,53.306502999999985,0.0</coordinates>
                </LineString>
                <LineString id="98622">
                    <coordinates>12.65305811,53.30737675999999,0.0 12.653281509999998,53.30724612,0.0 12.653397929999999,53.30718576999999,0.0 12.65352513,53.30710955,0.0 12.653734,53.30697774,0.0 12.653964569999998,53.30685142,0.0 12.65415442,53.306751680000005,0.0</coordinates>
                </LineString>
                <LineString id="98624">
                    <coordinates>12.65520304,53.30609908,0.0 12.65516947,53.30600226,0.0</coordinates>
                </LineString>
                <LineString id="98626">
                    <coordinates>12.65593489,53.30567302,0.0 12.6559866,53.30564819999999,0.0</coordinates>
                </LineString>
                <LineString id="98628">
                    <coordinates>12.65517816,53.305999660000005,0.0 12.655186640000004,53.30599704,0.0</coordinates>
                </LineString>
                <LineString id="98630">
                    <coordinates>12.65516947,53.30600226,0.0 12.65517816,53.305999660000005,0.0</coordinates>
                </LineString>
                <LineString id="98632">
                    <coordinates>12.655222690000002,53.30598594000001,0.0 12.65593489,53.30567302,0.0</coordinates>
                </LineString>
                <LineString id="98634">
                    <coordinates>12.6559866,53.30564819999999,0.0 12.65686185,53.30523003999999,0.0 12.65732642,53.30500897,0.0 12.65756939,53.30490257999999,0.0</coordinates>
                </LineString>
                <LineString id="98636">
                    <coordinates>12.659023960000003,53.30422488999999,0.0 12.65918026,53.304157909999994,0.0 12.659394069999998,53.30408609999999,0.0</coordinates>
                </LineString>
                <LineString id="98638">
                    <coordinates>12.65756939,53.30490257999999,0.0 12.658253180000003,53.304599370000005,0.0</coordinates>
                </LineString>
                <LineString id="98640">
                    <coordinates>12.658253180000003,53.304599370000005,0.0 12.658426009999998,53.30451931999999,0.0</coordinates>
                </LineString>
                <LineString id="98642">
                    <coordinates>12.658426009999998,53.30451931999999,0.0 12.658565560000001,53.30444719,0.0 12.65877139,53.304363649999985,0.0 12.65882799,53.304329919999994,0.0 12.658930339999998,53.30427422999998,0.0 12.659009270000002,53.30423183999999,0.0 12.659023960000003,53.30422488999999,0.0</coordinates>
                </LineString>
                <LineString id="98644">
                    <coordinates>12.659394069999998,53.30408609999999,0.0 12.659697499999998,53.30400756,0.0 12.659968779999998,53.30394813,0.0 12.660215790000002,53.30390496999999,0.0 12.660236480000002,53.30390176,0.0</coordinates>
                </LineString>
                <LineString id="98646">
                    <coordinates>12.660350739999998,53.30388315999999,0.0 12.660754439999998,53.30380022,0.0</coordinates>
                </LineString>
                <LineString id="98648">
                    <coordinates>12.660328820000002,53.30388699000001,0.0 12.660350739999998,53.30388315999999,0.0</coordinates>
                </LineString>
                <LineString id="98650">
                    <coordinates>12.660754439999998,53.30380022,0.0 12.66106625,53.30374722999999,0.0 12.66138952,53.30368234,0.0 12.66162045,53.30363183,0.0 12.661679959999997,53.303617899999985,0.0 12.66177649,53.30359911999998,0.0 12.66194264,53.303574880000006,0.0 12.662280809999999,53.30351229,0.0 12.66275072,53.30342496,0.0</coordinates>
                </LineString>
                <LineString id="98652">
                    <coordinates>12.66275072,53.30342496,0.0 12.66279624,53.303417109999984,0.0</coordinates>
                </LineString>
                <LineString id="98654">
                    <coordinates>12.66279624,53.303417109999984,0.0 12.663137959999997,53.303356669999985,0.0</coordinates>
                </LineString>
                <LineString id="98656">
                    <coordinates>12.663137959999997,53.303356669999985,0.0 12.66326852,53.30333049,0.0</coordinates>
                </LineString>
                <LineString id="98658">
                    <coordinates>12.663374859999998,53.303308009999995,0.0 12.66367038,53.30325531999999,0.0</coordinates>
                </LineString>
                <LineString id="98660">
                    <coordinates>12.66326852,53.30333049,0.0 12.663374859999998,53.303308009999995,0.0</coordinates>
                </LineString>
                <LineString id="98662">
                    <coordinates>12.66367038,53.30325531999999,0.0 12.66374752,53.30324124999999,0.0</coordinates>
                </LineString>
                <LineString id="98664">
                    <coordinates>12.66374752,53.30324124999999,0.0 12.66381557,53.30327217999999,0.0 12.664031840000002,53.30323182000001,0.0</coordinates>
                </LineString>
                <LineString id="98666">
                    <coordinates>12.664031840000002,53.30323182000001,0.0 12.66412549,53.30321254,0.0</coordinates>
                </LineString>
                <LineString id="98668">
                    <coordinates>12.66412549,53.30321254,0.0 12.66442265,53.3031547,0.0 12.66465834,53.30310983999999,0.0 12.66475095,53.30309057,0.0</coordinates>
                </LineString>
                <LineString id="98670">
                    <coordinates>12.66475095,53.30309057,0.0 12.664772599999997,53.30308546999999,0.0</coordinates>
                </LineString>
                <LineString id="98672">
                    <coordinates>12.66546506,53.302941419999996,0.0 12.665526819999998,53.30291411,0.0 12.665577279999999,53.30288006999999,0.0 12.6656076,53.302830979999996,0.0 12.665608830000002,53.30277486,0.0</coordinates>
                </LineString>
                <LineString id="98674">
                    <coordinates>12.664772599999997,53.30308546999999,0.0 12.66513263,53.30301448,0.0 12.66537964,53.30296421999999,0.0</coordinates>
                </LineString>
                <LineString id="98676">
                    <coordinates>12.66537964,53.30296421999999,0.0 12.66546506,53.302941419999996,0.0</coordinates>
                </LineString>
                <LineString id="98678">
                    <coordinates>12.665608830000002,53.30277486,0.0 12.6657168,53.30274192,0.0</coordinates>
                </LineString>
                <LineString id="98680">
                    <coordinates>12.6657168,53.30274192,0.0 12.665670640000002,53.30271789,0.0 12.66562524,53.30268828,0.0 12.665589710000003,53.302648569999995,0.0 12.665528310000001,53.302566109999994,0.0 12.665438779999999,53.302452419999995,0.0</coordinates>
                </LineString>
                <LineString id="98682">
                    <coordinates>12.665247790000002,53.302199720000004,0.0 12.66510849,53.302018239999995,0.0</coordinates>
                </LineString>
                <LineString id="98684">
                    <coordinates>12.66510849,53.302018239999995,0.0 12.66509296,53.30199524,0.0</coordinates>
                </LineString>
                <LineString id="98686">
                    <coordinates>12.665347280000002,53.30232929999999,0.0 12.665247790000002,53.302199720000004,0.0</coordinates>
                </LineString>
                <LineString id="98688">
                    <coordinates>12.66509296,53.30199524,0.0 12.66506373,53.30196053,0.0</coordinates>
                </LineString>
                <LineString id="98690">
                    <coordinates>12.665438779999999,53.302452419999995,0.0 12.665347280000002,53.30232929999999,0.0</coordinates>
                </LineString>
                <LineString id="98692">
                    <coordinates>12.66506373,53.30196053,0.0 12.664975429999998,53.301859599999986,0.0</coordinates>
                </LineString>
                <LineString id="98694">
                    <coordinates>12.664975429999998,53.301859599999986,0.0 12.664832400000002,53.30167251,0.0</coordinates>
                </LineString>
                <LineString id="98696">
                    <coordinates>12.664832400000002,53.30167251,0.0 12.66481683,53.30164885000001,0.0</coordinates>
                </LineString>
                <LineString id="98698">
                    <coordinates>12.6646332,53.301423869999994,0.0 12.66454119,53.30145467,0.0</coordinates>
                </LineString>
                <LineString id="98700">
                    <coordinates>12.66481027,53.30164063,0.0 12.6646332,53.301423869999994,0.0</coordinates>
                </LineString>
                <LineString id="98702">
                    <coordinates>12.664290200000002,53.30112810999999,0.0 12.664067329999998,53.300857019999995,0.0</coordinates>
                </LineString>
                <LineString id="98704">
                    <coordinates>12.664394709999998,53.30127194,0.0 12.664350919999999,53.30121075999998,0.0</coordinates>
                </LineString>
                <LineString id="98706">
                    <coordinates>12.664350919999999,53.30121075999998,0.0 12.664299439999999,53.301140019999984,0.0</coordinates>
                </LineString>
                <LineString id="98708">
                    <coordinates>12.66403204,53.300814949999996,0.0 12.66394391,53.30071422999999,0.0</coordinates>
                </LineString>
                <LineString id="98710">
                    <coordinates>12.663645679999998,53.30029222999999,0.0 12.663573680000002,53.30018522,0.0 12.663532809999998,53.3001259,0.0 12.663502550000002,53.30009197999999,0.0 12.6634623,53.3000687,0.0</coordinates>
                </LineString>
                <LineString id="98712">
                    <coordinates>12.6634623,53.3000687,0.0 12.66333986,53.30000291999999,0.0 12.66320718,53.29994359999999,0.0 12.663096299999998,53.299896979999986,0.0 12.663024329999999,53.29986752,0.0</coordinates>
                </LineString>
                <LineString id="98714">
                    <coordinates>12.663024329999999,53.29986752,0.0 12.662907339999999,53.29982083,0.0</coordinates>
                </LineString>
                <LineString id="98716">
                    <coordinates>12.66194788,53.29934245999999,0.0 12.661743610000002,53.29916980000001,0.0 12.66169648,53.2990992,0.0</coordinates>
                </LineString>
                <LineString id="98718">
                    <coordinates>12.662907339999999,53.29982083,0.0 12.66279424,53.29978136,0.0 12.662671819999998,53.29973470999998,0.0 12.662444889999998,53.29964076000001,0.0 12.66225095,53.29952594000001,0.0 12.66216829,53.29948192,0.0 12.66194788,53.29934245999999,0.0</coordinates>
                </LineString>
                <LineString id="98720">
                    <coordinates>12.66169648,53.2990992,0.0 12.6616173,53.29897273,0.0 12.66154882,53.29886988,0.0 12.661510849999999,53.298815709999985,0.0 12.66137261,53.29861888,0.0</coordinates>
                </LineString>
                <LineString id="98722">
                    <coordinates>12.66137261,53.29861888,0.0 12.66150825,53.29859501999999,0.0</coordinates>
                </LineString>
                <LineString id="98724">
                    <coordinates>12.660236480000002,53.30390176,0.0 12.660328820000002,53.30388699000001,0.0</coordinates>
                </LineString>
                <LineString id="98726">
                    <coordinates>12.655186640000004,53.30599704,0.0 12.655222690000002,53.30598594000001,0.0</coordinates>
                </LineString>
                <LineString id="98728">
                    <coordinates>12.64979018,53.31010291,0.0 12.65001457,53.30990113,0.0 12.650450119999999,53.30952779999999,0.0 12.65076796,53.30924968,0.0</coordinates>
                </LineString>
                <LineString id="98730">
                    <coordinates>12.66481683,53.30164885000001,0.0 12.66481027,53.30164063,0.0</coordinates>
                </LineString>
                <LineString id="98732">
                    <coordinates>12.65176212,53.308388660000006,0.0 12.652270260000002,53.30797059999999,0.0 12.652485879999999,53.30778289999999,0.0 12.65265528,53.30765134999999,0.0 12.652839169999998,53.30751638000001,0.0 12.652867159999998,53.30749866,0.0</coordinates>
                </LineString>
                <LineString id="98734">
                    <coordinates>12.66150825,53.29859501999999,0.0 12.661293549999996,53.29832738999999,0.0 12.661405130000002,53.297999540000006,0.0 12.661559040000002,53.29768323,0.0 12.66159529,53.29758625,0.0</coordinates>
                </LineString>
                <LineString id="98736">
                    <coordinates>12.65593256,53.288439079999996,0.0 12.655313919999998,53.288084999999995,0.0</coordinates>
                </LineString>
                <LineString id="98738">
                    <coordinates>12.662312139999997,53.295537689999996,0.0 12.662322919999996,53.295493519999994,0.0 12.66236055,53.29533188,0.0 12.662346589999999,53.29456475999999,0.0 12.66234968,53.294276359999984,0.0</coordinates>
                </LineString>
                <LineString id="98740">
                    <coordinates>12.66234968,53.294276359999984,0.0 12.66235159,53.29368486999999,0.0 12.66234832,53.293089269999996,0.0 12.66238299,53.29273429999999,0.0 12.66234239,53.29169827,0.0 12.66237435,53.291049599999994,0.0 12.662409479999997,53.29092649999999,0.0 12.66198888,53.290664570000004,0.0 12.66186094,53.29059377,0.0</coordinates>
                </LineString>
                <LineString id="98742">
                    <coordinates>12.655313919999998,53.288084999999995,0.0 12.65455007,53.287685630000006,0.0 12.653552449999998,53.28719706999999,0.0 12.65286156,53.28678347000001,0.0 12.652209510000002,53.28602362,0.0 12.65174507,53.28537865999999,0.0</coordinates>
                </LineString>
                <LineString id="98744">
                    <coordinates>12.65174507,53.28537865999999,0.0 12.651477470000001,53.28499999,0.0 12.65117963,53.28409292999999,0.0 12.650889650000002,53.283540880000004,0.0 12.65053666,53.283083739999995,0.0 12.649665030000001,53.28247232,0.0 12.649274449999998,53.282290429999996,0.0</coordinates>
                </LineString>
                <LineString id="98746">
                    <coordinates>12.651299959999998,53.30935912999999,0.0 12.651200450000001,53.30935476999999,0.0</coordinates>
                </LineString>
                <LineString id="98748">
                    <coordinates>12.65470462,53.30635296999999,0.0 12.65472493,53.30634436999999,0.0 12.654790059999998,53.30632170999999,0.0 12.654881789999996,53.30620052,0.0 12.65520304,53.30609908,0.0</coordinates>
                </LineString>
                <LineString id="98750">
                    <coordinates>12.66454119,53.30145467,0.0 12.664394709999998,53.30127194,0.0</coordinates>
                </LineString>
                <LineString id="98752">
                    <coordinates>12.664299439999999,53.301140019999984,0.0 12.664290200000002,53.30112810999999,0.0</coordinates>
                </LineString>
                <LineString id="98754">
                    <coordinates>12.663769159999998,53.30047327999999,0.0 12.663684889999999,53.300346899999994,0.0 12.66367018,53.30032669999999,0.0</coordinates>
                </LineString>
                <LineString id="98756">
                    <coordinates>12.662150720000001,53.2964158,0.0 12.662247460000001,53.29581612,0.0 12.662312139999997,53.295537689999996,0.0</coordinates>
                </LineString>
                <LineString id="98758">
                    <coordinates>12.66159529,53.29758625,0.0 12.66181609,53.29718618,0.0 12.662144769999998,53.296450439999994,0.0 12.662150720000001,53.2964158,0.0</coordinates>
                </LineString>
                <LineString id="98760">
                    <coordinates>12.65449516,53.306502999999985,0.0 12.6545707,53.30643336,0.0 12.654655749999998,53.30637449,0.0 12.65470462,53.30635296999999,0.0</coordinates>
                </LineString>
                <LineString id="98762">
                    <coordinates>12.649274449999998,53.282290429999996,0.0 12.648880499999999,53.282117619999994,0.0 12.648376489999999,53.281951039999996,0.0 12.6471368,53.28169332,0.0 12.64515268,53.28121332,0.0 12.64368133,53.28073014000001,0.0</coordinates>
                </LineString>
                <LineString id="98764">
                    <coordinates>12.663652149999999,53.30030142,0.0 12.663645679999998,53.30029222999999,0.0</coordinates>
                </LineString>
                <LineString id="98766">
                    <coordinates>12.66367018,53.30032669999999,0.0 12.663652149999999,53.30030142,0.0</coordinates>
                </LineString>
                <LineString id="98768">
                    <coordinates>12.66384498,53.300581369999996,0.0 12.663789829999999,53.30050182,0.0 12.663769159999998,53.30047327999999,0.0</coordinates>
                </LineString>
                <LineString id="98770">
                    <coordinates>12.66186094,53.29059377,0.0 12.66107857,53.290153440000005,0.0 12.660448570000002,53.289857270000006,0.0 12.65972512,53.28952893999999,0.0 12.6592238,53.28934029,0.0 12.658799659999998,53.289172599999986,0.0 12.658326720000002,53.28898121999998,0.0 12.65771906,53.28880916999999,0.0 12.65698458,53.28869862999999,0.0</coordinates>
                </LineString>
                <LineString id="98772">
                    <coordinates>12.65593256,53.288439079999996,0.0 12.65698458,53.28869862999999,0.0</coordinates>
                </LineString>
                <LineString id="98774">
                    <coordinates>12.66394391,53.30071422999999,0.0 12.66384498,53.300581369999996,0.0</coordinates>
                </LineString>
                <LineString id="98776">
                    <coordinates>12.639311090000001,53.27914378,0.0 12.639518119999998,53.278929479999995,0.0</coordinates>
                </LineString>
                <LineString id="98778">
                    <coordinates>12.64033259,53.27988042,0.0 12.64022225,53.27985073000001,0.0 12.64006339,53.27979854,0.0 12.639876349999998,53.279707759999994,0.0 12.63971637,53.27960275,0.0 12.63957776,53.27950155999999,0.0 12.639470979999999,53.27943655,0.0 12.639399349999998,53.27935450999999,0.0</coordinates>
                </LineString>
                <LineString id="98780">
                    <coordinates>12.639399349999998,53.27935450999999,0.0 12.639311090000001,53.27914378,0.0</coordinates>
                </LineString>
                <LineString id="98782">
                    <coordinates>12.639399349999998,53.27935450999999,0.0 12.63957499,53.27907328,0.0</coordinates>
                </LineString>
                <LineString id="98784">
                    <coordinates>12.63980023,53.27885237999999,0.0 12.640020920000001,53.2786344,0.0</coordinates>
                </LineString>
                <LineString id="98786">
                    <coordinates>12.63957499,53.27907328,0.0 12.63980023,53.27885237999999,0.0</coordinates>
                </LineString>
                <LineString id="98788">
                    <coordinates>12.63980066,53.278672,0.0 12.640090359999999,53.27839028999999,0.0</coordinates>
                </LineString>
                <LineString id="98790">
                    <coordinates>12.639518119999998,53.278929479999995,0.0 12.639757859999998,53.27871472999999,0.0 12.63980066,53.278672,0.0</coordinates>
                </LineString>
                <LineString id="98792">
                    <coordinates>12.640020920000001,53.2786344,0.0 12.64008865,53.27855928,0.0</coordinates>
                </LineString>
                <LineString id="98794">
                    <coordinates>12.64008865,53.27855928,0.0 12.64020964,53.27843532000001,0.0</coordinates>
                </LineString>
                <LineString id="98796">
                    <coordinates>12.640090359999999,53.27839028999999,0.0 12.640278809999998,53.27820883,0.0</coordinates>
                </LineString>
                <LineString id="98798">
                    <coordinates>12.64041479,53.278249329999994,0.0 12.64056627,53.278093940000005,0.0</coordinates>
                </LineString>
                <LineString id="98800">
                    <coordinates>12.64048174,53.27799919,0.0 12.64065793,53.27782956999999,0.0</coordinates>
                </LineString>
                <LineString id="98802">
                    <coordinates>12.64065793,53.27782956999999,0.0 12.640902010000001,53.277580439999994,0.0</coordinates>
                </LineString>
                <LineString id="98804">
                    <coordinates>12.64056627,53.278093940000005,0.0 12.640947239999997,53.27771811,0.0</coordinates>
                </LineString>
                <LineString id="98806">
                    <coordinates>12.640902010000001,53.277580439999994,0.0 12.64103911,53.277441579999994,0.0 12.64116003,53.277354259999996,0.0</coordinates>
                </LineString>
                <LineString id="98808">
                    <coordinates>12.640947239999997,53.27771811,0.0 12.64122279,53.27744115999998,0.0 12.641350760000002,53.27735168,0.0</coordinates>
                </LineString>
                <LineString id="98810">
                    <coordinates>12.64116003,53.277354259999996,0.0 12.64173242,53.276883399999996,0.0 12.641877559999998,53.27676309999998,0.0</coordinates>
                </LineString>
                <LineString id="98812">
                    <coordinates>12.641350760000002,53.27735168,0.0 12.64180331,53.276979,0.0</coordinates>
                </LineString>
                <LineString id="98814">
                    <coordinates>12.64180331,53.276979,0.0 12.642118589999999,53.27672105999999,0.0</coordinates>
                </LineString>
                <LineString id="98816">
                    <coordinates>12.641939610000001,53.27671156,0.0 12.64253566,53.276189980000005,0.0</coordinates>
                </LineString>
                <LineString id="98818">
                    <coordinates>12.641877559999998,53.27676309999998,0.0 12.641939610000001,53.27671156,0.0</coordinates>
                </LineString>
                <LineString id="98820">
                    <coordinates>12.642118589999999,53.27672105999999,0.0 12.64240603,53.27647665,0.0</coordinates>
                </LineString>
                <LineString id="98822">
                    <coordinates>12.64240603,53.27647665,0.0 12.642775430000002,53.27616039000001,0.0</coordinates>
                </LineString>
                <LineString id="98824">
                    <coordinates>12.64253566,53.276189980000005,0.0 12.64277743,53.27599129000001,0.0</coordinates>
                </LineString>
                <LineString id="98826">
                    <coordinates>12.643145360000002,53.27586376000001,0.0 12.64325148,53.27577577,0.0</coordinates>
                </LineString>
                <LineString id="98828">
                    <coordinates>12.642775430000002,53.27616039000001,0.0 12.643145360000002,53.27586376000001,0.0</coordinates>
                </LineString>
                <LineString id="98830">
                    <coordinates>12.64277743,53.27599129000001,0.0 12.64304527,53.275776920000006,0.0 12.643204919999999,53.27562063999999,0.0</coordinates>
                </LineString>
                <LineString id="98832">
                    <coordinates>12.64325148,53.27577577,0.0 12.64339845,53.27564583,0.0</coordinates>
                </LineString>
                <LineString id="98834">
                    <coordinates>12.643204919999999,53.27562063999999,0.0 12.64364676,53.27517775,0.0</coordinates>
                </LineString>
                <LineString id="98836">
                    <coordinates>12.64339845,53.27564583,0.0 12.64381872,53.27527009000001,0.0</coordinates>
                </LineString>
                <LineString id="98838">
                    <coordinates>12.64364676,53.27517775,0.0 12.643799389999998,53.27508306,0.0</coordinates>
                </LineString>
                <LineString id="98840">
                    <coordinates>12.64381872,53.27527009000001,0.0 12.64406969,53.27508249000001,0.0</coordinates>
                </LineString>
                <LineString id="98842">
                    <coordinates>12.64406969,53.27508249000001,0.0 12.64448559,53.27475945,0.0</coordinates>
                </LineString>
                <LineString id="98844">
                    <coordinates>12.643799389999998,53.27508306,0.0 12.64413646,53.2748537,0.0 12.644362429999997,53.27467493000001,0.0 12.64455096,53.27451898,0.0 12.64465364,53.27443613,0.0</coordinates>
                </LineString>
                <LineString id="98846">
                    <coordinates>12.64448559,53.27475945,0.0 12.644674319999996,53.27461002999999,0.0</coordinates>
                </LineString>
                <LineString id="98848">
                    <coordinates>12.64481678,53.27430724,0.0 12.644948010000002,53.27420562999999,0.0</coordinates>
                </LineString>
                <LineString id="98850">
                    <coordinates>12.644948010000002,53.27420562999999,0.0 12.645143519999998,53.273908869999985,0.0</coordinates>
                </LineString>
                <LineString id="98852">
                    <coordinates>12.645143519999998,53.273908869999985,0.0 12.64548923,53.27395359999999,0.0</coordinates>
                </LineString>
                <LineString id="98854">
                    <coordinates>12.64465364,53.27443613,0.0 12.64481678,53.27430724,0.0</coordinates>
                </LineString>
                <LineString id="98856">
                    <coordinates>12.644674319999996,53.27461002999999,0.0 12.64481235,53.27450102000001,0.0</coordinates>
                </LineString>
                <LineString id="98858">
                    <coordinates>12.64481235,53.27450102000001,0.0 12.645007459999999,53.27435091,0.0 12.645158869999998,53.27425285999999,0.0 12.64527131,53.27419145999999,0.0 12.64535527,53.27414945999999,0.0 12.645394189999998,53.27412885999999,0.0</coordinates>
                </LineString>
                <LineString id="98860">
                    <coordinates>12.645394189999998,53.27412885999999,0.0 12.645630130000002,53.27404837000001,0.0 12.645851719999998,53.273974429999996,0.0 12.64615935,53.27388956000001,0.0</coordinates>
                </LineString>
                <LineString id="98862">
                    <coordinates>12.64615935,53.27388956000001,0.0 12.646207629999997,53.273874230000004,0.0 12.64637491,53.27383267999999,0.0</coordinates>
                </LineString>
                <LineString id="98864">
                    <coordinates>12.64548923,53.27395359999999,0.0 12.64562059,53.27391567000001,0.0 12.64575692,53.27388439999999,0.0</coordinates>
                </LineString>
                <LineString id="98866">
                    <coordinates>12.64575692,53.27388439999999,0.0 12.64615659,53.2737934,0.0 12.646356849999998,53.273750549999995,0.0 12.646535919999998,53.27371239,0.0 12.64673411,53.27367094,0.0 12.646782389999998,53.273656149999994,0.0 12.64684094,53.27363184999999,0.0</coordinates>
                </LineString>
                <LineString id="98868">
                    <coordinates>12.64684094,53.27363184999999,0.0 12.646952779999998,53.2735793,0.0 12.647059809999998,53.27352903999999,0.0 12.64721782,53.27343051999999,0.0 12.64739105,53.27331636,0.0</coordinates>
                </LineString>
                <LineString id="98870">
                    <coordinates>12.64368133,53.28073014000001,0.0 12.643165660000001,53.28057080000001,0.0</coordinates>
                </LineString>
                <LineString id="98872">
                    <coordinates>12.643165660000001,53.28057080000001,0.0 12.64283939,53.28042823999999,0.0</coordinates>
                </LineString>
                <LineString id="98874">
                    <coordinates>12.64283939,53.28042823999999,0.0 12.64257078,53.28032269,0.0 12.642272639999998,53.28022938,0.0 12.64198288,53.28015367999999,0.0 12.64167719,53.28009795999999,0.0 12.641363699999998,53.280055749999995,0.0 12.641121179999999,53.28002976,0.0 12.64075127,53.27996112000001,0.0 12.64051281,53.27991623,0.0 12.64033259,53.27988042,0.0</coordinates>
                </LineString>
                <LineString id="98876">
                    <coordinates>12.64020964,53.27843532000001,0.0 12.64041479,53.278249329999994,0.0</coordinates>
                </LineString>
                <LineString id="98878">
                    <coordinates>12.64637491,53.27383267999999,0.0 12.646698130000003,53.27375963,0.0 12.64678173,53.27373225,0.0</coordinates>
                </LineString>
                <LineString id="98880">
                    <coordinates>12.640278809999998,53.27820883,0.0 12.640458609999998,53.27802281,0.0</coordinates>
                </LineString>
                <LineString id="98882">
                    <coordinates>12.640458609999998,53.27802281,0.0 12.64048174,53.27799919,0.0</coordinates>
                </LineString>
                <LineString id="98884">
                    <coordinates>12.64678173,53.27373225,0.0 12.64684273,53.273710799999996,0.0 12.647026629999997,53.27362793999998,0.0</coordinates>
                </LineString>
                <LineString id="98886">
                    <coordinates>12.649274449999998,53.282290429999996,0.0 12.648880499999999,53.282117619999994,0.0 12.648376489999999,53.281951039999996,0.0 12.6471368,53.28169332,0.0 12.64515268,53.28121332,0.0 12.64368133,53.28073014000001,0.0</coordinates>
                </LineString>
            </MultiGeometry>
        </Placemark>
        <Placemark id="98893">
            <name>MultiPoint</name>
            <styleUrl>#98904</styleUrl>
            <MultiGeometry id="98892">
                <Point id="98894">
                    <coordinates>12.769040189628997,53.3739295874163,0.0</coordinates>
                </Point>
                <Point id="98896">
                    <coordinates>12.627564479010198,53.3365352501912,0.0</coordinates>
                </Point>
                <Point id="98898">
                    <coordinates>12.624883156090199,53.33629969560688,0.0</coordinates>
                </Point>
                <Point id="98900">
                    <coordinates>12.6472000922586,53.27370112108049,0.0</coordinates>
                </Point>
                <Point id="98902">
                    <coordinates>12.647742199095998,53.27346082345628,0.0</coordinates>
                </Point>
            </MultiGeometry>
        </Placemark>
    </Document>
</kml>
