<?xml version="1.0" encoding="UTF-8"?>
<kml xmlns="http://www.opengis.net/kml/2.2" xmlns:gx="http://www.google.com/kml/ext/2.2">
    <Document id="8817">
        <Style id="9272">
            <IconStyle id="9273">
                <color>ff0000ff</color>
                <colorMode>normal</colorMode>
                <scale>1</scale>
                <heading>0</heading>
                <Icon id="9274">
                    <href>http://maps.google.com/mapfiles/kml/pushpin/ylw-pushpin.png</href>
                </Icon>
            </IconStyle>
            <LineStyle id="9275">
                <color>ff0000ff</color>
                <colorMode>normal</colorMode>
                <width>5</width>
            </LineStyle>
        </Style>
        <Style id="9290">
            <IconStyle id="9292">
                <colorMode>normal</colorMode>
                <scale>1</scale>
                <heading>0</heading>
                <Icon id="9293">
                    <href>http://maps.google.com/mapfiles/kml/shapes/placemark_circle.png</href>
                </Icon>
            </IconStyle>
            <LabelStyle id="9291">
                <colorMode>normal</colorMode>
                <scale>0.0</scale>
            </LabelStyle>
        </Style>
        <open>1</open>
        <Placemark id="8819">
            <name>MultiLine</name>
            <styleUrl>#9272</styleUrl>
            <MultiGeometry id="8818">
                <LineString id="8820">
                    <coordinates>13.047303699999997,53.218084659999995,0.0 13.047184259999998,53.21809486999999,0.0</coordinates>
                </LineString>
                <LineString id="8822">
                    <coordinates>13.047184259999998,53.21809486999999,0.0 13.047095569999998,53.21809885,0.0</coordinates>
                </LineString>
                <LineString id="8824">
                    <coordinates>13.04824064,53.21801563999999,0.0 13.048215199999998,53.21793035,0.0</coordinates>
                </LineString>
                <LineString id="8826">
                    <coordinates>13.07871759,53.21362651,0.0 13.07811602,53.214907149999995,0.0 13.078082159999997,53.21505248999999,0.0 13.078054399999997,53.21523560999999,0.0 13.07812757,53.21542121,0.0 13.078229899999998,53.21571392,0.0 13.078426029999997,53.215927099999995,0.0 13.07849659,53.215989709999995,0.0 13.078836179999998,53.216205169999995,0.0 13.079043420000001,53.21643727,0.0 13.07941144,53.21696798000001,0.0 13.07942502,53.21709723999999,0.0 13.079455570000002,53.21751337,0.0 13.079457910000002,53.21785093,0.0 13.079289149999997,53.21814546,0.0 13.079111720000004,53.21828855,0.0 13.078704159999997,53.21836373999999,0.0 13.07822511,53.218565639999994,0.0 13.077962319999997,53.218693509999994,0.0 13.07777406,53.21882723,0.0 13.07776438,53.21910183999999,0.0 13.077748859999998,53.21935113999999,0.0 13.077666840000001,53.219714569999994,0.0 13.077475160000002,53.21993355,0.0 13.076662239999997,53.22015970999999,0.0 13.07582656,53.22031979999999,0.0 13.075280249999999,53.22036118999999,0.0 13.07453978,53.22026819,0.0 13.073814830000002,53.22015616,0.0 13.072906820000002,53.21977981,0.0 13.0726994,53.21969628,0.0 13.071902969999998,53.219279209999996,0.0 13.070982939999999,53.21896573,0.0 13.07050106,53.21880156999999,0.0 13.069892150000001,53.21865081,0.0 13.069332019999997,53.21854397999999,0.0 13.068610149999998,53.21855802,0.0 13.06762802,53.21849792,0.0 13.06668813,53.219414029999996,0.0 13.06536159,53.22087655,0.0 13.065062129999996,53.22028318999998,0.0 13.064830219999997,53.21983092999999,0.0 13.06432529,53.21938552,0.0 13.063884239999998,53.219007149999996,0.0 13.06348532,53.21863423999999,0.0</coordinates>
                </LineString>
                <LineString id="8828">
                    <coordinates>13.06340534,53.21864251000001,0.0 13.06348532,53.21863423999999,0.0</coordinates>
                </LineString>
                <LineString id="8830">
                    <coordinates>13.048243939999999,53.21789454999998,0.0 13.04836038,53.21789501000001,0.0 13.04858351,53.21789800999999,0.0 13.048825679999998,53.21790108999999,0.0 13.04926019,53.21790809,0.0</coordinates>
                </LineString>
                <LineString id="8832">
                    <coordinates>13.04926019,53.21790809,0.0 13.04962721,53.21791395000001,0.0 13.050228830000002,53.21794856999998,0.0 13.051134419999999,53.21800089,0.0 13.052112009999998,53.21805155999999,0.0 13.052740159999999,53.21808519999999,0.0 13.053351330000002,53.21811274000001,0.0 13.05390763,53.218135659999994,0.0 13.053929789999998,53.21813673,0.0 13.054175209999999,53.21815423,0.0 13.05476126,53.218195269999995,0.0 13.055936039999999,53.21827368999999,0.0 13.056280639999999,53.21829854999999,0.0 13.056356800000001,53.21830231,0.0 13.056550719999999,53.218347969999996,0.0 13.056658619999999,53.21841774999999,0.0</coordinates>
                </LineString>
                <LineString id="8834">
                    <coordinates>13.056658619999999,53.21841774999999,0.0 13.056677779999998,53.21842946,0.0 13.057928509999998,53.21850857999999,0.0 13.05809502,53.218521009999996,0.0 13.058298769999999,53.218529170000004,0.0 13.05870827,53.21854491999999,0.0 13.05932443,53.218570310000004,0.0 13.060158119999999,53.218609089999994,0.0 13.0608687,53.21864519999998,0.0 13.061520519999998,53.218678510000004,0.0 13.06207776,53.21870890999999,0.0 13.062186569999998,53.21871638999999,0.0 13.062536060000001,53.21872782,0.0 13.06291105,53.21874052,0.0</coordinates>
                </LineString>
                <LineString id="8836">
                    <coordinates>13.043110330000001,53.21837335000001,0.0 13.043449049999998,53.218348109999994,0.0 13.04346292,53.21835142999999,0.0</coordinates>
                </LineString>
                <LineString id="8838">
                    <coordinates>13.048232070000001,53.21789451,0.0 13.048243939999999,53.21789454999998,0.0</coordinates>
                </LineString>
                <LineString id="8840">
                    <coordinates>13.13150363,53.24962092,0.0 13.1315145,53.249572949999994,0.0 13.13152549,53.249496320000006,0.0 13.131530779999997,53.24944447,0.0 13.13154105,53.24939207,0.0 13.1315296,53.24933961,0.0</coordinates>
                </LineString>
                <LineString id="8842">
                    <coordinates>13.137074240000002,53.25307255,0.0 13.13747268,53.25318964,0.0 13.13763995,53.253262029999995,0.0 13.13796518,53.25340612,0.0 13.13804218,53.25343916999999,0.0 13.13841897,53.25362035,0.0</coordinates>
                </LineString>
                <LineString id="8844">
                    <coordinates>13.15168327,53.25695302999999,0.0 13.151591859999998,53.256923689999994,0.0</coordinates>
                </LineString>
                <LineString id="8846">
                    <coordinates>13.151591859999998,53.256923689999994,0.0 13.151483189999999,53.256880470000006,0.0 13.151359820000001,53.256833400000005,0.0</coordinates>
                </LineString>
                <LineString id="8848">
                    <coordinates>13.151359820000001,53.256833400000005,0.0 13.15132366,53.256819189999995,0.0 13.151217380000002,53.256786119999994,0.0 13.15112697,53.25673584,0.0 13.15103855,53.25668440999999,0.0 13.1509482,53.25663663,0.0 13.1508522,53.25658486999999,0.0 13.15075131,53.25650756999999,0.0 13.15059133,53.256379429999996,0.0</coordinates>
                </LineString>
                <LineString id="8850">
                    <coordinates>13.15059133,53.256379429999996,0.0 13.15042186,53.25624874999999,0.0 13.150046320000001,53.25602235,0.0</coordinates>
                </LineString>
                <LineString id="8852">
                    <coordinates>13.150046320000001,53.25602235,0.0 13.149926589999998,53.255998719999994,0.0 13.14972109,53.25595439999999,0.0 13.149685339999998,53.25594926,0.0 13.149421039999998,53.255925049999995,0.0 13.14928169,53.25591447,0.0 13.149238480000001,53.25590999,0.0 13.14919136,53.25590546999999,0.0</coordinates>
                </LineString>
                <LineString id="8854">
                    <coordinates>13.14919136,53.25590546999999,0.0 13.14906098,53.25587055,0.0 13.14898773,53.25585431,0.0 13.14869128,53.25584113,0.0 13.14849677,53.25583313999999,0.0 13.148323189999997,53.25582716,0.0 13.14821781,53.25582363999999,0.0</coordinates>
                </LineString>
                <LineString id="8856">
                    <coordinates>13.14746742,53.25575598999999,0.0 13.147419659999997,53.255752210000004,0.0</coordinates>
                </LineString>
                <LineString id="8858">
                    <coordinates>13.147419659999997,53.255752210000004,0.0 13.14706694,53.2557311,0.0</coordinates>
                </LineString>
                <LineString id="8860">
                    <coordinates>13.14706694,53.2557311,0.0 13.146541290000002,53.25570325000001,0.0 13.146264649999999,53.25569121000001,0.0 13.14624261,53.255690359999996,0.0 13.146158379999997,53.25568762999999,0.0</coordinates>
                </LineString>
                <LineString id="8862">
                    <coordinates>13.146033249999999,53.25567197999999,0.0 13.14600982,53.25566907,0.0 13.145842099999998,53.255656019999996,0.0 13.14570432,53.25564819999999,0.0 13.14557327,53.25563972999999,0.0</coordinates>
                </LineString>
                <LineString id="8864">
                    <coordinates>13.144817589999999,53.25557817999999,0.0 13.144518219999997,53.255547809999996,0.0 13.144079170000001,53.255504470000005,0.0 13.143881969999997,53.25548942999998,0.0 13.143545949999998,53.25542491000001,0.0 13.14301411,53.255325549999995,0.0</coordinates>
                </LineString>
                <LineString id="8866">
                    <coordinates>13.14301411,53.255325549999995,0.0 13.142855609999998,53.25527543,0.0 13.14234607,53.255128379999995,0.0 13.14164178,53.25490799,0.0 13.14103497,53.25470101,0.0</coordinates>
                </LineString>
                <LineString id="8868">
                    <coordinates>13.14103497,53.25470101,0.0 13.140343839999998,53.25443703999999,0.0 13.139806579999997,53.25423976999999,0.0 13.13935987,53.25405823,0.0 13.13919994,53.253990249999994,0.0</coordinates>
                </LineString>
                <LineString id="8870">
                    <coordinates>13.13919994,53.253990249999994,0.0 13.138608079999997,53.25371394,0.0 13.13841897,53.25362035,0.0</coordinates>
                </LineString>
                <LineString id="8872">
                    <coordinates>13.152532289999998,53.25709034,0.0 13.152739099999998,53.25713174,0.0</coordinates>
                </LineString>
                <LineString id="8874">
                    <coordinates>13.144817589999999,53.25557817999999,0.0 13.145252230000002,53.25562957,0.0 13.145381869999998,53.25563626999998,0.0 13.145507419999998,53.25564076999999,0.0 13.14557327,53.25563972999999,0.0</coordinates>
                </LineString>
                <LineString id="8876">
                    <coordinates>13.13327952,53.25220283,0.0 13.13325152,53.25227817,0.0</coordinates>
                </LineString>
                <LineString id="8878">
                    <coordinates>13.13327952,53.25220283,0.0 13.13327805,53.25218524,0.0 13.133273429999997,53.25214300999998,0.0 13.133262120000001,53.25207667,0.0 13.13325016,53.25199990000001,0.0</coordinates>
                </LineString>
                <LineString id="8880">
                    <coordinates>13.13325016,53.25199990000001,0.0 13.133164729999999,53.251988360000006,0.0 13.133151980000001,53.25189648999999,0.0</coordinates>
                </LineString>
                <LineString id="8882">
                    <coordinates>13.133151980000001,53.25189648999999,0.0 13.13314685,53.25188319000001,0.0 13.13313787,53.25182026000001,0.0</coordinates>
                </LineString>
                <LineString id="8884">
                    <coordinates>13.13313787,53.25182026000001,0.0 13.13313258,53.25177545,0.0 13.133120119999997,53.25172109999998,0.0 13.13310259,53.25165907,0.0 13.13308424,53.251574209999994,0.0 13.13305737,53.25146134,0.0</coordinates>
                </LineString>
                <LineString id="8886">
                    <coordinates>13.13305737,53.25146134,0.0 13.133047129999998,53.251419039999995,0.0 13.13303478,53.251359629999996,0.0 13.133023990000002,53.251324749999995,0.0 13.133016059999996,53.25130021,0.0</coordinates>
                </LineString>
                <LineString id="8888">
                    <coordinates>13.133549430000002,53.252321970000004,0.0 13.13371823,53.252344840000006,0.0 13.13380749,53.25235679,0.0</coordinates>
                </LineString>
                <LineString id="8890">
                    <coordinates>13.13380749,53.25235679,0.0 13.13388945,53.2523682,0.0 13.134065780000002,53.252391849999995,0.0 13.13425794,53.252418079999984,0.0 13.13452578,53.25245594,0.0 13.13463095,53.25247323,0.0</coordinates>
                </LineString>
                <LineString id="8892">
                    <coordinates>13.13463095,53.25247323,0.0 13.134761370000001,53.25249558000001,0.0 13.13488255,53.25251669,0.0 13.1349654,53.25253265999999,0.0 13.135104519999999,53.25255703,0.0 13.13524576,53.25258349999999,0.0 13.13535747,53.252605790000004,0.0 13.135430419999999,53.252626559999996,0.0</coordinates>
                </LineString>
                <LineString id="8894">
                    <coordinates>13.135802410000002,53.25273335000001,0.0 13.135883779999999,53.25275759,0.0 13.136019570000002,53.25279593,0.0 13.136169719999998,53.252835489999995,0.0</coordinates>
                </LineString>
                <LineString id="8896">
                    <coordinates>13.136169719999998,53.252835489999995,0.0 13.13634382,53.25288171999999,0.0 13.1365359,53.25293341,0.0 13.136767099999998,53.252998939999976,0.0 13.136953580000002,53.25305054999999,0.0</coordinates>
                </LineString>
                <LineString id="8898">
                    <coordinates>13.136953580000002,53.25305054999999,0.0 13.136994129999998,53.25306102999999,0.0 13.13702075,53.253066010000005,0.0 13.13705318,53.25307128999998,0.0 13.137074240000002,53.25307255,0.0</coordinates>
                </LineString>
                <LineString id="8900">
                    <coordinates>13.133016059999996,53.25130021,0.0 13.13299617,53.25123892,0.0 13.13297542,53.251177629999994,0.0 13.13294741,53.251108390000006,0.0 13.13290487,53.25099687,0.0</coordinates>
                </LineString>
                <LineString id="8902">
                    <coordinates>13.13290487,53.25099687,0.0 13.1328346,53.25082698,0.0 13.132822479999998,53.25078907,0.0</coordinates>
                </LineString>
                <LineString id="8904">
                    <coordinates>13.132822479999998,53.25078907,0.0 13.132815230000002,53.25077595,0.0 13.13277048,53.25073506,0.0 13.132741469999997,53.250705100000005,0.0 13.13262998,53.25067114000001,0.0 13.132459269999998,53.25062883999999,0.0 13.13227908,53.25058496999999,0.0</coordinates>
                </LineString>
                <LineString id="8906">
                    <coordinates>13.13227908,53.25058496999999,0.0 13.132186039999999,53.25055674,0.0 13.132101459999998,53.25053158,0.0 13.132053139999996,53.25051667999999,0.0 13.13203147,53.25050128,0.0 13.13201458,53.250481429999994,0.0 13.131971430000002,53.250430769999994,0.0 13.13192831,53.25038305000001,0.0 13.131864920000002,53.25031103,0.0</coordinates>
                </LineString>
                <LineString id="8908">
                    <coordinates>13.131864920000002,53.25031103,0.0 13.131739799999998,53.250160359999995,0.0</coordinates>
                </LineString>
                <LineString id="8910">
                    <coordinates>13.131739799999998,53.250160359999995,0.0 13.13165446,53.25005380999999,0.0 13.131515889999998,53.24985166999999,0.0 13.13150608,53.24975129,0.0 13.131499979999997,53.249661979999985,0.0</coordinates>
                </LineString>
                <LineString id="8912">
                    <coordinates>13.131499979999997,53.249661979999985,0.0 13.131501669999999,53.24964856999999,0.0</coordinates>
                </LineString>
                <LineString id="8914">
                    <coordinates>13.131501669999999,53.24964856999999,0.0 13.13150363,53.24962092,0.0</coordinates>
                </LineString>
                <LineString id="8916">
                    <coordinates>13.1315296,53.24933961,0.0 13.131524479999998,53.24931704999999,0.0 13.13149685,53.24927178,0.0</coordinates>
                </LineString>
                <LineString id="8918">
                    <coordinates>13.131311040000002,53.24911190000001,0.0 13.13125205,53.249081110000006,0.0 13.131206429999999,53.24905553999999,0.0 13.13112224,53.249002319999995,0.0</coordinates>
                </LineString>
                <LineString id="8920">
                    <coordinates>13.1301465,53.248348539999995,0.0 13.130127789999998,53.24831017999998,0.0</coordinates>
                </LineString>
                <LineString id="8922">
                    <coordinates>13.1301465,53.248348539999995,0.0 13.13016896,53.248380429999976,0.0</coordinates>
                </LineString>
                <LineString id="8924">
                    <coordinates>13.13016896,53.248380429999976,0.0 13.13017974,53.24839197000001,0.0 13.130216719999998,53.24842030999999,0.0 13.130263559999998,53.248455669999984,0.0 13.13029767,53.24847647,0.0 13.13032309,53.24849327,0.0</coordinates>
                </LineString>
                <LineString id="8926">
                    <coordinates>13.13032309,53.24849327,0.0 13.13037183,53.248522869999995,0.0 13.13044664,53.24857328,0.0 13.13047396,53.24859062,0.0 13.13054092,53.24863412,0.0 13.130634179999998,53.248692129999995,0.0</coordinates>
                </LineString>
                <LineString id="8928">
                    <coordinates>13.130634179999998,53.248692129999995,0.0 13.1306434,53.24869827,0.0</coordinates>
                </LineString>
                <LineString id="8930">
                    <coordinates>13.1306434,53.24869827,0.0 13.13067228,53.24871607,0.0</coordinates>
                </LineString>
                <LineString id="8932">
                    <coordinates>13.13068492,53.24872417,0.0 13.130785360000003,53.248788989999994,0.0</coordinates>
                </LineString>
                <LineString id="8934">
                    <coordinates>13.130785360000003,53.248788989999994,0.0 13.130813420000003,53.24880636000001,0.0</coordinates>
                </LineString>
                <LineString id="8936">
                    <coordinates>13.130813420000003,53.24880636000001,0.0 13.13090996,53.24886561,0.0</coordinates>
                </LineString>
                <LineString id="8938">
                    <coordinates>13.13090996,53.24886561,0.0 13.130974649999997,53.24890625999999,0.0 13.13100453,53.248924280000004,0.0 13.13109016,53.24897896000001,0.0 13.13112224,53.249002319999995,0.0</coordinates>
                </LineString>
                <LineString id="8940">
                    <coordinates>13.146158379999997,53.25568762999999,0.0 13.146033249999999,53.25567197999999,0.0</coordinates>
                </LineString>
                <LineString id="8942">
                    <coordinates>13.135555989999997,53.25266221,0.0 13.13573077,53.252711909999995,0.0 13.135802410000002,53.25273335000001,0.0</coordinates>
                </LineString>
                <LineString id="8944">
                    <coordinates>13.152532289999998,53.25709034,0.0 13.15227637,53.257046859999996,0.0 13.152120659999998,53.25702535999999,0.0 13.151929929999998,53.25699552999999,0.0 13.15168773,53.25695482,0.0 13.15168327,53.25695302999999,0.0</coordinates>
                </LineString>
                <LineString id="8946">
                    <coordinates>13.13149685,53.24927178,0.0 13.131470169999998,53.24923962,0.0 13.131438379999999,53.249206839999985,0.0 13.13139947,53.24916594999999,0.0 13.13135149,53.24914182999999,0.0 13.131311040000002,53.24911190000001,0.0</coordinates>
                </LineString>
                <LineString id="8948">
                    <coordinates>13.13325152,53.25227817,0.0 13.133351459999998,53.25229293999998,0.0 13.133534089999998,53.252319859999986,0.0 13.133549430000002,53.252321970000004,0.0</coordinates>
                </LineString>
                <LineString id="8950">
                    <coordinates>13.14821781,53.25582363999999,0.0 13.14763549,53.25577493000001,0.0 13.14760858,53.25577182,0.0 13.147554829999999,53.255762880000006,0.0 13.14746742,53.25575598999999,0.0</coordinates>
                </LineString>
                <LineString id="8952">
                    <coordinates>13.135430419999999,53.252626559999996,0.0 13.135548069999999,53.25265993,0.0 13.135555989999997,53.25266221,0.0</coordinates>
                </LineString>
                <LineString id="8954">
                    <coordinates>13.130002930000002,53.24829959,0.0 13.128947229999998,53.248219090000006,0.0</coordinates>
                </LineString>
                <LineString id="8956">
                    <coordinates>13.130127789999998,53.24831017999998,0.0 13.130127490000001,53.248309379999995,0.0</coordinates>
                </LineString>
                <LineString id="8958">
                    <coordinates>13.130127490000001,53.248309379999995,0.0 13.130017489999998,53.24830074999999,0.0</coordinates>
                </LineString>
                <LineString id="8960">
                    <coordinates>13.130017489999998,53.24830074999999,0.0 13.130002930000002,53.24829959,0.0</coordinates>
                </LineString>
                <LineString id="8962">
                    <coordinates>13.13067228,53.24871607,0.0 13.13068492,53.24872417,0.0</coordinates>
                </LineString>
                <LineString id="8964">
                    <coordinates>13.0467823,53.21812014,0.0 13.047095569999998,53.21809885,0.0</coordinates>
                </LineString>
                <LineString id="8966">
                    <coordinates>13.047694810000001,53.21805661,0.0 13.04751874,53.21807035,0.0</coordinates>
                </LineString>
                <LineString id="8968">
                    <coordinates>13.041357699999997,53.21849188999998,0.0 13.04205155,53.21845215999999,0.0</coordinates>
                </LineString>
                <LineString id="8970">
                    <coordinates>13.041256779999998,53.21849835999999,0.0 13.041357699999997,53.21849188999998,0.0</coordinates>
                </LineString>
                <LineString id="8972">
                    <coordinates>13.041232269999998,53.21849994,0.0 13.041256779999998,53.21849835999999,0.0</coordinates>
                </LineString>
                <LineString id="8974">
                    <coordinates>13.047812070000003,53.21804868,0.0 13.04796486,53.21803752000001,0.0</coordinates>
                </LineString>
                <LineString id="8976">
                    <coordinates>13.046595730000002,53.21813414,0.0 13.046639269999998,53.21813186999999,0.0</coordinates>
                </LineString>
                <LineString id="8978">
                    <coordinates>13.047353830000002,53.21808064,0.0 13.047436599999997,53.21807631,0.0</coordinates>
                </LineString>
                <LineString id="8980">
                    <coordinates>13.046639269999998,53.21813186999999,0.0 13.0467823,53.21812014,0.0</coordinates>
                </LineString>
                <LineString id="8982">
                    <coordinates>13.048170889999998,53.21802067999999,0.0 13.04824064,53.21801563999999,0.0</coordinates>
                </LineString>
                <LineString id="8984">
                    <coordinates>13.047436599999997,53.21807631,0.0 13.04751874,53.21807035,0.0</coordinates>
                </LineString>
                <LineString id="8986">
                    <coordinates>13.047812070000003,53.21804868,0.0 13.047694810000001,53.21805661,0.0</coordinates>
                </LineString>
                <LineString id="8988">
                    <coordinates>12.963316760000001,53.2806808,0.0 12.963395239999999,53.28068411999998,0.0 12.963855370000001,53.28065364,0.0</coordinates>
                </LineString>
                <LineString id="8990">
                    <coordinates>12.963824410000003,53.27715149,0.0 12.96374601,53.277218729999994,0.0 12.963560649999996,53.27753231999999,0.0</coordinates>
                </LineString>
                <LineString id="8992">
                    <coordinates>12.9638479,53.27712883999999,0.0 12.96392231,53.27710907999999,0.0 12.96396062,53.277101120000005,0.0 12.96408623,53.27708422999999,0.0 12.964201559999996,53.27707878999999,0.0</coordinates>
                </LineString>
                <LineString id="8994">
                    <coordinates>12.96409863,53.277103620000005,0.0 12.964201559999996,53.27707878999999,0.0</coordinates>
                </LineString>
                <LineString id="8996">
                    <coordinates>12.963824410000003,53.27715149,0.0 12.9638479,53.27712883999999,0.0</coordinates>
                </LineString>
                <LineString id="8998">
                    <coordinates>12.96409863,53.277103620000005,0.0 12.964135899999999,53.27712517999999,0.0 12.96425119,53.27731293,0.0</coordinates>
                </LineString>
                <LineString id="9000">
                    <coordinates>12.96344006,53.27781718999999,0.0 12.96327578,53.27815974000001,0.0</coordinates>
                </LineString>
                <LineString id="9002">
                    <coordinates>12.96345254,53.277747829999996,0.0 12.96344006,53.27781718999999,0.0</coordinates>
                </LineString>
                <LineString id="9004">
                    <coordinates>12.963560649999996,53.27753231999999,0.0 12.963509609999997,53.277617140000004,0.0 12.96345254,53.277747829999996,0.0</coordinates>
                </LineString>
                <LineString id="9006">
                    <coordinates>12.963234699999997,53.280679109999994,0.0 12.963316760000001,53.2806808,0.0</coordinates>
                </LineString>
                <LineString id="9008">
                    <coordinates>12.963186079999998,53.28023632,0.0 12.963178999999998,53.28027633999999,0.0 12.96318039,53.28036758999999,0.0 12.963221159999998,53.280665629999994,0.0 12.963234699999997,53.280679109999994,0.0</coordinates>
                </LineString>
                <LineString id="9010">
                    <coordinates>12.96319134,53.280220299999996,0.0 12.963186079999998,53.28023632,0.0</coordinates>
                </LineString>
                <LineString id="9012">
                    <coordinates>12.96316139,53.27975422,0.0 12.96316072,53.27982017999999,0.0 12.963170959999998,53.279992939999985,0.0 12.9631895,53.280199149999994,0.0 12.96319134,53.280220299999996,0.0</coordinates>
                </LineString>
                <LineString id="9014">
                    <coordinates>12.963158369999999,53.2797015,0.0 12.96316139,53.27975422,0.0</coordinates>
                </LineString>
                <LineString id="9016">
                    <coordinates>12.96327578,53.27815974000001,0.0 12.96327461,53.278301539999994,0.0 12.96313823,53.27855049999999,0.0 12.96313337,53.278589239999995,0.0 12.96313364,53.27905357,0.0 12.96315118,53.27959934999999,0.0 12.963158369999999,53.2797015,0.0</coordinates>
                </LineString>
                <LineString id="9018">
                    <coordinates>12.965337219999999,53.28031605999999,0.0 12.965409059999999,53.280292429999996,0.0 12.96567125,53.280198809999995,0.0 12.96586758,53.28009168999999,0.0</coordinates>
                </LineString>
                <LineString id="9020">
                    <coordinates>12.963855370000001,53.28065364,0.0 12.964398729999997,53.28055608999999,0.0 12.96454487,53.28052019999999,0.0 12.96468607,53.280487849999986,0.0 12.96487674,53.28044145,0.0 12.96503987,53.280401499999996,0.0 12.965337219999999,53.28031605999999,0.0</coordinates>
                </LineString>
                <LineString id="9022">
                    <coordinates>12.96632906,53.279915409999994,0.0 12.96663816,53.27974442,0.0 12.96683074,53.27963242,0.0</coordinates>
                </LineString>
                <LineString id="9024">
                    <coordinates>12.96586758,53.28009168999999,0.0 12.966187710000002,53.279977450000004,0.0</coordinates>
                </LineString>
                <LineString id="9026">
                    <coordinates>12.966734770000002,53.28036418999999,0.0 12.967021249999998,53.28023305,0.0</coordinates>
                </LineString>
                <LineString id="9028">
                    <coordinates>12.966187710000002,53.279977450000004,0.0 12.966398639999998,53.28017842999999,0.0 12.96654418,53.28014666,0.0 12.966564619999998,53.28017966,0.0 12.966716690000002,53.2803725,0.0</coordinates>
                </LineString>
                <LineString id="9030">
                    <coordinates>12.966716690000002,53.2803725,0.0 12.966734770000002,53.28036418999999,0.0</coordinates>
                </LineString>
                <LineString id="9032">
                    <coordinates>12.96619836,53.27997380000001,0.0 12.96626915,53.27994948,0.0 12.96628557,53.27994051,0.0</coordinates>
                </LineString>
                <LineString id="9034">
                    <coordinates>12.96683074,53.27963242,0.0 12.966944690000002,53.27957552,0.0 12.96714103,53.27949444,0.0 12.96720567,53.27946991,0.0 12.967240749999998,53.27946335999999,0.0 12.967487820000002,53.27936752000001,0.0 12.967580800000002,53.27933114999999,0.0 12.96772622,53.279274400000006,0.0 12.967959159999998,53.27918441999999,0.0 12.968208269999998,53.27908813,0.0</coordinates>
                </LineString>
                <LineString id="9036">
                    <coordinates>12.966187710000002,53.279977450000004,0.0 12.96619836,53.27997380000001,0.0</coordinates>
                </LineString>
                <LineString id="9038">
                    <coordinates>12.96628557,53.27994051,0.0 12.96631323,53.279924169999994,0.0 12.96632906,53.279915409999994,0.0</coordinates>
                </LineString>
                <LineString id="9040">
                    <coordinates>12.96425516,53.27732134,0.0 12.96425119,53.27731293,0.0</coordinates>
                </LineString>
                <LineString id="9042">
                    <coordinates>12.96998446,53.27633689,0.0 12.97022993,53.27623045,0.0</coordinates>
                </LineString>
                <LineString id="9044">
                    <coordinates>12.965248809999999,53.27758017,0.0 12.96558313,53.27748837999999,0.0 12.96606127,53.277401350000005,0.0 12.96664713,53.27729547,0.0 12.96725205,53.27719341,0.0</coordinates>
                </LineString>
                <LineString id="9046">
                    <coordinates>12.96725205,53.27719341,0.0 12.967335010000001,53.27717947,0.0 12.968185159999999,53.277038010000005,0.0 12.9691375,53.276841929999996,0.0 12.969679380000002,53.276653239999995,0.0</coordinates>
                </LineString>
                <LineString id="9048">
                    <coordinates>12.96429087,53.27764582999999,0.0 12.964168629999998,53.27745518,0.0</coordinates>
                </LineString>
                <LineString id="9050">
                    <coordinates>12.964257529999998,53.27732618,0.0 12.964168629999998,53.27745518,0.0</coordinates>
                </LineString>
                <LineString id="9052">
                    <coordinates>12.964257529999998,53.27732618,0.0 12.96425516,53.27732134,0.0</coordinates>
                </LineString>
                <LineString id="9054">
                    <coordinates>12.97022993,53.27623045,0.0 12.970261349999998,53.27620802,0.0 12.970434779999998,53.27617478,0.0 12.970631979999999,53.27613701,0.0 12.97094086,53.27604778999999,0.0 12.971060579999998,53.27591303999999,0.0</coordinates>
                </LineString>
                <LineString id="9056">
                    <coordinates>12.969679380000002,53.276653239999995,0.0 12.96998446,53.27633689,0.0</coordinates>
                </LineString>
                <LineString id="9058">
                    <coordinates>12.965016080000002,53.27764442,0.0 12.965166839999998,53.27760278,0.0 12.965248809999999,53.27758017,0.0</coordinates>
                </LineString>
                <LineString id="9060">
                    <coordinates>12.964564250000002,53.27776899999999,0.0 12.964722350000002,53.27772604,0.0 12.965016080000002,53.27764442,0.0</coordinates>
                </LineString>
                <LineString id="9062">
                    <coordinates>12.96429087,53.27764582999999,0.0 12.964564250000002,53.27776899999999,0.0</coordinates>
                </LineString>
                <LineString id="9064">
                    <coordinates>13.040110989999999,53.19317312,0.0 13.039830379999998,53.19310177999999,0.0 13.039619129999998,53.19304500999999,0.0 13.039273990000002,53.192961960000005,0.0 13.03898553,53.19289439,0.0 13.038698819999999,53.19282499999999,0.0 13.03841033,53.19275661000001,0.0 13.038389789999998,53.192747329999996,0.0 13.03827971,53.192730319999995,0.0 13.038226359999998,53.19272337999999,0.0</coordinates>
                </LineString>
                <LineString id="9066">
                    <coordinates>13.03784256,53.19266874,0.0 13.037496379999999,53.19267537999999,0.0</coordinates>
                </LineString>
                <LineString id="9068">
                    <coordinates>13.038226359999998,53.19272337999999,0.0 13.038108409999998,53.192708059999994,0.0 13.03784256,53.19266874,0.0</coordinates>
                </LineString>
                <LineString id="9070">
                    <coordinates>13.037496379999999,53.19267537999999,0.0 13.03711134,53.19262571,0.0</coordinates>
                </LineString>
                <LineString id="9072">
                    <coordinates>13.10544169,53.193777479999994,0.0 13.10460762,53.19378351,0.0</coordinates>
                </LineString>
                <LineString id="9074">
                    <coordinates>13.10659577,53.19377959999999,0.0 13.106521759999996,53.19378121999998,0.0</coordinates>
                </LineString>
                <LineString id="9076">
                    <coordinates>13.133685019999996,53.190382559999996,0.0 13.13366806,53.19040884999999,0.0 13.133195769999999,53.19044692999999,0.0 13.13194553,53.190544509999995,0.0 13.130908499999999,53.190621379999996,0.0 13.13088739,53.19062506,0.0 13.12987727,53.19070129,0.0 13.1289494,53.19076926,0.0 13.1288301,53.19077307999999,0.0 13.128579229999998,53.19079419999999,0.0 13.12796494,53.190846549999996,0.0 13.127954059999999,53.19084214,0.0 13.12775634,53.19086208,0.0 13.12527301,53.191129409999995,0.0 13.122331690000001,53.19144341,0.0 13.120486329999999,53.19164044,0.0 13.11906424,53.19180251,0.0 13.11778972,53.19195262,0.0 13.117603179999998,53.191972789999994,0.0 13.11731034,53.19200157,0.0 13.11705051,53.1920224,0.0 13.11665298,53.192044179999996,0.0 13.1161931,53.19205992999999,0.0 13.11420421,53.19213443,0.0</coordinates>
                </LineString>
                <LineString id="9078">
                    <coordinates>13.09036172,53.18807374,0.0 13.09037861,53.18812530999998,0.0</coordinates>
                </LineString>
                <LineString id="9080">
                    <coordinates>13.090639969999998,53.188789939999985,0.0 13.09075561,53.18896972,0.0</coordinates>
                </LineString>
                <LineString id="9082">
                    <coordinates>13.08995878,53.187748539999994,0.0 13.089976949999999,53.187749479999994,0.0 13.090038760000002,53.18777721,0.0 13.090087559999999,53.18780311999999,0.0 13.090129079999997,53.187830709999986,0.0</coordinates>
                </LineString>
                <LineString id="9084">
                    <coordinates>13.08835328,53.18710328,0.0 13.088690729999996,53.18697415999999,0.0 13.088714730000001,53.186974930000005,0.0</coordinates>
                </LineString>
                <LineString id="9086">
                    <coordinates>13.082769359999999,53.187852649999996,0.0 13.08245174,53.18786683999999,0.0 13.082185410000001,53.18787569,0.0 13.08192851,53.18788129,0.0 13.08180264,53.18788397,0.0</coordinates>
                </LineString>
                <LineString id="9088">
                    <coordinates>13.10688103,53.19377341,0.0 13.10659577,53.19377959999999,0.0</coordinates>
                </LineString>
                <LineString id="9090">
                    <coordinates>13.108054349999996,53.19358308,0.0 13.107848179999998,53.193634759999995,0.0 13.10765662,53.19368087,0.0 13.10744845,53.193722609999995,0.0 13.107305970000002,53.19374606999999,0.0 13.10713216,53.19376548,0.0 13.10688103,53.19377341,0.0</coordinates>
                </LineString>
                <LineString id="9092">
                    <coordinates>13.106521759999996,53.19378121999998,0.0 13.10638311,53.19378076,0.0</coordinates>
                </LineString>
                <LineString id="9094">
                    <coordinates>13.10638311,53.19378076,0.0 13.105476839999998,53.193777589999996,0.0</coordinates>
                </LineString>
                <LineString id="9096">
                    <coordinates>13.105476839999998,53.193777589999996,0.0 13.10544169,53.193777479999994,0.0</coordinates>
                </LineString>
                <LineString id="9098">
                    <coordinates>13.045833460000003,53.1944298,0.0 13.04580254,53.19442943,0.0</coordinates>
                </LineString>
                <LineString id="9100">
                    <coordinates>13.04475238,53.19442848999999,0.0 13.04449601,53.19445043,0.0 13.044197959999998,53.19450385999999,0.0</coordinates>
                </LineString>
                <LineString id="9102">
                    <coordinates>13.04580254,53.19442943,0.0 13.045128259999998,53.19442817000001,0.0 13.0448557,53.19442764,0.0 13.04475238,53.19442848999999,0.0</coordinates>
                </LineString>
                <LineString id="9104">
                    <coordinates>13.04366759,53.194598909999996,0.0 13.0435522,53.19454981,0.0</coordinates>
                </LineString>
                <LineString id="9106">
                    <coordinates>13.044197959999998,53.19450385999999,0.0 13.044040419999998,53.19453072999999,0.0 13.04392573,53.19455023,0.0 13.043837620000001,53.19456355999999,0.0 13.04375618,53.19456801999999,0.0 13.04366759,53.194598909999996,0.0</coordinates>
                </LineString>
                <LineString id="9108">
                    <coordinates>13.0435522,53.19454981,0.0 13.043477710000001,53.194512689999996,0.0 13.0432323,53.19440234999999,0.0</coordinates>
                </LineString>
                <LineString id="9110">
                    <coordinates>13.0432323,53.19440234999999,0.0 13.04321326,53.19439306,0.0</coordinates>
                </LineString>
                <LineString id="9112">
                    <coordinates>13.0428238,53.19421593,0.0 13.04276838,53.19418991999999,0.0</coordinates>
                </LineString>
                <LineString id="9114">
                    <coordinates>13.042562769999998,53.194096359999996,0.0 13.04254994,53.19409069999999,0.0</coordinates>
                </LineString>
                <LineString id="9116">
                    <coordinates>13.04321326,53.19439306,0.0 13.0428238,53.19421593,0.0</coordinates>
                </LineString>
                <LineString id="9118">
                    <coordinates>13.04275902,53.194185489999995,0.0 13.04268925,53.194152839999994,0.0</coordinates>
                </LineString>
                <LineString id="9120">
                    <coordinates>13.04254994,53.19409069999999,0.0 13.04231557,53.19398116999999,0.0</coordinates>
                </LineString>
                <LineString id="9122">
                    <coordinates>13.04276838,53.19418991999999,0.0 13.04275902,53.194185489999995,0.0</coordinates>
                </LineString>
                <LineString id="9124">
                    <coordinates>13.096810489999998,53.19455653000001,0.0 13.097015109999997,53.19450345,0.0 13.097068689999999,53.19442355999999,0.0 13.09754929,53.19438579999999,0.0 13.09802509,53.19428459000001,0.0 13.098785699999999,53.19422269,0.0 13.099498890000001,53.1941681,0.0 13.10029959,53.19411766,0.0 13.101610559999997,53.19403858,0.0 13.102368690000002,53.19394149,0.0 13.103074,53.1938549,0.0 13.10360472,53.193811069999995,0.0 13.10410722,53.19378681,0.0 13.10460762,53.19378351,0.0</coordinates>
                </LineString>
                <LineString id="9126">
                    <coordinates>13.095318689999997,53.19409412999999,0.0 13.09545569,53.19416656,0.0 13.09574774,53.19426981999999,0.0</coordinates>
                </LineString>
                <LineString id="9128">
                    <coordinates>13.09574774,53.19426981999999,0.0 13.09628655,53.19446065,0.0 13.09634128,53.19452363,0.0 13.0964311,53.19458607999999,0.0 13.09650934,53.19463457,0.0</coordinates>
                </LineString>
                <LineString id="9130">
                    <coordinates>13.09076906,53.18900185,0.0 13.090778799999999,53.189025439999995,0.0 13.090831219999998,53.18917855999999,0.0</coordinates>
                </LineString>
                <LineString id="9132">
                    <coordinates>13.090831219999998,53.18917855999999,0.0 13.090903979999997,53.1893909,0.0</coordinates>
                </LineString>
                <LineString id="9134">
                    <coordinates>13.0850066,53.18766127,0.0 13.08452304,53.18771645,0.0 13.08430778,53.187744999999985,0.0 13.08401964,53.18777594000001,0.0 13.083755260000002,53.18780006,0.0 13.083579369999999,53.187815409999985,0.0 13.083375609999997,53.18782531999999,0.0 13.08315993,53.18783370999999,0.0 13.082769359999999,53.187852649999996,0.0</coordinates>
                </LineString>
                <LineString id="9136">
                    <coordinates>13.046356809999999,53.194433659999994,0.0 13.04593321,53.194422759999995,0.0 13.04590964,53.1944307,0.0 13.045833460000003,53.1944298,0.0</coordinates>
                </LineString>
                <LineString id="9138">
                    <coordinates>13.05547984,53.193360309999996,0.0 13.054679750000002,53.19358462,0.0 13.054273380000001,53.19368764,0.0 13.054222829999999,53.193689679999984,0.0 13.053807540000001,53.1938016,0.0 13.05346161,53.19392489999999,0.0 13.053246340000001,53.19400379999998,0.0 13.05310057,53.19405338,0.0</coordinates>
                </LineString>
                <LineString id="9140">
                    <coordinates>13.055856639999998,53.19329760999999,0.0 13.055554039999999,53.19334761999999,0.0 13.05547984,53.193360309999996,0.0</coordinates>
                </LineString>
                <LineString id="9142">
                    <coordinates>13.057423949999999,53.19318663000001,0.0 13.057029269999997,53.19320759999999,0.0 13.056687840000002,53.19322812,0.0 13.055947789999998,53.19328251999999,0.0 13.055856639999998,53.19329760999999,0.0</coordinates>
                </LineString>
                <LineString id="9144">
                    <coordinates>13.076393139999999,53.188288699999994,0.0 13.076224200000002,53.188344179999994,0.0 13.0758645,53.18850991,0.0 13.07563285,53.18862295999999,0.0 13.075371279999999,53.18877009999999,0.0 13.075236990000002,53.188839689999995,0.0 13.075104019999998,53.188899600000006,0.0 13.074876049999999,53.18900212999998,0.0 13.07484041,53.18900812999999,0.0 13.074487129999996,53.18915766999999,0.0 13.074310489999998,53.189232390000015,0.0 13.074086279999998,53.18931239999999,0.0 13.073968759999998,53.189353659999995,0.0 13.07362287,53.18946766,0.0 13.073297980000001,53.189565400000006,0.0 13.07292402,53.18967646,0.0 13.07249722,53.189798429999996,0.0 13.071619939999998,53.190052910000006,0.0 13.071282949999999,53.190150889999984,0.0</coordinates>
                </LineString>
                <LineString id="9146">
                    <coordinates>13.04231557,53.19398116999999,0.0 13.042216059999998,53.19394805,0.0 13.04199808,53.193875389999995,0.0</coordinates>
                </LineString>
                <LineString id="9148">
                    <coordinates>13.04199808,53.193875389999995,0.0 13.041941389999996,53.19385964999999,0.0 13.041789409999998,53.193792929999994,0.0 13.041757870000001,53.19378561999999,0.0 13.041232750000002,53.19357279,0.0 13.04105892,53.19350526000001,0.0</coordinates>
                </LineString>
                <LineString id="9150">
                    <coordinates>13.040275709999998,53.193227670000006,0.0 13.040237309999997,53.193214569999995,0.0 13.040110989999999,53.19317312,0.0</coordinates>
                </LineString>
                <LineString id="9152">
                    <coordinates>13.04105892,53.19350526000001,0.0 13.040703109999999,53.19336657000001,0.0 13.040650980000002,53.193348099999994,0.0 13.040374659999996,53.19326159999999,0.0 13.040275709999998,53.193227670000006,0.0</coordinates>
                </LineString>
                <LineString id="9154">
                    <coordinates>13.040110989999999,53.19317312,0.0 13.039830379999998,53.19310177999999,0.0 13.039619129999998,53.19304500999999,0.0 13.039273990000002,53.192961960000005,0.0 13.03898553,53.19289439,0.0 13.038698819999999,53.19282499999999,0.0 13.03841033,53.19275661000001,0.0 13.038389789999998,53.192747329999996,0.0 13.03827971,53.192730319999995,0.0 13.038226359999998,53.19272337999999,0.0</coordinates>
                </LineString>
                <LineString id="9156">
                    <coordinates>13.09037861,53.18812530999998,0.0 13.09038109,53.18813479999999,0.0 13.09039278,53.18819182999998,0.0</coordinates>
                </LineString>
                <LineString id="9158">
                    <coordinates>13.09075561,53.18896972,0.0 13.09076906,53.18900185,0.0</coordinates>
                </LineString>
                <LineString id="9160">
                    <coordinates>13.06960518,53.19056874999999,0.0 13.069397370000003,53.1906277,0.0 13.068960190000002,53.19076409,0.0 13.068630499999998,53.19089395999999,0.0 13.06845523,53.19097101,0.0 13.06826843,53.191067460000006,0.0 13.0682013,53.19110264999998,0.0 13.068055439999998,53.19116673,0.0</coordinates>
                </LineString>
                <LineString id="9162">
                    <coordinates>13.068055439999998,53.19116673,0.0 13.06788639,53.19124111000001,0.0 13.067481929999996,53.191418999999996,0.0 13.066711479999999,53.191774409999994,0.0</coordinates>
                </LineString>
                <LineString id="9164">
                    <coordinates>13.08786532,53.18735004,0.0 13.087250839999998,53.187444419999984,0.0 13.08709014,53.18746927000001,0.0 13.08649441,53.187541780000004,0.0 13.08604207,53.187598439999995,0.0 13.085027070000002,53.18772556,0.0 13.0850066,53.18766127,0.0</coordinates>
                </LineString>
                <LineString id="9166">
                    <coordinates>13.071282949999999,53.190150889999984,0.0 13.071186619999999,53.19017887,0.0 13.070843859999998,53.190255789999995,0.0 13.070142789999997,53.19041622999999,0.0 13.06960518,53.19056874999999,0.0</coordinates>
                </LineString>
                <LineString id="9168">
                    <coordinates>13.094403150000002,53.193500179999994,0.0 13.094440880000002,53.19352335,0.0</coordinates>
                </LineString>
                <LineString id="9170">
                    <coordinates>13.094493579999996,53.193559809999996,0.0 13.094984190000002,53.19389953000001,0.0 13.095181709999999,53.19402169999999,0.0 13.095318689999997,53.19409412999999,0.0</coordinates>
                </LineString>
                <LineString id="9172">
                    <coordinates>13.094440880000002,53.19352335,0.0 13.094493579999996,53.193559809999996,0.0</coordinates>
                </LineString>
                <LineString id="9174">
                    <coordinates>13.090903979999997,53.1893909,0.0 13.09093068,53.18946878999999,0.0 13.09107797,53.189602840000006,0.0 13.09184301,53.190621230000005,0.0 13.093007160000003,53.19153094,0.0 13.093249559999999,53.19184884999999,0.0 13.0934939,53.192375,0.0 13.093751879999997,53.192821929999994,0.0 13.09391361,53.19304858,0.0 13.094044120000001,53.19319604999999,0.0 13.09420663,53.19337972999999,0.0 13.094403150000002,53.193500179999994,0.0</coordinates>
                </LineString>
                <LineString id="9176">
                    <coordinates>13.090436849999998,53.188456519999995,0.0 13.090439619999998,53.188463819999996,0.0 13.09043994,53.188465449999995,0.0</coordinates>
                </LineString>
                <LineString id="9178">
                    <coordinates>13.09043994,53.188465449999995,0.0 13.090445859999999,53.188494250000005,0.0 13.090602940000002,53.18873225000001,0.0 13.090634810000001,53.18878193999999,0.0</coordinates>
                </LineString>
                <LineString id="9180">
                    <coordinates>13.05832523,53.193174909999996,0.0 13.057754059999999,53.19323709999999,0.0 13.057604420000002,53.193244570000005,0.0 13.057423949999999,53.19318663000001,0.0</coordinates>
                </LineString>
                <LineString id="9182">
                    <coordinates>13.061351079999998,53.192894929999994,0.0 13.06081762,53.19294916,0.0 13.060789689999998,53.192947059999995,0.0 13.059514819999999,53.19304535999999,0.0</coordinates>
                </LineString>
                <LineString id="9184">
                    <coordinates>13.059514819999999,53.19304535999999,0.0 13.05832523,53.193174909999996,0.0</coordinates>
                </LineString>
                <LineString id="9186">
                    <coordinates>13.09039278,53.18819182999998,0.0 13.09039453,53.18820051000001,0.0 13.09039356,53.18826570999999,0.0 13.090402200000002,53.18833143,0.0 13.090413609999999,53.18839357999998,0.0 13.090436849999998,53.188456519999995,0.0</coordinates>
                </LineString>
                <LineString id="9188">
                    <coordinates>13.090634810000001,53.18878193999999,0.0 13.090639969999998,53.188789939999985,0.0</coordinates>
                </LineString>
                <LineString id="9190">
                    <coordinates>13.08180264,53.18788397,0.0 13.080985779999999,53.18787616,0.0 13.07945077,53.18785951999999,0.0 13.07879383,53.187853399999995,0.0 13.07875216,53.187853780000005,0.0</coordinates>
                </LineString>
                <LineString id="9192">
                    <coordinates>13.078020689999999,53.18787846,0.0 13.07773917,53.18789843,0.0 13.077335519999998,53.18796887,0.0 13.076796800000002,53.18806705000001,0.0 13.076831420000001,53.18814561,0.0 13.07659376,53.18822256,0.0 13.076393139999999,53.188288699999994,0.0</coordinates>
                </LineString>
                <LineString id="9194">
                    <coordinates>13.07875216,53.187853780000005,0.0 13.078481859999998,53.187856229999994,0.0 13.07825112,53.187866449999994,0.0 13.078064119999999,53.18787535999999,0.0 13.078020689999999,53.18787846,0.0</coordinates>
                </LineString>
                <LineString id="9196">
                    <coordinates>13.066711479999999,53.191774409999994,0.0 13.06652312,53.19185956999999,0.0 13.06578931,53.19218324999999,0.0 13.065429219999999,53.192327709999994,0.0 13.065359139999998,53.19234199999998,0.0 13.065131079999997,53.192373679999996,0.0 13.064995979999999,53.19239492,0.0 13.064357289999998,53.19236896999999,0.0 13.064301529999998,53.19236943999999,0.0 13.06395484,53.192391669999985,0.0 13.063764979999998,53.19240453999999,0.0 13.063398990000001,53.1924462,0.0 13.063180069999998,53.19247536,0.0 13.062985330000002,53.19250512000001,0.0 13.06280116,53.192541999999996,0.0 13.06245571,53.19261881,0.0 13.062339339999996,53.19264556999999,0.0 13.0621095,53.192723830000006,0.0 13.061812000000002,53.19280427999998,0.0 13.061670400000002,53.19283755,0.0 13.061351079999998,53.192894929999994,0.0</coordinates>
                </LineString>
                <LineString id="9198">
                    <coordinates>13.08783917,53.18734892999999,0.0 13.08786532,53.18735004,0.0</coordinates>
                </LineString>
                <LineString id="9200">
                    <coordinates>13.088090849999999,53.187175939999996,0.0 13.08808924,53.187176410000006,0.0 13.08779669,53.187264379999995,0.0 13.08783917,53.18734892999999,0.0</coordinates>
                </LineString>
                <LineString id="9202">
                    <coordinates>13.08835328,53.18710328,0.0 13.088090849999999,53.187175939999996,0.0</coordinates>
                </LineString>
                <LineString id="9204">
                    <coordinates>13.089388489999997,53.187559959999994,0.0 13.08995878,53.187748539999994,0.0</coordinates>
                </LineString>
                <LineString id="9206">
                    <coordinates>13.088714730000001,53.186974930000005,0.0 13.08872825,53.1869729,0.0 13.08891139,53.18709947,0.0 13.08927276,53.18744670000001,0.0 13.089388489999997,53.187559959999994,0.0</coordinates>
                </LineString>
                <LineString id="9208">
                    <coordinates>13.05310057,53.19405338,0.0 13.05273258,53.19417829999999,0.0 13.052287430000002,53.19433061,0.0 13.051872069999998,53.19444007,0.0 13.051647199999998,53.19450371999999,0.0 13.05141245,53.19453943999999,0.0 13.051295689999998,53.19455807,0.0 13.050965169999998,53.194596929999996,0.0 13.05046203,53.19465405999999,0.0 13.050231859999998,53.194661649999986,0.0 13.050061679999997,53.194668639999996,0.0 13.04983011,53.19466742,0.0 13.04946397,53.19466397,0.0 13.0490282,53.19464517,0.0 13.04866034,53.19462570999999,0.0 13.047890899999999,53.19457022999999,0.0 13.04735461,53.19452011,0.0 13.046356809999999,53.194433659999994,0.0</coordinates>
                </LineString>
                <LineString id="9210">
                    <coordinates>13.04268925,53.194152839999994,0.0 13.042562769999998,53.194096359999996,0.0</coordinates>
                </LineString>
                <LineString id="9212">
                    <coordinates>13.090129079999997,53.187830709999986,0.0 13.090181949999998,53.18785818999999,0.0 13.09023257,53.18789164999999,0.0 13.090270680000001,53.187920599999984,0.0 13.090302120000002,53.18795512,0.0 13.090327299999998,53.187993509999984,0.0 13.09034487,53.18802216,0.0 13.09036172,53.18807374,0.0</coordinates>
                </LineString>
                <LineString id="9214">
                    <coordinates>13.10807257,53.1935782,0.0 13.108054349999996,53.19358308,0.0</coordinates>
                </LineString>
                <LineString id="9216">
                    <coordinates>13.11420421,53.19213443,0.0 13.11298483,53.19217567,0.0 13.112880329999996,53.19218101999999,0.0 13.112803340000001,53.19218720999999,0.0 13.11273561,53.192197779999994,0.0 13.112659009999998,53.19221614,0.0 13.112069359999998,53.19237634999999,0.0 13.11138303,53.19256295000001,0.0 13.11074837,53.19275802000001,0.0 13.109335350000002,53.19318717,0.0 13.109273259999998,53.193199889999995,0.0 13.108575549999998,53.193433219999996,0.0 13.10828585,53.19352111,0.0 13.10807257,53.1935782,0.0</coordinates>
                </LineString>
                <LineString id="9218">
                    <coordinates>13.09662638,53.19460424000001,0.0 13.096810489999998,53.19455653000001,0.0</coordinates>
                </LineString>
                <LineString id="9220">
                    <coordinates>13.09650934,53.19463457,0.0 13.09662638,53.19460424000001,0.0</coordinates>
                </LineString>
                <LineString id="9222">
                    <coordinates>13.047353830000002,53.21808064,0.0 13.047303699999997,53.218084659999995,0.0</coordinates>
                </LineString>
                <LineString id="9224">
                    <coordinates>13.0482092,53.2179101,0.0 13.048232070000001,53.21789451,0.0</coordinates>
                </LineString>
                <LineString id="9226">
                    <coordinates>13.04796486,53.21803752000001,0.0 13.048170889999998,53.21802067999999,0.0</coordinates>
                </LineString>
                <LineString id="9228">
                    <coordinates>13.048215199999998,53.21793035,0.0 13.0482092,53.2179101,0.0</coordinates>
                </LineString>
                <LineString id="9230">
                    <coordinates>13.06291105,53.21874052,0.0 13.06294759,53.21874171,0.0</coordinates>
                </LineString>
                <LineString id="9232">
                    <coordinates>13.06294759,53.21874171,0.0 13.06293451,53.21868587,0.0 13.06311125,53.21866819000001,0.0 13.06340534,53.21864251000001,0.0</coordinates>
                </LineString>
                <LineString id="9234">
                    <coordinates>13.04229104,53.21843476,0.0 13.04298396,53.218383189999976,0.0</coordinates>
                </LineString>
                <LineString id="9236">
                    <coordinates>13.04298396,53.218383189999976,0.0 13.04305978,53.21837748,0.0</coordinates>
                </LineString>
                <LineString id="9238">
                    <coordinates>13.04305978,53.21837748,0.0 13.043110330000001,53.21837335000001,0.0</coordinates>
                </LineString>
                <LineString id="9240">
                    <coordinates>13.043691349999998,53.218339839999985,0.0 13.043734940000002,53.21833086,0.0 13.043798779999998,53.218326399999995,0.0</coordinates>
                </LineString>
                <LineString id="9242">
                    <coordinates>13.043819179999998,53.21832491999998,0.0 13.044363740000001,53.21828629,0.0</coordinates>
                </LineString>
                <LineString id="9244">
                    <coordinates>13.043798779999998,53.218326399999995,0.0 13.043819179999998,53.21832491999998,0.0</coordinates>
                </LineString>
                <LineString id="9246">
                    <coordinates>13.043516569999998,53.218352679999995,0.0 13.043691349999998,53.218339839999985,0.0</coordinates>
                </LineString>
                <LineString id="9248">
                    <coordinates>13.04346292,53.21835142999999,0.0 13.043479639999997,53.21835544999999,0.0 13.043516569999998,53.218352679999995,0.0</coordinates>
                </LineString>
                <LineString id="9250">
                    <coordinates>13.044363740000001,53.21828629,0.0 13.044529620000002,53.21827548000001,0.0</coordinates>
                </LineString>
                <LineString id="9252">
                    <coordinates>13.044529620000002,53.21827548000001,0.0 13.04455444,53.21827387999999,0.0</coordinates>
                </LineString>
                <LineString id="9254">
                    <coordinates>13.04455444,53.21827387999999,0.0 13.04461085,53.2182684,0.0 13.04470505,53.21826237999999,0.0</coordinates>
                </LineString>
                <LineString id="9256">
                    <coordinates>13.04470505,53.21826237999999,0.0 13.044954430000002,53.21824743,0.0 13.045090610000003,53.218240699999996,0.0 13.045202860000002,53.21823280000001,0.0</coordinates>
                </LineString>
                <LineString id="9258">
                    <coordinates>13.045202860000002,53.21823280000001,0.0 13.04524774,53.21822929,0.0</coordinates>
                </LineString>
                <LineString id="9260">
                    <coordinates>13.04524774,53.21822929,0.0 13.045388549999998,53.21822116999999,0.0</coordinates>
                </LineString>
                <LineString id="9262">
                    <coordinates>13.045388549999998,53.21822116999999,0.0 13.04554083,53.21821016,0.0</coordinates>
                </LineString>
                <LineString id="9264">
                    <coordinates>13.046289809999998,53.218154829999996,0.0 13.046403650000002,53.21814716,0.0 13.0464269,53.21814783999999,0.0 13.046595730000002,53.21813414,0.0</coordinates>
                </LineString>
                <LineString id="9266">
                    <coordinates>13.04554083,53.21821016,0.0 13.04580916,53.21819154,0.0</coordinates>
                </LineString>
                <LineString id="9268">
                    <coordinates>13.04580916,53.21819154,0.0 13.046289809999998,53.218154829999996,0.0</coordinates>
                </LineString>
                <LineString id="9270">
                    <coordinates>13.04205155,53.21845215999999,0.0 13.04229104,53.21843476,0.0</coordinates>
                </LineString>
            </MultiGeometry>
        </Placemark>
        <Placemark id="9277">
            <name>MultiPoint</name>
            <styleUrl>#9290</styleUrl>
            <MultiGeometry id="9276">
                <Point id="9278">
                    <coordinates>12.968315655499103,53.2797374021932,0.0</coordinates>
                </Point>
                <Point id="9280">
                    <coordinates>12.9682886713537,53.2795935369843,0.0</coordinates>
                </Point>
                <Point id="9282">
                    <coordinates>12.9710673329946,53.27575566825598,0.0</coordinates>
                </Point>
                <Point id="9284">
                    <coordinates>12.965603574238699,53.2777014003968,0.0</coordinates>
                </Point>
                <Point id="9286">
                    <coordinates>12.9653724958283,53.277720837984994,0.0</coordinates>
                </Point>
                <Point id="9288">
                    <coordinates>13.036965409999999,53.193058670999996,0.0</coordinates>
                </Point>
            </MultiGeometry>
        </Placemark>
    </Document>
</kml>
