<?xml version="1.0" encoding="UTF-8"?>
<kml xmlns="http://www.opengis.net/kml/2.2" xmlns:gx="http://www.google.com/kml/ext/2.2">
    <Document id="21313">
        <Style id="21462">
            <IconStyle id="21463">
                <color>ff0000ff</color>
                <colorMode>normal</colorMode>
                <scale>1</scale>
                <heading>0</heading>
                <Icon id="21464">
                    <href>http://maps.google.com/mapfiles/kml/pushpin/ylw-pushpin.png</href>
                </Icon>
            </IconStyle>
            <LineStyle id="21465">
                <color>ff0000ff</color>
                <colorMode>normal</colorMode>
                <width>5</width>
            </LineStyle>
        </Style>
        <Style id="21508">
            <IconStyle id="21510">
                <colorMode>normal</colorMode>
                <scale>1</scale>
                <heading>0</heading>
                <Icon id="21511">
                    <href>http://maps.google.com/mapfiles/kml/shapes/placemark_circle.png</href>
                </Icon>
            </IconStyle>
            <LabelStyle id="21509">
                <colorMode>normal</colorMode>
                <scale>0.0</scale>
            </LabelStyle>
        </Style>
        <open>1</open>
        <Placemark id="21315">
            <name>MultiLine</name>
            <styleUrl>#21462</styleUrl>
            <MultiGeometry id="21314">
                <LineString id="21316">
                    <coordinates>13.33540254,51.17441064,0.0 13.335633909999999,51.174337019999996,0.0</coordinates>
                </LineString>
                <LineString id="21318">
                    <coordinates>13.33540254,51.17441064,0.0 13.335382019999999,51.174495549999996,0.0</coordinates>
                </LineString>
                <LineString id="21320">
                    <coordinates>13.335241669999997,51.174384409999995,0.0 13.33540254,51.17441064,0.0</coordinates>
                </LineString>
                <LineString id="21322">
                    <coordinates>13.335241669999997,51.174384409999995,0.0 13.335278289999998,51.174284199999995,0.0</coordinates>
                </LineString>
                <LineString id="21324">
                    <coordinates>13.334936119999998,51.17423487,0.0 13.334916829999997,51.174269889999984,0.0 13.334927259999997,51.17429692999999,0.0 13.334944609999999,51.17432119000001,0.0 13.33499332,51.174344489999996,0.0 13.335120979999997,51.17436025,0.0 13.335241669999997,51.174384409999995,0.0</coordinates>
                </LineString>
                <LineString id="21326">
                    <coordinates>13.324880770000002,51.17639597000001,0.0 13.32468296,51.17629956,0.0</coordinates>
                </LineString>
                <LineString id="21328">
                    <coordinates>13.329149649999996,51.17451851999998,0.0 13.329064219999998,51.174492309999984,0.0</coordinates>
                </LineString>
                <LineString id="21330">
                    <coordinates>13.329183239999999,51.174507029999994,0.0 13.329149649999996,51.17451851999998,0.0</coordinates>
                </LineString>
                <LineString id="21332">
                    <coordinates>13.329440749999998,51.17436945999999,0.0 13.329183239999999,51.174507029999994,0.0</coordinates>
                </LineString>
                <LineString id="21334">
                    <coordinates>13.328808669999999,51.173592299999996,0.0 13.328979190000002,51.17403421000001,0.0 13.329058139999999,51.17424788,0.0 13.329440749999998,51.17436945999999,0.0</coordinates>
                </LineString>
                <LineString id="21336">
                    <coordinates>13.334936119999998,51.17423487,0.0 13.335419670000002,51.17391527000001,0.0</coordinates>
                </LineString>
                <LineString id="21338">
                    <coordinates>13.335419670000002,51.17391527000001,0.0 13.335178689999998,51.17372645,0.0</coordinates>
                </LineString>
                <LineString id="21340">
                    <coordinates>13.334574339999998,51.17425051000001,0.0 13.334936119999998,51.17423487,0.0</coordinates>
                </LineString>
                <LineString id="21342">
                    <coordinates>13.334574339999998,51.17425051000001,0.0 13.33422577,51.17442279999999,0.0</coordinates>
                </LineString>
                <LineString id="21344">
                    <coordinates>13.333825629999998,51.17415450999998,0.0 13.334149239999999,51.17427397000001,0.0 13.334574339999998,51.17425051000001,0.0</coordinates>
                </LineString>
                <LineString id="21346">
                    <coordinates>13.333825629999998,51.17415450999998,0.0 13.333783399999998,51.17429781,0.0</coordinates>
                </LineString>
                <LineString id="21348">
                    <coordinates>13.33329027,51.173949979999996,0.0 13.333727679999999,51.17411468999999,0.0 13.333825629999998,51.17415450999998,0.0</coordinates>
                </LineString>
                <LineString id="21350">
                    <coordinates>13.332475209999998,51.17350596999999,0.0 13.332802259999998,51.1736319,0.0 13.33301969,51.17379765999999,0.0 13.33329027,51.173949979999996,0.0</coordinates>
                </LineString>
                <LineString id="21352">
                    <coordinates>13.329440749999998,51.17436945999999,0.0 13.329963059999997,51.17411013999999,0.0 13.330511260000002,51.173761979999995,0.0 13.33105542,51.17341397,0.0 13.33113559,51.17336330999998,0.0 13.33179756,51.173452600000005,0.0 13.332198029999997,51.173507079999986,0.0</coordinates>
                </LineString>
                <LineString id="21354">
                    <coordinates>13.333384569999998,51.17290696999998,0.0 13.33365031,51.172742809999995,0.0</coordinates>
                </LineString>
                <LineString id="21356">
                    <coordinates>13.332540259999996,51.17313135999999,0.0 13.33262766,51.173110140000006,0.0 13.332729629999998,51.17308605,0.0 13.33300914,51.17298914999998,0.0</coordinates>
                </LineString>
                <LineString id="21358">
                    <coordinates>13.332198029999997,51.173507079999986,0.0 13.33214213,51.17322812,0.0</coordinates>
                </LineString>
                <LineString id="21360">
                    <coordinates>13.33300914,51.17298914999998,0.0 13.333384569999998,51.17290696999998,0.0</coordinates>
                </LineString>
                <LineString id="21362">
                    <coordinates>13.324697809999998,51.18019458,0.0 13.324623369999998,51.18019589,0.0</coordinates>
                </LineString>
                <LineString id="21364">
                    <coordinates>13.324880770000002,51.17639597000001,0.0 13.325217009999998,51.17649601,0.0</coordinates>
                </LineString>
                <LineString id="21366">
                    <coordinates>13.3249442,51.1799557,0.0 13.32489132,51.18000826,0.0 13.324793129999998,51.18009463,0.0 13.324697809999998,51.18019458,0.0</coordinates>
                </LineString>
                <LineString id="21368">
                    <coordinates>13.32536698,51.17707163,0.0 13.3254099,51.17773824999999,0.0</coordinates>
                </LineString>
                <LineString id="21370">
                    <coordinates>13.3254099,51.17773824999999,0.0 13.325163999999997,51.17785136999999,0.0</coordinates>
                </LineString>
                <LineString id="21372">
                    <coordinates>13.325163999999997,51.17785136999999,0.0 13.325211959999999,51.17791659000001,0.0</coordinates>
                </LineString>
                <LineString id="21374">
                    <coordinates>13.325163999999997,51.17785136999999,0.0 13.324923530000001,51.17796052,0.0</coordinates>
                </LineString>
                <LineString id="21376">
                    <coordinates>13.325142279999998,51.17594411999999,0.0 13.324872799999998,51.17614790999999,0.0 13.32468296,51.17629956,0.0</coordinates>
                </LineString>
                <LineString id="21378">
                    <coordinates>13.328841809999997,51.174473179999985,0.0 13.327559569999998,51.174706679999986,0.0 13.327228239999997,51.17477012999999,0.0</coordinates>
                </LineString>
                <LineString id="21380">
                    <coordinates>13.3261628,51.17419262,0.0 13.325840009999997,51.17376477999999,0.0 13.325478689999997,51.17359766,0.0 13.325607059999998,51.173332029999976,0.0</coordinates>
                </LineString>
                <LineString id="21382">
                    <coordinates>13.3261628,51.17419262,0.0 13.325777529999996,51.17406608000001,0.0</coordinates>
                </LineString>
                <LineString id="21384">
                    <coordinates>13.326603169999997,51.17433541999999,0.0 13.3261628,51.17419262,0.0</coordinates>
                </LineString>
                <LineString id="21386">
                    <coordinates>13.326603169999997,51.17433541999999,0.0 13.326577509999998,51.174347669999996,0.0</coordinates>
                </LineString>
                <LineString id="21388">
                    <coordinates>13.327228239999997,51.17477012999999,0.0 13.326603169999997,51.17433541999999,0.0</coordinates>
                </LineString>
                <LineString id="21390">
                    <coordinates>13.3261628,51.17419262,0.0 13.32594485,51.17382165999999,0.0</coordinates>
                </LineString>
                <LineString id="21392">
                    <coordinates>13.329440749999998,51.17436945999999,0.0 13.328841809999997,51.174473179999985,0.0</coordinates>
                </LineString>
                <LineString id="21394">
                    <coordinates>13.328819559999996,51.17328756,0.0 13.328733879999998,51.17339973000001,0.0 13.328808669999999,51.173592299999996,0.0</coordinates>
                </LineString>
                <LineString id="21396">
                    <coordinates>13.33329027,51.173949979999996,0.0 13.333367679999999,51.173868299999995,0.0</coordinates>
                </LineString>
                <LineString id="21398">
                    <coordinates>13.332198029999997,51.173507079999986,0.0 13.33243021,51.17348858999998,0.0 13.332475209999998,51.17350596999999,0.0</coordinates>
                </LineString>
                <LineString id="21400">
                    <coordinates>13.333062719999996,51.17405345,0.0 13.332886849999998,51.17423691,0.0</coordinates>
                </LineString>
                <LineString id="21402">
                    <coordinates>13.33329027,51.173949979999996,0.0 13.333062719999996,51.17405345,0.0</coordinates>
                </LineString>
                <LineString id="21404">
                    <coordinates>13.33214213,51.17322812,0.0 13.332540259999996,51.17313135999999,0.0</coordinates>
                </LineString>
                <LineString id="21406">
                    <coordinates>13.325163999999997,51.17785136999999,0.0 13.32517964,51.17783636,0.0 13.325094009999999,51.17775913,0.0 13.325010589999998,51.17778876,0.0 13.324983159999999,51.17775689999999,0.0</coordinates>
                </LineString>
                <LineString id="21408">
                    <coordinates>13.324982199999996,51.17679153999999,0.0 13.3249972,51.17682718999999,0.0 13.32506217,51.17687370999999,0.0 13.325150429999997,51.17695439999997,0.0</coordinates>
                </LineString>
                <LineString id="21410">
                    <coordinates>13.325150429999997,51.17695439999997,0.0 13.32536698,51.17707163,0.0</coordinates>
                </LineString>
                <LineString id="21412">
                    <coordinates>13.3251069,51.176583990000005,0.0 13.325057359999999,51.17661645999999,0.0 13.324982199999996,51.17679153999999,0.0</coordinates>
                </LineString>
                <LineString id="21414">
                    <coordinates>13.325217009999998,51.17649601,0.0 13.325159829999999,51.17654958,0.0 13.3251069,51.176583990000005,0.0</coordinates>
                </LineString>
                <LineString id="21416">
                    <coordinates>13.325740749999998,51.17549223,0.0 13.325142279999998,51.17594411999999,0.0</coordinates>
                </LineString>
                <LineString id="21418">
                    <coordinates>13.3254099,51.17773824999999,0.0 13.325434849999997,51.17789737999998,0.0 13.325841109999999,51.17838007999999,0.0 13.32594106,51.17848581999999,0.0 13.32598848,51.17860968,0.0 13.3259172,51.17902641999999,0.0 13.32574186,51.179072479999995,0.0 13.325482579999997,51.17941985,0.0 13.3249442,51.1799557,0.0</coordinates>
                </LineString>
                <LineString id="21420">
                    <coordinates>13.325312019999997,51.18011720999999,0.0 13.3249442,51.1799557,0.0</coordinates>
                </LineString>
                <LineString id="21422">
                    <coordinates>13.325065039999998,51.180443269999984,0.0 13.32542097,51.180473189999994,0.0</coordinates>
                </LineString>
                <LineString id="21424">
                    <coordinates>13.32542097,51.180473189999994,0.0 13.325312019999997,51.18011720999999,0.0</coordinates>
                </LineString>
                <LineString id="21426">
                    <coordinates>13.327228239999997,51.17477012999999,0.0 13.326459409999996,51.17514374999999,0.0</coordinates>
                </LineString>
                <LineString id="21428">
                    <coordinates>13.326459409999996,51.17514374999999,0.0 13.326408899999999,51.17516436999999,0.0 13.325740749999998,51.17549223,0.0</coordinates>
                </LineString>
                <LineString id="21430">
                    <coordinates>13.35530999,51.15017571,0.0 13.355277979999999,51.150201149999994,0.0 13.35524046,51.15023792999999,0.0 13.355220419999998,51.15025918999999,0.0 13.355223769999998,51.15027587,0.0</coordinates>
                </LineString>
                <LineString id="21432">
                    <coordinates>13.359771449999998,51.14826339,0.0 13.359773979999998,51.14825398999999,0.0</coordinates>
                </LineString>
                <LineString id="21434">
                    <coordinates>13.359773979999998,51.14825398999999,0.0 13.359861089999999,51.14790569000001,0.0 13.359940489999998,51.14750706,0.0 13.36004588,51.14698016,0.0 13.360180249999997,51.146387489999995,0.0 13.360311070000002,51.14582736999999,0.0 13.360441399999996,51.14526791999999,0.0 13.360565519999998,51.14470887,0.0 13.360572699999999,51.14466895999999,0.0</coordinates>
                </LineString>
                <LineString id="21436">
                    <coordinates>13.36103959,51.14265782999998,0.0 13.361051529999997,51.14260154,0.0</coordinates>
                </LineString>
                <LineString id="21438">
                    <coordinates>13.361051529999997,51.14260154,0.0 13.361173649999998,51.14204764999999,0.0 13.36127764,51.14159573,0.0 13.361355159999999,51.141378120000006,0.0 13.361499449999997,51.141091289999984,0.0 13.361719009999996,51.140878369999996,0.0</coordinates>
                </LineString>
                <LineString id="21440">
                    <coordinates>13.360347749999999,51.14857674000001,0.0 13.36093944,51.148838399999995,0.0 13.3609719,51.14886988,0.0 13.36125286,51.148981739999996,0.0</coordinates>
                </LineString>
                <LineString id="21442">
                    <coordinates>13.359778099999996,51.14826323999999,0.0 13.359881909999999,51.14826124,0.0 13.359903319999999,51.14834437999999,0.0 13.360005739999998,51.14842478999999,0.0 13.360083739999999,51.148459450000004,0.0 13.360347749999999,51.14857674000001,0.0</coordinates>
                </LineString>
                <LineString id="21444">
                    <coordinates>13.357548879999996,51.150040239999996,0.0 13.357900119999996,51.14977441999999,0.0 13.358446289999998,51.14935986999999,0.0 13.35894411,51.148978510000006,0.0 13.359447759999998,51.148595779999994,0.0 13.3595803,51.148495909999994,0.0 13.359750199999999,51.14834026,0.0 13.359771449999998,51.14826339,0.0</coordinates>
                </LineString>
                <LineString id="21446">
                    <coordinates>13.359771449999998,51.14826339,0.0 13.359778099999996,51.14826323999999,0.0</coordinates>
                </LineString>
                <LineString id="21448">
                    <coordinates>13.360572699999999,51.14466895999999,0.0 13.360819099999997,51.14373396,0.0 13.360936099999998,51.14314503,0.0 13.36103959,51.14265782999998,0.0</coordinates>
                </LineString>
                <LineString id="21450">
                    <coordinates>13.355657510000002,51.14889231,0.0 13.35570988,51.14911211,0.0 13.355715810000001,51.14913339,0.0 13.355656769999996,51.14942727,0.0 13.355591979999998,51.14969601,0.0 13.355486239999998,51.149969699999986,0.0 13.35530999,51.15017571,0.0</coordinates>
                </LineString>
                <LineString id="21452">
                    <coordinates>13.355956689999998,51.14832289999998,0.0 13.35596884,51.14819620999999,0.0</coordinates>
                </LineString>
                <LineString id="21454">
                    <coordinates>13.355844359999999,51.14849081999999,0.0 13.355756469999996,51.14860656999997,0.0</coordinates>
                </LineString>
                <LineString id="21456">
                    <coordinates>13.355956689999998,51.14832289999998,0.0 13.355844359999999,51.14849081999999,0.0</coordinates>
                </LineString>
                <LineString id="21458">
                    <coordinates>13.355756469999996,51.14860656999997,0.0 13.355692079999999,51.14878888,0.0 13.355657510000002,51.14889231,0.0</coordinates>
                </LineString>
                <LineString id="21460">
                    <coordinates>13.355223769999998,51.15027587,0.0 13.35537313,51.1503498,0.0 13.355497979999999,51.15037871,0.0 13.35578157,51.15050502,0.0 13.355854019999997,51.15053297,0.0 13.356082819999997,51.150587339999994,0.0 13.356443799999996,51.15062311999999,0.0 13.356633559999999,51.150620020000005,0.0 13.356774459999999,51.150600100000005,0.0 13.35683102,51.15057464999998,0.0 13.35691867,51.15050582,0.0 13.35734653,51.15019343999998,0.0 13.357548879999996,51.150040239999996,0.0</coordinates>
                </LineString>
            </MultiGeometry>
        </Placemark>
        <Placemark id="21467">
            <name>MultiPoint</name>
            <styleUrl>#21508</styleUrl>
            <MultiGeometry id="21466">
                <Point id="21468">
                    <coordinates>13.324983159999999,51.17775689999999,0.0</coordinates>
                </Point>
                <Point id="21470">
                    <coordinates>13.335374459999999,51.1745239,0.0</coordinates>
                </Point>
                <Point id="21472">
                    <coordinates>13.33572012,51.174307000000006,0.0</coordinates>
                </Point>
                <Point id="21474">
                    <coordinates>13.335283599999995,51.174258779999995,0.0</coordinates>
                </Point>
                <Point id="21476">
                    <coordinates>13.335137649999995,51.173709110000004,0.0</coordinates>
                </Point>
                <Point id="21478">
                    <coordinates>13.334198080000002,51.17444103,0.0</coordinates>
                </Point>
                <Point id="21480">
                    <coordinates>13.333766639999995,51.17432608,0.0</coordinates>
                </Point>
                <Point id="21482">
                    <coordinates>13.333671539999996,51.17271052,0.0</coordinates>
                </Point>
                <Point id="21484">
                    <coordinates>13.328827179999994,51.17328906999998,0.0</coordinates>
                </Point>
                <Point id="21486">
                    <coordinates>13.324626639999998,51.18018603999999,0.0</coordinates>
                </Point>
                <Point id="21488">
                    <coordinates>13.325231609999996,51.177944079999996,0.0</coordinates>
                </Point>
                <Point id="21490">
                    <coordinates>13.324871219999999,51.17797444,0.0</coordinates>
                </Point>
                <Point id="21492">
                    <coordinates>13.325621869999997,51.17329822999999,0.0</coordinates>
                </Point>
                <Point id="21494">
                    <coordinates>13.32595486,51.17379203000001,0.0</coordinates>
                </Point>
                <Point id="21496">
                    <coordinates>13.325780570000001,51.174061940000016,0.0</coordinates>
                </Point>
                <Point id="21498">
                    <coordinates>13.326536039999997,51.174367919999995,0.0</coordinates>
                </Point>
                <Point id="21500">
                    <coordinates>13.333420559999999,51.17384973000001,0.0</coordinates>
                </Point>
                <Point id="21502">
                    <coordinates>13.332943309999994,51.174241969999976,0.0</coordinates>
                </Point>
                <Point id="21504">
                    <coordinates>13.325053769999998,51.18045164,0.0</coordinates>
                </Point>
                <Point id="21506">
                    <coordinates>13.355972439999997,51.14819223999999,0.0</coordinates>
                </Point>
            </MultiGeometry>
        </Placemark>
    </Document>
</kml>
