<?xml version="1.0" encoding="UTF-8"?>
<kml xmlns="http://www.opengis.net/kml/2.2" xmlns:gx="http://www.google.com/kml/ext/2.2">
    <Document id="9345">
        <Style id="10036">
            <IconStyle id="10037">
                <color>ff0000ff</color>
                <colorMode>normal</colorMode>
                <scale>1</scale>
                <heading>0</heading>
                <Icon id="10038">
                    <href>http://maps.google.com/mapfiles/kml/pushpin/ylw-pushpin.png</href>
                </Icon>
            </IconStyle>
            <LineStyle id="10039">
                <color>ff0000ff</color>
                <colorMode>normal</colorMode>
                <width>5</width>
            </LineStyle>
        </Style>
        <Style id="10104">
            <IconStyle id="10106">
                <colorMode>normal</colorMode>
                <scale>1</scale>
                <heading>0</heading>
                <Icon id="10107">
                    <href>http://maps.google.com/mapfiles/kml/shapes/placemark_circle.png</href>
                </Icon>
            </IconStyle>
            <LabelStyle id="10105">
                <colorMode>normal</colorMode>
                <scale>0.0</scale>
            </LabelStyle>
        </Style>
        <open>1</open>
        <Placemark id="9347">
            <name>MultiLine</name>
            <styleUrl>#10036</styleUrl>
            <MultiGeometry id="9346">
                <LineString id="9348">
                    <coordinates>13.37377055,51.204020449999994,0.0 13.374234009999999,51.204014519999994,0.0</coordinates>
                </LineString>
                <LineString id="9350">
                    <coordinates>13.312756769999998,51.196133539999984,0.0 13.31277109,51.19612674,0.0</coordinates>
                </LineString>
                <LineString id="9352">
                    <coordinates>13.312585219999999,51.19621832000001,0.0 13.312646319999999,51.19618693999998,0.0</coordinates>
                </LineString>
                <LineString id="9354">
                    <coordinates>13.30913318,51.19971427999998,0.0 13.30918027,51.19965095999999,0.0</coordinates>
                </LineString>
                <LineString id="9356">
                    <coordinates>13.30445527,51.19926863999999,0.0 13.30447401,51.19923612,0.0</coordinates>
                </LineString>
                <LineString id="9358">
                    <coordinates>13.306895179999998,51.195813999999984,0.0 13.306711909999997,51.195895740000005,0.0</coordinates>
                </LineString>
                <LineString id="9360">
                    <coordinates>13.37266898,51.20431970999999,0.0 13.37303536,51.20422418,0.0</coordinates>
                </LineString>
                <LineString id="9362">
                    <coordinates>13.370652449999996,51.19727855000001,0.0 13.370577039999997,51.19683617999999,0.0</coordinates>
                </LineString>
                <LineString id="9364">
                    <coordinates>13.307643359999998,51.20299978,0.0 13.307607909999996,51.20309067999999,0.0 13.30748109,51.20314689999999,0.0 13.3074619,51.20316619999999,0.0</coordinates>
                </LineString>
                <LineString id="9366">
                    <coordinates>13.3074619,51.20316619999999,0.0 13.307632229999998,51.203349739999986,0.0 13.30768413,51.203383619999975,0.0 13.307824909999999,51.20342498,0.0 13.307997509999998,51.20347962999999,0.0 13.308224669999998,51.20357274999999,0.0 13.30846393,51.20371013999999,0.0 13.30889738,51.20400299999999,0.0 13.308931859999998,51.20402731,0.0</coordinates>
                </LineString>
                <LineString id="9368">
                    <coordinates>13.308987339999998,51.20402160999999,0.0 13.309011806858367,51.204011447168256,0.0</coordinates>
                </LineString>
                <LineString id="9370">
                    <coordinates>13.308931859999998,51.20402731,0.0 13.308987339999998,51.20402160999999,0.0</coordinates>
                </LineString>
                <LineString id="9372">
                    <coordinates>13.309011806858367,51.204011447168256,0.0 13.30904578307902,51.204007744946296,0.0 13.309072373164751,51.20400311716842,0.0 13.309072373164751,51.20396979715401,0.0 13.309084190980629,51.20393462600155,0.0 13.309096008796507,51.203890199244256,0.0</coordinates>
                </LineString>
                <LineString id="9374">
                    <coordinates>13.309140421967824,51.20370022715576,0.0 13.309393411967825,51.20352928384444,0.0 13.309531021967828,51.20343528202354,0.0 13.309775021967823,51.20327727896291,0.0 13.310015951967825,51.203122285960596,0.0 13.310065791967824,51.20308992533373,0.0 13.310268927022564,51.20301831545996,0.0 13.310546645695737,51.20296648320784,0.0 13.310812546553027,51.20295352513568,0.0 13.311235033470723,51.20295167398223,0.0 13.31164274811857,51.20288318125187,0.0 13.311885013344103,51.20281283726063,0.0 13.31208887066803,51.20268695827135,0.0 13.312280910176074,51.202531460221415,0.0 13.31239022497296,51.202424092213924,0.0 13.312514312039694,51.20226303973342,0.0 13.312764,51.202262999999995,0.0</coordinates>
                </LineString>
                <LineString id="9376">
                    <coordinates>13.309131462244148,51.20382355902793,0.0 13.309140421967824,51.20370022715576,0.0</coordinates>
                </LineString>
                <LineString id="9378">
                    <coordinates>13.312507129999997,51.19625804,0.0 13.31252101,51.19625105999999,0.0 13.312585219999999,51.19621832000001,0.0</coordinates>
                </LineString>
                <LineString id="9380">
                    <coordinates>13.312781269999999,51.196096209999986,0.0 13.312784230000002,51.19611219999999,0.0 13.31277109,51.19612674,0.0</coordinates>
                </LineString>
                <LineString id="9382">
                    <coordinates>13.312755589999998,51.19604656,0.0 13.312781269999999,51.196096209999986,0.0</coordinates>
                </LineString>
                <LineString id="9384">
                    <coordinates>13.31274791,51.196030979999996,0.0 13.312755589999998,51.19604656,0.0</coordinates>
                </LineString>
                <LineString id="9386">
                    <coordinates>13.31186159,51.19672609999999,0.0 13.311861870000001,51.196724409999995,0.0 13.31187089,51.19669996,0.0 13.31189264,51.196656069999996,0.0</coordinates>
                </LineString>
                <LineString id="9388">
                    <coordinates>13.311919539999998,51.19660591,0.0 13.311953930000001,51.19655839000001,0.0 13.312004649999999,51.19651443,0.0 13.312036949999998,51.19648972,0.0</coordinates>
                </LineString>
                <LineString id="9390">
                    <coordinates>13.312085239999998,51.19646052,0.0 13.312159179999998,51.196422160000004,0.0</coordinates>
                </LineString>
                <LineString id="9392">
                    <coordinates>13.312159179999998,51.196422160000004,0.0 13.31229495,51.19635439999999,0.0 13.312507129999997,51.19625804,0.0</coordinates>
                </LineString>
                <LineString id="9394">
                    <coordinates>13.312646319999999,51.19618693999998,0.0 13.312735009999999,51.19614398999999,0.0</coordinates>
                </LineString>
                <LineString id="9396">
                    <coordinates>13.312036949999998,51.19648972,0.0 13.312085239999998,51.19646052,0.0</coordinates>
                </LineString>
                <LineString id="9398">
                    <coordinates>13.31189264,51.196656069999996,0.0 13.311919539999998,51.19660591,0.0</coordinates>
                </LineString>
                <LineString id="9400">
                    <coordinates>13.311859199999999,51.19673602999998,0.0 13.311860399999999,51.19673190999998,0.0</coordinates>
                </LineString>
                <LineString id="9402">
                    <coordinates>13.311705279999998,51.19685679,0.0 13.311737719999995,51.196841699999986,0.0 13.31185758,51.19674175,0.0</coordinates>
                </LineString>
                <LineString id="9404">
                    <coordinates>13.31151195,51.196955179999996,0.0 13.311705279999998,51.19685679,0.0</coordinates>
                </LineString>
                <LineString id="9406">
                    <coordinates>13.311387969999998,51.197011759999995,0.0 13.31151195,51.196955179999996,0.0</coordinates>
                </LineString>
                <LineString id="9408">
                    <coordinates>13.311235789999998,51.19710819,0.0 13.311320639999996,51.19704749,0.0 13.311387969999998,51.197011759999995,0.0</coordinates>
                </LineString>
                <LineString id="9410">
                    <coordinates>13.30775877,51.20280693,0.0 13.30781811,51.202688099999996,0.0 13.30794035,51.20245633999999,0.0 13.307960899999998,51.20244838,0.0 13.307997369999999,51.20234013999998,0.0 13.307977309999998,51.20229342999999,0.0 13.307965299999998,51.20221846999999,0.0 13.307967829999999,51.202165069999985,0.0 13.30796858,51.201955279999986,0.0 13.307970300000001,51.20189241999999,0.0</coordinates>
                </LineString>
                <LineString id="9412">
                    <coordinates>13.30796961,51.201880149999994,0.0 13.30796884,51.20183203999998,0.0 13.307958779999996,51.201742719999984,0.0 13.307939039999999,51.201666020000005,0.0</coordinates>
                </LineString>
                <LineString id="9414">
                    <coordinates>13.307970300000001,51.20189241999999,0.0 13.30796961,51.201880149999994,0.0</coordinates>
                </LineString>
                <LineString id="9416">
                    <coordinates>13.307939039999999,51.201666020000005,0.0 13.30791047,51.20157701,0.0</coordinates>
                </LineString>
                <LineString id="9418">
                    <coordinates>13.30791047,51.20157701,0.0 13.307906719999998,51.20156218999998,0.0 13.307892039999999,51.20151386999999,0.0 13.307905789999996,51.20143928,0.0 13.307909129999997,51.20139172,0.0 13.307904980000002,51.201373289999985,0.0 13.307896969999998,51.201330609999985,0.0 13.307900209999996,51.20129841,0.0 13.30790825,51.201268809999995,0.0 13.30792225,51.201257159999976,0.0 13.307958249999999,51.20121816999999,0.0 13.307969909999999,51.20119274999998,0.0 13.307985989999999,51.20115518999999,0.0</coordinates>
                </LineString>
                <LineString id="9420">
                    <coordinates>13.307985989999999,51.20115518999999,0.0 13.308060849999997,51.201071009999986,0.0</coordinates>
                </LineString>
                <LineString id="9422">
                    <coordinates>13.308060849999997,51.201071009999986,0.0 13.30822347,51.200904949999995,0.0</coordinates>
                </LineString>
                <LineString id="9424">
                    <coordinates>13.308258109999999,51.20087167999999,0.0 13.308488349999996,51.20063443,0.0</coordinates>
                </LineString>
                <LineString id="9426">
                    <coordinates>13.308641590000002,51.20047231000001,0.0 13.308625009999998,51.20049031999999,0.0 13.308488349999996,51.20063443,0.0</coordinates>
                </LineString>
                <LineString id="9428">
                    <coordinates>13.30881994,51.20017221999999,0.0 13.30882944,51.20016034999998,0.0</coordinates>
                </LineString>
                <LineString id="9430">
                    <coordinates>13.30882944,51.20016034999998,0.0 13.308908729999999,51.20002272999999,0.0</coordinates>
                </LineString>
                <LineString id="9432">
                    <coordinates>13.308908729999999,51.20002272999999,0.0 13.309008769999997,51.199881709999985,0.0</coordinates>
                </LineString>
                <LineString id="9434">
                    <coordinates>13.30901927,51.19986470999999,0.0 13.309072789999998,51.19979079,0.0</coordinates>
                </LineString>
                <LineString id="9436">
                    <coordinates>13.309008769999997,51.199881709999985,0.0 13.30901927,51.19986470999999,0.0</coordinates>
                </LineString>
                <LineString id="9438">
                    <coordinates>13.308769039999996,51.20026129999999,0.0 13.30881994,51.20017221999999,0.0</coordinates>
                </LineString>
                <LineString id="9440">
                    <coordinates>13.309072789999998,51.19979079,0.0 13.30913318,51.19971427999998,0.0</coordinates>
                </LineString>
                <LineString id="9442">
                    <coordinates>13.309441499999998,51.199368459999995,0.0 13.309609379999998,51.1992073,0.0</coordinates>
                </LineString>
                <LineString id="9444">
                    <coordinates>13.309609379999998,51.1992073,0.0 13.30970218,51.19911114000001,0.0</coordinates>
                </LineString>
                <LineString id="9446">
                    <coordinates>13.30970218,51.19911114000001,0.0 13.30980066,51.19900809,0.0 13.309867329999998,51.19894019999998,0.0</coordinates>
                </LineString>
                <LineString id="9448">
                    <coordinates>13.309867329999998,51.19894019999998,0.0 13.309917929999997,51.19887500000001,0.0 13.310027369999997,51.19873389,0.0 13.310081189999998,51.19866859999999,0.0</coordinates>
                </LineString>
                <LineString id="9450">
                    <coordinates>13.31017329,51.19853716,0.0 13.310209049999994,51.19846922999999,0.0</coordinates>
                </LineString>
                <LineString id="9452">
                    <coordinates>13.310081189999998,51.19866859999999,0.0 13.310144309999997,51.19859049999998,0.0 13.31017329,51.19853716,0.0</coordinates>
                </LineString>
                <LineString id="9454">
                    <coordinates>13.310209049999994,51.19846922999999,0.0 13.310216859999999,51.198452239999995,0.0</coordinates>
                </LineString>
                <LineString id="9456">
                    <coordinates>13.31024246,51.19840293,0.0 13.310255469999998,51.198364789999985,0.0</coordinates>
                </LineString>
                <LineString id="9458">
                    <coordinates>13.310216859999999,51.198452239999995,0.0 13.310239099999997,51.198412619999985,0.0 13.31024246,51.19840293,0.0</coordinates>
                </LineString>
                <LineString id="9460">
                    <coordinates>13.310283899999998,51.198281390000005,0.0 13.310285019999998,51.19827730999999,0.0</coordinates>
                </LineString>
                <LineString id="9462">
                    <coordinates>13.310285019999998,51.19827730999999,0.0 13.310319299999998,51.198189909999996,0.0</coordinates>
                </LineString>
                <LineString id="9464">
                    <coordinates>13.310331999999999,51.19816232999999,0.0 13.31036364,51.19809208,0.0</coordinates>
                </LineString>
                <LineString id="9466">
                    <coordinates>13.310255469999998,51.198364789999985,0.0 13.310282459999998,51.19828610999999,0.0</coordinates>
                </LineString>
                <LineString id="9468">
                    <coordinates>13.310981509999998,51.19717283999999,0.0 13.311089079999997,51.197190429999985,0.0 13.311110039999999,51.19719292999999,0.0 13.31112954,51.19719029999999,0.0 13.31115227,51.19717828,0.0</coordinates>
                </LineString>
                <LineString id="9470">
                    <coordinates>13.31115227,51.19717828,0.0 13.311161029999997,51.19717150999999,0.0</coordinates>
                </LineString>
                <LineString id="9472">
                    <coordinates>13.311161029999997,51.19717150999999,0.0 13.311235789999998,51.19710819,0.0</coordinates>
                </LineString>
                <LineString id="9474">
                    <coordinates>13.310947100000002,51.197190440000014,0.0 13.31096015,51.197176759999984,0.0</coordinates>
                </LineString>
                <LineString id="9476">
                    <coordinates>13.31075138,51.197425030000005,0.0 13.310807769999998,51.19734765,0.0 13.310844890000002,51.19730323000001,0.0</coordinates>
                </LineString>
                <LineString id="9478">
                    <coordinates>13.31073147,51.19745107,0.0 13.31075138,51.197425030000005,0.0</coordinates>
                </LineString>
                <LineString id="9480">
                    <coordinates>13.310686159999996,51.19751314,0.0 13.31073147,51.19745107,0.0</coordinates>
                </LineString>
                <LineString id="9482">
                    <coordinates>13.310862499999999,51.19728363,0.0 13.310947100000002,51.197190440000014,0.0</coordinates>
                </LineString>
                <LineString id="9484">
                    <coordinates>13.310844890000002,51.19730323000001,0.0 13.310862499999999,51.19728363,0.0</coordinates>
                </LineString>
                <LineString id="9486">
                    <coordinates>13.31096015,51.197176759999984,0.0 13.310981509999998,51.19717283999999,0.0</coordinates>
                </LineString>
                <LineString id="9488">
                    <coordinates>13.310446729999999,51.19788919999999,0.0 13.310467799999998,51.19783865,0.0 13.310486449999999,51.19780996,0.0</coordinates>
                </LineString>
                <LineString id="9490">
                    <coordinates>13.310564859999998,51.19768173,0.0 13.310585599999996,51.197650239999994,0.0</coordinates>
                </LineString>
                <LineString id="9492">
                    <coordinates>13.310585599999996,51.197650239999994,0.0 13.310644629999997,51.197568929999996,0.0</coordinates>
                </LineString>
                <LineString id="9494">
                    <coordinates>13.310644629999997,51.197568929999996,0.0 13.310686159999996,51.19751314,0.0</coordinates>
                </LineString>
                <LineString id="9496">
                    <coordinates>13.310486449999999,51.19780996,0.0 13.310518640000002,51.19776162000001,0.0</coordinates>
                </LineString>
                <LineString id="9498">
                    <coordinates>13.310539980000001,51.19771971,0.0 13.31054649,51.19770698999999,0.0</coordinates>
                </LineString>
                <LineString id="9500">
                    <coordinates>13.31054649,51.19770698999999,0.0 13.310564859999998,51.19768173,0.0</coordinates>
                </LineString>
                <LineString id="9502">
                    <coordinates>13.310426149999998,51.19793340999998,0.0 13.310446729999999,51.19788919999999,0.0</coordinates>
                </LineString>
                <LineString id="9504">
                    <coordinates>13.310403599999999,51.19798465,0.0 13.310426149999998,51.19793340999998,0.0</coordinates>
                </LineString>
                <LineString id="9506">
                    <coordinates>13.310401439999996,51.19798963,0.0 13.310403599999999,51.19798465,0.0</coordinates>
                </LineString>
                <LineString id="9508">
                    <coordinates>13.31036364,51.19809208,0.0 13.310401439999996,51.19798963,0.0</coordinates>
                </LineString>
                <LineString id="9510">
                    <coordinates>13.312555279999998,51.19571793,0.0 13.31262163,51.19581154000001,0.0 13.312681889999999,51.19591526,0.0 13.312711939999998,51.19596834,0.0 13.31274791,51.196030979999996,0.0</coordinates>
                </LineString>
                <LineString id="9512">
                    <coordinates>13.31185634,51.194649209999994,0.0 13.311868639999998,51.194644639999986,0.0</coordinates>
                </LineString>
                <LineString id="9514">
                    <coordinates>13.312555279999998,51.19571793,0.0 13.31254109,51.1957018,0.0 13.312526009999997,51.19569761,0.0 13.312510329999999,51.195696379999994,0.0 13.312497999999998,51.19569744,0.0</coordinates>
                </LineString>
                <LineString id="9516">
                    <coordinates>13.312441319999996,51.19556816999999,0.0 13.31244266,51.195576970000005,0.0 13.312439049999998,51.19559135,0.0</coordinates>
                </LineString>
                <LineString id="9518">
                    <coordinates>13.312439049999998,51.19559135,0.0 13.312434689999998,51.195601599999996,0.0 13.312456889999998,51.19563597,0.0 13.312497999999998,51.19569744,0.0</coordinates>
                </LineString>
                <LineString id="9520">
                    <coordinates>13.3122882,51.195310309999996,0.0 13.312441319999996,51.19556816999999,0.0</coordinates>
                </LineString>
                <LineString id="9522">
                    <coordinates>13.312190039999997,51.1951451,0.0 13.3122882,51.195310309999996,0.0</coordinates>
                </LineString>
                <LineString id="9524">
                    <coordinates>13.312148669999997,51.195071260000006,0.0 13.312190039999997,51.1951451,0.0</coordinates>
                </LineString>
                <LineString id="9526">
                    <coordinates>13.31206707,51.194935279999996,0.0 13.312148669999997,51.195071260000006,0.0</coordinates>
                </LineString>
                <LineString id="9528">
                    <coordinates>13.311946259999996,51.194732789999996,0.0 13.31206707,51.194935279999996,0.0</coordinates>
                </LineString>
                <LineString id="9530">
                    <coordinates>13.311882689999997,51.19464251,0.0 13.311900009999997,51.19465309999999,0.0 13.31190292,51.19466091999998,0.0 13.311946259999996,51.194732789999996,0.0</coordinates>
                </LineString>
                <LineString id="9532">
                    <coordinates>13.31183363,51.19465488999999,0.0 13.31185634,51.194649209999994,0.0</coordinates>
                </LineString>
                <LineString id="9534">
                    <coordinates>13.30963472,51.19475553999999,0.0 13.309636109999998,51.19470939,0.0 13.309635509999996,51.19468029999998,0.0</coordinates>
                </LineString>
                <LineString id="9536">
                    <coordinates>13.309229779999997,51.194628269999995,0.0 13.30955418,51.19467078000001,0.0 13.309635509999996,51.19468029999998,0.0</coordinates>
                </LineString>
                <LineString id="9538">
                    <coordinates>13.310132959999999,51.194702409999984,0.0 13.310248170000001,51.19470502,0.0 13.31052931,51.19469886000001,0.0 13.310575069999999,51.19469753999999,0.0 13.310720839999998,51.194695669999994,0.0</coordinates>
                </LineString>
                <LineString id="9540">
                    <coordinates>13.309635509999996,51.19468029999998,0.0 13.309728370000002,51.19469035,0.0 13.310040560000001,51.19469975999999,0.0 13.310132959999999,51.194702409999984,0.0</coordinates>
                </LineString>
                <LineString id="9542">
                    <coordinates>13.309111309999999,51.19461166,0.0 13.309229779999997,51.194628269999995,0.0</coordinates>
                </LineString>
                <LineString id="9544">
                    <coordinates>13.309108539999997,51.19418782999998,0.0 13.30907221,51.19438744999999,0.0 13.309039029999997,51.19449724999999,0.0 13.30907903,51.19459414999999,0.0 13.309089629999999,51.194601859999985,0.0 13.309111309999999,51.19461166,0.0</coordinates>
                </LineString>
                <LineString id="9546">
                    <coordinates>13.309281609999998,51.19381699000001,0.0 13.30918586,51.19399941,0.0 13.309111219999997,51.19413908999999,0.0 13.309108539999997,51.19418782999998,0.0</coordinates>
                </LineString>
                <LineString id="9548">
                    <coordinates>13.309402339999998,51.19361101999999,0.0 13.30930194,51.193772289999984,0.0 13.309281609999998,51.19381699000001,0.0</coordinates>
                </LineString>
                <LineString id="9550">
                    <coordinates>13.30630005,51.19484139999999,0.0 13.306406119999998,51.19499620999999,0.0 13.306551739999998,51.19521093,0.0 13.306647219999999,51.19535127999999,0.0</coordinates>
                </LineString>
                <LineString id="9552">
                    <coordinates>13.306647219999999,51.19535127999999,0.0 13.306710509999998,51.195445409999984,0.0 13.306755799999998,51.1955108,0.0</coordinates>
                </LineString>
                <LineString id="9554">
                    <coordinates>13.306465579999998,51.19588397,0.0 13.30647881,51.19586801,0.0</coordinates>
                </LineString>
                <LineString id="9556">
                    <coordinates>13.30647881,51.19586801,0.0 13.306592279999997,51.19582466,0.0</coordinates>
                </LineString>
                <LineString id="9558">
                    <coordinates>13.30680286,51.19573152999999,0.0 13.306838009999996,51.19573046999998,0.0 13.30692193,51.195697679999995,0.0</coordinates>
                </LineString>
                <LineString id="9560">
                    <coordinates>13.30669888,51.195894749999994,0.0 13.306711909999997,51.195895740000005,0.0</coordinates>
                </LineString>
                <LineString id="9562">
                    <coordinates>13.30669888,51.195894749999994,0.0 13.306615969999998,51.195832989999985,0.0 13.306592279999997,51.19582466,0.0</coordinates>
                </LineString>
                <LineString id="9564">
                    <coordinates>13.30612855,51.196540829999996,0.0 13.306085509999999,51.19663015999999,0.0</coordinates>
                </LineString>
                <LineString id="9566">
                    <coordinates>13.306085509999999,51.19663015999999,0.0 13.306052050000002,51.19670184,0.0</coordinates>
                </LineString>
                <LineString id="9568">
                    <coordinates>13.30619549,51.196428799999985,0.0 13.30612855,51.196540829999996,0.0</coordinates>
                </LineString>
                <LineString id="9570">
                    <coordinates>13.306251189999998,51.19632586999998,0.0 13.30619549,51.196428799999985,0.0</coordinates>
                </LineString>
                <LineString id="9572">
                    <coordinates>13.30634043,51.19613987999999,0.0 13.306251189999998,51.19632586999998,0.0</coordinates>
                </LineString>
                <LineString id="9574">
                    <coordinates>13.306342389999996,51.19613419999999,0.0 13.30634043,51.19613987999999,0.0</coordinates>
                </LineString>
                <LineString id="9576">
                    <coordinates>13.306465579999998,51.19588397,0.0 13.306508179999998,51.19591392000001,0.0 13.30652336,51.195929940000006,0.0 13.306423279999997,51.196026750000016,0.0 13.306374579999998,51.196083,0.0</coordinates>
                </LineString>
                <LineString id="9578">
                    <coordinates>13.306374579999998,51.196083,0.0 13.306342389999996,51.19613419999999,0.0</coordinates>
                </LineString>
                <LineString id="9580">
                    <coordinates>13.306057209999999,51.19674487,0.0 13.306072119999998,51.196715909999995,0.0 13.306075589999999,51.19670780999999,0.0 13.306052050000002,51.19670184,0.0</coordinates>
                </LineString>
                <LineString id="9582">
                    <coordinates>13.305971289999999,51.19692220000001,0.0 13.305986750112233,51.196889173663195,0.0 13.306057209999999,51.19674487,0.0</coordinates>
                </LineString>
                <LineString id="9584">
                    <coordinates>13.305960289999996,51.19695444,0.0 13.305971289999999,51.19692220000001,0.0</coordinates>
                </LineString>
                <LineString id="9586">
                    <coordinates>13.30580219,51.197388129999986,0.0 13.305816389999997,51.19735217,0.0</coordinates>
                </LineString>
                <LineString id="9588">
                    <coordinates>13.305816389999997,51.19735217,0.0 13.305849869999998,51.197252840000004,0.0</coordinates>
                </LineString>
                <LineString id="9590">
                    <coordinates>13.30568851,51.197582620000006,0.0 13.30577,51.19747669,0.0 13.30580219,51.197388129999986,0.0</coordinates>
                </LineString>
                <LineString id="9592">
                    <coordinates>13.305671519999999,51.19760697,0.0 13.30568851,51.197582620000006,0.0</coordinates>
                </LineString>
                <LineString id="9594">
                    <coordinates>13.305660519999998,51.197621489999996,0.0 13.305671519999999,51.19760697,0.0</coordinates>
                </LineString>
                <LineString id="9596">
                    <coordinates>13.3054805,51.19784752,0.0 13.305591839999995,51.19770663999999,0.0</coordinates>
                </LineString>
                <LineString id="9598">
                    <coordinates>13.305591839999995,51.19770663999999,0.0 13.305660519999998,51.197621489999996,0.0</coordinates>
                </LineString>
                <LineString id="9600">
                    <coordinates>13.305465739999999,51.19786961,0.0 13.3054805,51.19784752,0.0</coordinates>
                </LineString>
                <LineString id="9602">
                    <coordinates>13.305447939999999,51.19789152,0.0 13.305465739999999,51.19786961,0.0</coordinates>
                </LineString>
                <LineString id="9604">
                    <coordinates>13.305338309999998,51.19801977,0.0 13.305342749999996,51.19801361999999,0.0</coordinates>
                </LineString>
                <LineString id="9606">
                    <coordinates>13.305310629999996,51.19805014000001,0.0 13.305338309999998,51.19801977,0.0</coordinates>
                </LineString>
                <LineString id="9608">
                    <coordinates>13.305342749999996,51.19801361999999,0.0 13.305420639999998,51.19792402,0.0</coordinates>
                </LineString>
                <LineString id="9610">
                    <coordinates>13.305196479999998,51.1981734,0.0 13.305244689999997,51.19812053999999,0.0</coordinates>
                </LineString>
                <LineString id="9612">
                    <coordinates>13.30529324,51.198067159999994,0.0 13.305310629999996,51.19805014000001,0.0</coordinates>
                </LineString>
                <LineString id="9614">
                    <coordinates>13.305420639999998,51.19792402,0.0 13.305447939999999,51.19789152,0.0</coordinates>
                </LineString>
                <LineString id="9616">
                    <coordinates>13.305244689999997,51.19812053999999,0.0 13.30529324,51.198067159999994,0.0</coordinates>
                </LineString>
                <LineString id="9618">
                    <coordinates>13.305146599999999,51.19822617999999,0.0 13.305196479999998,51.1981734,0.0</coordinates>
                </LineString>
                <LineString id="9620">
                    <coordinates>13.305027599999997,51.19836325,0.0 13.30505871,51.19832738000001,0.0</coordinates>
                </LineString>
                <LineString id="9622">
                    <coordinates>13.30513775,51.19823632999999,0.0 13.305146599999999,51.19822617999999,0.0</coordinates>
                </LineString>
                <LineString id="9624">
                    <coordinates>13.305080449999997,51.19830115999998,0.0 13.30513775,51.19823632999999,0.0</coordinates>
                </LineString>
                <LineString id="9626">
                    <coordinates>13.304761390000001,51.198851809999994,0.0 13.30484124,51.198667220000004,0.0 13.304927310000002,51.198466899999985,0.0 13.305027599999997,51.19836325,0.0</coordinates>
                </LineString>
                <LineString id="9628">
                    <coordinates>13.304563029999995,51.19911147999999,0.0 13.304731909999997,51.198930869999984,0.0 13.304761390000001,51.198851809999994,0.0</coordinates>
                </LineString>
                <LineString id="9630">
                    <coordinates>13.304552449999996,51.19912261999999,0.0 13.304563029999995,51.19911147999999,0.0</coordinates>
                </LineString>
                <LineString id="9632">
                    <coordinates>13.304545239999998,51.199128749999986,0.0 13.304552449999996,51.19912261999999,0.0</coordinates>
                </LineString>
                <LineString id="9634">
                    <coordinates>13.304399370000002,51.19938437999997,0.0 13.30445527,51.19926863999999,0.0</coordinates>
                </LineString>
                <LineString id="9636">
                    <coordinates>13.30447401,51.19923612,0.0 13.30451994,51.19915925,0.0 13.304545239999998,51.199128749999986,0.0</coordinates>
                </LineString>
                <LineString id="9638">
                    <coordinates>13.304342589999997,51.199571799999994,0.0 13.304390259999996,51.19946814999999,0.0 13.304369209999999,51.19946204,0.0 13.304399370000002,51.19938437999997,0.0</coordinates>
                </LineString>
                <LineString id="9640">
                    <coordinates>13.304214459999999,51.19983452999998,0.0 13.304323419999998,51.19960825999999,0.0 13.304342589999997,51.199571799999994,0.0</coordinates>
                </LineString>
                <LineString id="9642">
                    <coordinates>13.304151859999996,51.19996248999998,0.0 13.304214459999999,51.19983452999998,0.0</coordinates>
                </LineString>
                <LineString id="9644">
                    <coordinates>13.30505871,51.19832738000001,0.0 13.305080449999997,51.19830115999998,0.0</coordinates>
                </LineString>
                <LineString id="9646">
                    <coordinates>13.306895179999998,51.195813999999984,0.0 13.30680286,51.19573152999999,0.0</coordinates>
                </LineString>
                <LineString id="9648">
                    <coordinates>13.312735009999999,51.19614398999999,0.0 13.312756769999998,51.196133539999984,0.0</coordinates>
                </LineString>
                <LineString id="9650">
                    <coordinates>13.30918027,51.19965095999999,0.0 13.309220669999998,51.19959461999999,0.0 13.309353069999998,51.199485319999994,0.0 13.309441499999998,51.199368459999995,0.0</coordinates>
                </LineString>
                <LineString id="9652">
                    <coordinates>13.307643359999998,51.20299978,0.0 13.307711019999998,51.202915469999986,0.0 13.30775877,51.20280693,0.0</coordinates>
                </LineString>
                <LineString id="9654">
                    <coordinates>13.309811979999996,51.194840249999984,0.0 13.30969786,51.19483594999999,0.0 13.30966176,51.19482988999999,0.0 13.309635219999997,51.19481533999999,0.0 13.30962733,51.19479908999999,0.0 13.30963472,51.19475553999999,0.0</coordinates>
                </LineString>
                <LineString id="9656">
                    <coordinates>13.309096008796507,51.203890199244256,0.0 13.309131462244148,51.20382355902793,0.0</coordinates>
                </LineString>
                <LineString id="9658">
                    <coordinates>13.311860399999999,51.19673190999998,0.0 13.31186159,51.19672609999999,0.0</coordinates>
                </LineString>
                <LineString id="9660">
                    <coordinates>13.309402339999998,51.19361101999999,0.0 13.309422479999997,51.19358165999999,0.0 13.309443509999996,51.19355501999999,0.0 13.309444879999997,51.193548509999985,0.0 13.309426579999998,51.19353117000001,0.0</coordinates>
                </LineString>
                <LineString id="9662">
                    <coordinates>13.31185758,51.19674175,0.0 13.311859199999999,51.19673602999998,0.0</coordinates>
                </LineString>
                <LineString id="9664">
                    <coordinates>13.306755799999998,51.1955108,0.0 13.306758960000002,51.19551685,0.0</coordinates>
                </LineString>
                <LineString id="9666">
                    <coordinates>13.304151859999996,51.19996248999998,0.0 13.304157259999998,51.19996787999998,0.0</coordinates>
                </LineString>
                <LineString id="9668">
                    <coordinates>13.308769039999996,51.20026129999999,0.0 13.308760339999997,51.200276239999994,0.0</coordinates>
                </LineString>
                <LineString id="9670">
                    <coordinates>13.308760339999997,51.200276239999994,0.0 13.308664489999996,51.20043971999999,0.0 13.308641590000002,51.20047231000001,0.0</coordinates>
                </LineString>
                <LineString id="9672">
                    <coordinates>13.372470689999998,51.20441009999999,0.0 13.37266898,51.20431970999999,0.0</coordinates>
                </LineString>
                <LineString id="9674">
                    <coordinates>13.37235206,51.204447759999994,0.0 13.372403689999999,51.204439099999995,0.0 13.372444209999996,51.20441949,0.0 13.372470689999998,51.20441009999999,0.0</coordinates>
                </LineString>
                <LineString id="9676">
                    <coordinates>13.37266898,51.20431970999999,0.0 13.372917599999996,51.20415713,0.0</coordinates>
                </LineString>
                <LineString id="9678">
                    <coordinates>13.374537540000002,51.20352913999999,0.0 13.374544669999999,51.20352606,0.0 13.374549090000002,51.20350967,0.0 13.374564449999998,51.20350869999999,0.0</coordinates>
                </LineString>
                <LineString id="9680">
                    <coordinates>13.37226622,51.20449401999999,0.0 13.37235206,51.204447759999994,0.0</coordinates>
                </LineString>
                <LineString id="9682">
                    <coordinates>13.37224866,51.204384370000014,0.0 13.372286569999998,51.20441992,0.0 13.372321249999997,51.20444047999999,0.0 13.37235206,51.204447759999994,0.0</coordinates>
                </LineString>
                <LineString id="9684">
                    <coordinates>13.37174255,51.20443913999999,0.0 13.37174559,51.2044381,0.0 13.37209506,51.20443879,0.0 13.372176709999998,51.20443893999999,0.0 13.372204899999998,51.20445661,0.0 13.372229400000002,51.20446882,0.0</coordinates>
                </LineString>
                <LineString id="9686">
                    <coordinates>13.372178039999998,51.20550266999998,0.0 13.372184799999998,51.20556497999999,0.0 13.372198609999998,51.2056101,0.0 13.372240759999999,51.20570360000001,0.0 13.372275489999996,51.205715639999994,0.0</coordinates>
                </LineString>
                <LineString id="9688">
                    <coordinates>13.372229400000002,51.20446882,0.0 13.37226622,51.20449401999999,0.0</coordinates>
                </LineString>
                <LineString id="9690">
                    <coordinates>13.372072689999998,51.20484942999999,0.0 13.37210649,51.20499530999999,0.0 13.372123229999994,51.20504012,0.0 13.37215802,51.20508408999998,0.0 13.372173159999994,51.20518626,0.0 13.37215104,51.20522521,0.0 13.372178039999998,51.20550266999998,0.0</coordinates>
                </LineString>
                <LineString id="9692">
                    <coordinates>13.372110250000002,51.20465465000001,0.0 13.37210849,51.204689269999974,0.0 13.372085889999997,51.20474190999999,0.0 13.372073880000002,51.204804280000005,0.0 13.372072689999998,51.20484942999999,0.0</coordinates>
                </LineString>
                <LineString id="9694">
                    <coordinates>13.37226622,51.20449401999999,0.0 13.372228119999997,51.20451407,0.0</coordinates>
                </LineString>
                <LineString id="9696">
                    <coordinates>13.372228119999997,51.20451407,0.0 13.37211465,51.20456708999998,0.0 13.372110250000002,51.20465465000001,0.0</coordinates>
                </LineString>
                <LineString id="9698">
                    <coordinates>13.372934819999996,51.20561462,0.0 13.37286433,51.20552542,0.0 13.3726698,51.20536198999999,0.0 13.372680859999997,51.205355259999976,0.0</coordinates>
                </LineString>
                <LineString id="9700">
                    <coordinates>13.372178039999998,51.20550266999998,0.0 13.372292569999999,51.20552633,0.0 13.372558439999997,51.20556917999998,0.0 13.372934819999996,51.20561462,0.0</coordinates>
                </LineString>
                <LineString id="9702">
                    <coordinates>13.373717309999996,51.205615509999994,0.0 13.3737707,51.20560039999999,0.0 13.373817069999998,51.20559088999999,0.0 13.373869889999998,51.20558134000001,0.0 13.373948920000002,51.20557178000001,0.0</coordinates>
                </LineString>
                <LineString id="9704">
                    <coordinates>13.372934819999996,51.20561462,0.0 13.372971299999998,51.20562602999999,0.0 13.37299719,51.20563770999999,0.0 13.373011619999998,51.205644269999986,0.0 13.373177879999998,51.20577891999999,0.0 13.373247559999998,51.20580292,0.0 13.373327379999996,51.20581151999999,0.0 13.373400919999996,51.205808149999996,0.0 13.37344254,51.2058049,0.0 13.373491939999996,51.20579393999999,0.0 13.373564789999998,51.20577341,0.0 13.373636620000001,51.20574836,0.0 13.373697259999998,51.20570784999999,0.0 13.373716329999999,51.205674120000005,0.0 13.373717309999996,51.205615509999994,0.0</coordinates>
                </LineString>
                <LineString id="9706">
                    <coordinates>13.373717309999996,51.205615509999994,0.0 13.37370668,51.20557379,0.0 13.373680859999999,51.20554292999999,0.0 13.373582759999996,51.20544186999998,0.0 13.373583429999998,51.20539585999999,0.0 13.373567089999996,51.205375399999994,0.0 13.37352187,51.20532721,0.0 13.37335727,51.205220369999985,0.0</coordinates>
                </LineString>
                <LineString id="9708">
                    <coordinates>13.37997436,51.19758719,0.0 13.379926279999996,51.197645989999984,0.0</coordinates>
                </LineString>
                <LineString id="9710">
                    <coordinates>13.379926279999996,51.197645989999984,0.0 13.379925799999999,51.19769549,0.0 13.379996539999999,51.19772355999999,0.0 13.379982709999998,51.19774013999999,0.0</coordinates>
                </LineString>
                <LineString id="9712">
                    <coordinates>13.378946619999999,51.19741573000001,0.0 13.378950809999997,51.19744122,0.0</coordinates>
                </LineString>
                <LineString id="9714">
                    <coordinates>13.378946619999999,51.19741573000001,0.0 13.378918809999998,51.19743526,0.0</coordinates>
                </LineString>
                <LineString id="9716">
                    <coordinates>13.378988559999998,51.19733911,0.0 13.378956759999998,51.197381879999995,0.0 13.378946619999999,51.19741573000001,0.0</coordinates>
                </LineString>
                <LineString id="9718">
                    <coordinates>13.377012039999997,51.19747441999999,0.0 13.376601439999998,51.19760051,0.0 13.376269399999998,51.19770282,0.0 13.375961699999998,51.197795909999996,0.0 13.37584723,51.19783249,0.0 13.375663200000002,51.197882719999996,0.0 13.375437329999999,51.19794267999998,0.0 13.375271699999999,51.197976790000006,0.0 13.37496785,51.19804010999999,0.0 13.37474616,51.1980805,0.0 13.374640160000002,51.19809990000001,0.0 13.37455518,51.19810593999999,0.0 13.37445432,51.198111440000005,0.0 13.374284989999996,51.19810661999999,0.0 13.373962819999997,51.19806793999999,0.0 13.373638929999998,51.19802312000001,0.0 13.373520579999996,51.19801063999999,0.0</coordinates>
                </LineString>
                <LineString id="9720">
                    <coordinates>13.370762949999998,51.19777449999997,0.0 13.370719289999998,51.19773047999997,0.0 13.370680639999998,51.19767143999999,0.0 13.370665680000002,51.19763059000001,0.0 13.37066132,51.19756898999999,0.0 13.37066231,51.19749363999999,0.0 13.370661309999997,51.197352179999996,0.0 13.370652449999996,51.19727855000001,0.0</coordinates>
                </LineString>
                <LineString id="9722">
                    <coordinates>13.37023479,51.19679928999999,0.0 13.370391019999996,51.19671736,0.0 13.370371429999997,51.196693269999976,0.0</coordinates>
                </LineString>
                <LineString id="9724">
                    <coordinates>13.372354689999998,51.197876640000004,0.0 13.372173689999999,51.19786558,0.0 13.371995450000002,51.197853499999994,0.0 13.371640149999994,51.19784322999998,0.0 13.37139979,51.197846659999996,0.0 13.37121038,51.19785153,0.0 13.371068089999998,51.1978433,0.0 13.370907129999997,51.19782449,0.0</coordinates>
                </LineString>
                <LineString id="9726">
                    <coordinates>13.370762949999998,51.19777449999997,0.0 13.370742309999997,51.19779208999999,0.0 13.370742009999997,51.19791028000001,0.0 13.370818949999999,51.1979157,0.0</coordinates>
                </LineString>
                <LineString id="9728">
                    <coordinates>13.370770289999998,51.1977688,0.0 13.370762949999998,51.19777449999997,0.0</coordinates>
                </LineString>
                <LineString id="9730">
                    <coordinates>13.371124189999998,51.19828550999999,0.0 13.371166649999996,51.198338969999995,0.0 13.371245569999997,51.198423509999984,0.0</coordinates>
                </LineString>
                <LineString id="9732">
                    <coordinates>13.371245569999997,51.198423509999984,0.0 13.37136563,51.19842747999997,0.0</coordinates>
                </LineString>
                <LineString id="9734">
                    <coordinates>13.371030379999999,51.19817301,0.0 13.371124189999998,51.19828550999999,0.0</coordinates>
                </LineString>
                <LineString id="9736">
                    <coordinates>13.370818949999999,51.1979157,0.0 13.37095452,51.19808283999999,0.0 13.371030379999999,51.19817301,0.0</coordinates>
                </LineString>
                <LineString id="9738">
                    <coordinates>13.370748429999999,51.19928756,0.0 13.3706604,51.19937956999999,0.0 13.37057473,51.19945790999999,0.0 13.3705551,51.199487360000006,0.0 13.370423029999998,51.199654359999975,0.0</coordinates>
                </LineString>
                <LineString id="9740">
                    <coordinates>13.371330659999996,51.198771619999995,0.0 13.371256069999998,51.19885527999998,0.0 13.37118467,51.19893310999999,0.0 13.37101594,51.199050689999986,0.0 13.37091723,51.19912730000001,0.0 13.370810729999999,51.19923023,0.0 13.370748429999999,51.19928756,0.0</coordinates>
                </LineString>
                <LineString id="9742">
                    <coordinates>13.37136563,51.19842747999997,0.0 13.371404379999996,51.19850233,0.0 13.37140942,51.19854162,0.0 13.371403419999996,51.198613349999995,0.0 13.371386789999999,51.19866874,0.0 13.371330659999996,51.198771619999995,0.0</coordinates>
                </LineString>
                <LineString id="9744">
                    <coordinates>13.370423029999998,51.199654359999975,0.0 13.370222219999999,51.19959896,0.0</coordinates>
                </LineString>
                <LineString id="9746">
                    <coordinates>13.370423029999998,51.199654359999975,0.0 13.37039412,51.199723289999994,0.0 13.370379899999998,51.19976969,0.0 13.370378069999996,51.19983515,0.0 13.370386719999997,51.19988800000001,0.0</coordinates>
                </LineString>
                <LineString id="9748">
                    <coordinates>13.370770289999998,51.1977688,0.0 13.370796519999997,51.19779028999999,0.0 13.370850869999998,51.19781081,0.0 13.370907129999997,51.19782449,0.0</coordinates>
                </LineString>
                <LineString id="9750">
                    <coordinates>13.303335259999999,51.19992105999999,0.0 13.30337801,51.19984010999999,0.0 13.303364368094886,51.199776836326635,0.0 13.303293461199608,51.19967501575438,0.0 13.303246189936088,51.19961392330299,0.0 13.303128011777293,51.19958615398013,0.0 13.302915291091459,51.19953246657513,0.0 13.30289460991367,51.199454712291434,0.0 13.302494999999999,51.199347,0.0</coordinates>
                </LineString>
                <LineString id="9752">
                    <coordinates>13.370008219999999,51.200292879999985,0.0 13.370386719999997,51.19988800000001,0.0</coordinates>
                </LineString>
                <LineString id="9754">
                    <coordinates>13.37266898,51.20431970999999,0.0 13.372867419999997,51.204493959999986,0.0</coordinates>
                </LineString>
                <LineString id="9756">
                    <coordinates>13.37303536,51.20422418,0.0 13.373216649999998,51.204212059999996,0.0</coordinates>
                </LineString>
                <LineString id="9758">
                    <coordinates>13.37377055,51.204020449999994,0.0 13.37389057,51.20408604000001,0.0</coordinates>
                </LineString>
                <LineString id="9760">
                    <coordinates>13.37377055,51.204020449999994,0.0 13.373817619999999,51.20397773999998,0.0</coordinates>
                </LineString>
                <LineString id="9762">
                    <coordinates>13.37303536,51.20422418,0.0 13.373212949999997,51.20416688,0.0 13.37332299,51.20413685999998,0.0 13.37377055,51.204020449999994,0.0</coordinates>
                </LineString>
                <LineString id="9764">
                    <coordinates>13.374432579999997,51.20362158999999,0.0 13.374513440000001,51.20371795999999,0.0</coordinates>
                </LineString>
                <LineString id="9766">
                    <coordinates>13.374234009999999,51.204014519999994,0.0 13.374432579999997,51.20362158999999,0.0</coordinates>
                </LineString>
                <LineString id="9768">
                    <coordinates>13.374182939999999,51.20407029,0.0 13.374234009999999,51.204014519999994,0.0</coordinates>
                </LineString>
                <LineString id="9770">
                    <coordinates>13.374082059999997,51.20417965999999,0.0 13.374182939999999,51.20407029,0.0</coordinates>
                </LineString>
                <LineString id="9772">
                    <coordinates>13.373978550000002,51.204435260000004,0.0 13.3739541,51.20436877,0.0</coordinates>
                </LineString>
                <LineString id="9774">
                    <coordinates>13.374082059999997,51.20417965999999,0.0 13.373978550000002,51.204435260000004,0.0</coordinates>
                </LineString>
                <LineString id="9776">
                    <coordinates>13.373899339999996,51.204533749999975,0.0 13.373978550000002,51.204435260000004,0.0</coordinates>
                </LineString>
                <LineString id="9778">
                    <coordinates>13.373967279999999,51.20455568999999,0.0 13.373978550000002,51.204435260000004,0.0</coordinates>
                </LineString>
                <LineString id="9780">
                    <coordinates>13.370399669999996,51.19671288,0.0 13.370371429999997,51.196693269999976,0.0</coordinates>
                </LineString>
                <LineString id="9782">
                    <coordinates>13.370577039999997,51.19683617999999,0.0 13.370399669999996,51.19671288,0.0</coordinates>
                </LineString>
                <LineString id="9784">
                    <coordinates>13.372295469999997,51.20572842999999,0.0 13.372275489999996,51.205715639999994,0.0</coordinates>
                </LineString>
                <LineString id="9786">
                    <coordinates>13.372688479999999,51.205338420000004,0.0 13.372680859999997,51.205355259999976,0.0</coordinates>
                </LineString>
                <LineString id="9788">
                    <coordinates>13.371683899999999,51.204513760000005,0.0 13.371724609999998,51.20445962,0.0</coordinates>
                </LineString>
                <LineString id="9790">
                    <coordinates>13.372889169999999,51.204517499999994,0.0 13.372867419999997,51.204493959999986,0.0</coordinates>
                </LineString>
                <LineString id="9792">
                    <coordinates>13.373267109999999,51.204209750000004,0.0 13.373216649999998,51.204212059999996,0.0</coordinates>
                </LineString>
                <LineString id="9794">
                    <coordinates>13.37294019,51.20414037,0.0 13.372917599999996,51.20415713,0.0</coordinates>
                </LineString>
                <LineString id="9796">
                    <coordinates>13.3739855,51.205585809999995,0.0 13.373948920000002,51.20557178000001,0.0</coordinates>
                </LineString>
                <LineString id="9798">
                    <coordinates>13.373871719999999,51.20456155,0.0 13.373899339999996,51.204533749999975,0.0</coordinates>
                </LineString>
                <LineString id="9800">
                    <coordinates>13.373964739999996,51.20460692999999,0.0 13.373967279999999,51.20455568999999,0.0</coordinates>
                </LineString>
                <LineString id="9802">
                    <coordinates>13.373939069999999,51.20434571999999,0.0 13.3739541,51.20436877,0.0</coordinates>
                </LineString>
                <LineString id="9804">
                    <coordinates>13.373920750000002,51.204100499999996,0.0 13.37389057,51.20408604000001,0.0</coordinates>
                </LineString>
                <LineString id="9806">
                    <coordinates>13.374200559999998,51.20406123,0.0 13.374182939999999,51.20407029,0.0</coordinates>
                </LineString>
                <LineString id="9808">
                    <coordinates>13.374537709999998,51.20373756999999,0.0 13.374513440000001,51.20371795999999,0.0</coordinates>
                </LineString>
                <LineString id="9810">
                    <coordinates>13.374611719999999,51.20350439,0.0 13.374564449999998,51.20350869999999,0.0</coordinates>
                </LineString>
                <LineString id="9812">
                    <coordinates>13.373837919999998,51.203960939999995,0.0 13.373817619999999,51.20397773999998,0.0</coordinates>
                </LineString>
                <LineString id="9814">
                    <coordinates>13.36999451,51.20031608,0.0 13.370008219999999,51.200292879999985,0.0</coordinates>
                </LineString>
                <LineString id="9816">
                    <coordinates>13.38002215,51.19779695,0.0 13.379982709999998,51.19774013999999,0.0</coordinates>
                </LineString>
                <LineString id="9818">
                    <coordinates>13.37898781,51.19750194,0.0 13.378950809999997,51.19744122,0.0</coordinates>
                </LineString>
                <LineString id="9820">
                    <coordinates>13.378826819999999,51.1974689,0.0 13.378918809999998,51.19743526,0.0</coordinates>
                </LineString>
                <LineString id="9822">
                    <coordinates>13.370171199999996,51.19687738,0.0 13.37023479,51.19679928999999,0.0</coordinates>
                </LineString>
                <LineString id="9824">
                    <coordinates>13.309848489999998,51.19487849,0.0 13.309811979999996,51.194840249999984,0.0</coordinates>
                </LineString>
                <LineString id="9826">
                    <coordinates>13.310720839999998,51.194695669999994,0.0 13.310811359999999,51.19469236999999,0.0 13.311022179999998,51.194686569999995,0.0 13.311425889999999,51.19467366999999,0.0 13.311524829999994,51.194669939999976,0.0 13.311597629999996,51.19467919999999,0.0 13.311704449999997,51.194687429999995,0.0 13.31183363,51.19465488999999,0.0</coordinates>
                </LineString>
                <LineString id="9828">
                    <coordinates>13.371724609999998,51.20445962,0.0 13.37172969,51.20444365000001,0.0 13.37174255,51.20443913999999,0.0</coordinates>
                </LineString>
                <LineString id="9830">
                    <coordinates>13.30822347,51.200904949999995,0.0 13.308258109999999,51.20087167999999,0.0</coordinates>
                </LineString>
                <LineString id="9832">
                    <coordinates>13.310328059999998,51.19817099,0.0 13.310331999999999,51.19816232999999,0.0</coordinates>
                </LineString>
                <LineString id="9834">
                    <coordinates>13.310319299999998,51.198189909999996,0.0 13.310328059999998,51.19817099,0.0</coordinates>
                </LineString>
                <LineString id="9836">
                    <coordinates>13.373520579999996,51.19801063999999,0.0 13.373267499999999,51.19797646000001,0.0 13.373042779999995,51.197949999999985,0.0 13.372775579999999,51.19792268999999,0.0 13.372687410000001,51.19791229999999,0.0 13.372433669999998,51.19788136999999,0.0 13.372354689999998,51.197876640000004,0.0</coordinates>
                </LineString>
                <LineString id="9838">
                    <coordinates>13.304157259999998,51.19996787999998,0.0 13.304083579999997,51.200115389999986,0.0</coordinates>
                </LineString>
                <LineString id="9840">
                    <coordinates>13.304083579999997,51.200115389999986,0.0 13.303335259999999,51.19992105999999,0.0</coordinates>
                </LineString>
                <LineString id="9842">
                    <coordinates>13.374432579999997,51.20362158999999,0.0 13.37447137,51.20359277,0.0 13.37448332,51.20355268,0.0 13.374537540000002,51.20352913999999,0.0</coordinates>
                </LineString>
                <LineString id="9844">
                    <coordinates>13.311868639999998,51.194644639999986,0.0 13.311882689999997,51.19464251,0.0</coordinates>
                </LineString>
                <LineString id="9846">
                    <coordinates>13.307410639999999,51.193266900000005,0.0 13.307350249999997,51.19327900999998,0.0 13.307278469999998,51.19329342999998,0.0 13.307209160000001,51.19331012,0.0 13.307146529999997,51.193322910000006,0.0 13.30709282,51.193334979999996,0.0 13.307064569999998,51.19333884,0.0 13.307051239999998,51.193342929999986,0.0 13.30694369,51.1933732,0.0 13.30682707,51.19340978999998,0.0 13.30680299,51.19341729999999,0.0 13.306754009999999,51.19343667,0.0 13.306569699999999,51.19350798999999,0.0 13.30638172,51.19357774999999,0.0</coordinates>
                </LineString>
                <LineString id="9848">
                    <coordinates>13.307410639999999,51.193266900000005,0.0 13.307423839999997,51.193264939999985,0.0 13.307437979999998,51.19326088999999,0.0 13.307439339999998,51.19325978,0.0</coordinates>
                </LineString>
                <LineString id="9850">
                    <coordinates>13.309426579999998,51.19353117000001,0.0 13.309419440000001,51.193519869999996,0.0 13.30936647,51.193504489999995,0.0 13.309249269999999,51.19347041999998,0.0 13.30920683,51.19346071,0.0 13.309140929999998,51.193439299999994,0.0 13.30913105,51.19343606,0.0 13.309052160000002,51.19341689000001,0.0 13.308931769999997,51.19338787999999,0.0 13.30885085,51.19336845999999,0.0 13.308646439999999,51.19332992,0.0 13.308436079999996,51.19330031999998,0.0 13.308227389999999,51.19326897999999,0.0 13.308018830000002,51.19323529,0.0 13.3079373,51.19322484,0.0 13.307853099999999,51.19321391,0.0 13.30780418,51.19321177,0.0 13.307786610000003,51.19320814,0.0</coordinates>
                </LineString>
                <LineString id="9852">
                    <coordinates>13.307786610000003,51.19320814,0.0 13.307765819999998,51.19320548000001,0.0 13.307726280000002,51.19320344999998,0.0 13.307630160000002,51.193211129999995,0.0 13.307544689999999,51.1932303,0.0 13.307466149999998,51.19324807999998,0.0 13.307457880000001,51.193251079999996,0.0 13.307450889999997,51.19325463999997,0.0 13.307439339999998,51.19325978,0.0</coordinates>
                </LineString>
                <LineString id="9854">
                    <coordinates>13.30638172,51.19357774999999,0.0 13.306299659999999,51.19360961999999,0.0 13.306198199999999,51.19364875000001,0.0 13.30600915,51.193716039999984,0.0 13.305936079999997,51.19374368,0.0 13.305917129999997,51.1937518,0.0 13.305883079999997,51.193769929999995,0.0 13.30584027,51.19379741,0.0 13.305809649999997,51.19381710999999,0.0 13.30578569,51.193837959999996,0.0 13.30574675,51.19387559999999,0.0 13.305725099999998,51.19391412999999,0.0</coordinates>
                </LineString>
                <LineString id="9856">
                    <coordinates>13.305725099999998,51.19391412999999,0.0 13.30572147,51.19392049999999,0.0</coordinates>
                </LineString>
                <LineString id="9858">
                    <coordinates>13.305849869999998,51.197252840000004,0.0 13.305926,51.19704335999999,0.0 13.305959209999997,51.1969576,0.0 13.305960289999996,51.19695444,0.0</coordinates>
                </LineString>
                <LineString id="9860">
                    <coordinates>13.381665189999996,51.198217070000005,0.0 13.38148569,51.198166779999994,0.0 13.38124705,51.19809911,0.0 13.38108183,51.19802816,0.0</coordinates>
                </LineString>
                <LineString id="9862">
                    <coordinates>13.378999859999999,51.19732409,0.0 13.37900702,51.197325340000006,0.0 13.379049059999998,51.19733277,0.0 13.379113630000003,51.19735026,0.0 13.379215519999999,51.19737108,0.0 13.37929037,51.197386589999994,0.0 13.379369979999998,51.19740871999999,0.0 13.379431999999998,51.197422849999995,0.0</coordinates>
                </LineString>
                <LineString id="9864">
                    <coordinates>13.377012039999997,51.19747441999999,0.0 13.37706278,51.197461399999995,0.0 13.37708772,51.19745498,0.0 13.377127849999999,51.197443039999996,0.0 13.37716533,51.19743196,0.0 13.377202969999997,51.197420789999995,0.0 13.37724816,51.19741117000001,0.0 13.377354509999998,51.197388290000006,0.0 13.377395609999999,51.19737948999999,0.0 13.37743701,51.197370590000006,0.0 13.377498889999996,51.19735956999998,0.0 13.37756749,51.197347379999975,0.0 13.37761667,51.19733866,0.0 13.37768061,51.197329509999996,0.0 13.377744989999998,51.197320269999985,0.0 13.377793599999999,51.197313939999994,0.0 13.377840309999998,51.19730783999999,0.0 13.378001399999999,51.19729207999999,0.0 13.37809755,51.19728259000001,0.0 13.378206759999998,51.19727184999999,0.0 13.378262810000003,51.19726628,0.0 13.378341629999996,51.19726434999997,0.0 13.378426939999997,51.19726234,0.0 13.378473649999998,51.197261160000004,0.0 13.378567029999997,51.19726476,0.0 13.378665509999996,51.19727547999999,0.0 13.378849009999996,51.19730089999999,0.0 13.378934339999999,51.197312429999975,0.0 13.378999859999999,51.19732409,0.0</coordinates>
                </LineString>
                <LineString id="9866">
                    <coordinates>13.378988559999998,51.19733911,0.0 13.378999859999999,51.19732409,0.0</coordinates>
                </LineString>
                <LineString id="9868">
                    <coordinates>13.37997436,51.19758719,0.0 13.379977749999998,51.19758291999999,0.0</coordinates>
                </LineString>
                <LineString id="9870">
                    <coordinates>13.379431999999998,51.197422849999995,0.0 13.3794452,51.19742587999999,0.0 13.379503909999999,51.19743931000001,0.0 13.379579749999996,51.19745671999999,0.0 13.37964633,51.19747482000001,0.0 13.3797578,51.19750526,0.0 13.37983772,51.19752709,0.0 13.37993917,51.19756567999999,0.0 13.379977749999998,51.19758291999999,0.0</coordinates>
                </LineString>
                <LineString id="9872">
                    <coordinates>13.379977749999998,51.19758291999999,0.0 13.38004845,51.19761448999999,0.0 13.380230109999996,51.19769573999999,0.0 13.380318139999998,51.197730629999995,0.0 13.380411719999998,51.197767719999995,0.0 13.380466809999996,51.19779230999999,0.0 13.380524269999999,51.19781529999999,0.0 13.380553959999999,51.197828649999984,0.0 13.38059647,51.19784775,0.0 13.380637279999998,51.197863969999986,0.0 13.380706449999996,51.197891459999994,0.0 13.380785329999998,51.19792890999999,0.0 13.380862399999998,51.197960069999986,0.0 13.380922709999998,51.19798453,0.0 13.380934939999998,51.19798787,0.0</coordinates>
                </LineString>
                <LineString id="9874">
                    <coordinates>13.380934939999998,51.19798787,0.0 13.38100311,51.19800666999999,0.0 13.38108183,51.19802816,0.0</coordinates>
                </LineString>
                <LineString id="9876">
                    <coordinates>13.370222219999999,51.19959896,0.0 13.370209209999999,51.199616160000005,0.0 13.37020192,51.19961683999999,0.0 13.37018159,51.19960019999998,0.0 13.370090919999999,51.19952501,0.0 13.370188730000002,51.19944122,0.0</coordinates>
                </LineString>
                <LineString id="9878">
                    <coordinates>13.370188730000002,51.19944122,0.0 13.370205659999998,51.19942698999999,0.0</coordinates>
                </LineString>
                <LineString id="9880">
                    <coordinates>13.310518640000002,51.19776162000001,0.0 13.310539980000001,51.19771971,0.0</coordinates>
                </LineString>
                <LineString id="9882">
                    <coordinates>13.30692193,51.195697679999995,0.0 13.306860479999997,51.19566042999998,0.0</coordinates>
                </LineString>
                <LineString id="9884">
                    <coordinates>13.30680616,51.19562539999998,0.0 13.306808749999998,51.19563135,0.0 13.306860479999997,51.19566042999998,0.0</coordinates>
                </LineString>
                <LineString id="9886">
                    <coordinates>13.306758960000002,51.19551685,0.0 13.306764549999997,51.195527189999986,0.0 13.306775439999996,51.19555337999999,0.0 13.306780479999997,51.19556528,0.0</coordinates>
                </LineString>
                <LineString id="9888">
                    <coordinates>13.306288659999996,51.19482151999999,0.0 13.306262549999996,51.19477598999999,0.0 13.306221159999996,51.194712259999996,0.0 13.306144249999997,51.19459238,0.0 13.306105149999999,51.194525779999985,0.0 13.306054869999999,51.19446459,0.0 13.306003300000002,51.19440171000001,0.0 13.30595337,51.19434182999999,0.0 13.305900420000002,51.19428167,0.0 13.305847649999999,51.194219649999994,0.0 13.30579642,51.194165739999995,0.0 13.305758399999997,51.19411942,0.0 13.30575144,51.19410460000001,0.0 13.305743309999997,51.19406577,0.0 13.30571865,51.19403745,0.0 13.305725859999999,51.194015279999995,0.0 13.305715009999998,51.193951899999995,0.0 13.30572147,51.19392049999999,0.0</coordinates>
                </LineString>
                <LineString id="9890">
                    <coordinates>13.306288659999996,51.19482151999999,0.0 13.30630097,51.194839559999984,0.0 13.30630005,51.19484139999999,0.0</coordinates>
                </LineString>
                <LineString id="9892">
                    <coordinates>13.370386719999997,51.19988800000001,0.0 13.370405669999998,51.20001109999999,0.0 13.37044983,51.20017414,0.0 13.37049417,51.20025213,0.0 13.370515579999998,51.20033322,0.0 13.370563329999998,51.20049490999999,0.0 13.370598399999997,51.20059737999999,0.0 13.370654810000001,51.20071469999999,0.0 13.370595089999998,51.20073444,0.0 13.37078513,51.20103354999999,0.0 13.37087138,51.20116917,0.0 13.370984249999998,51.20135080999999,0.0 13.371104719999998,51.20151474,0.0 13.371317519999996,51.20178988,0.0 13.371596759999997,51.20205242000001,0.0 13.371695749999997,51.202152509999976,0.0 13.37180063,51.202278340000014,0.0 13.371869179999997,51.20237531999998,0.0 13.37191196,51.20244228,0.0 13.371964819999999,51.20254834,0.0 13.372012459999997,51.20266119999999,0.0 13.372059329999997,51.20287517999999,0.0 13.372085809999998,51.20305329999999,0.0 13.37209627,51.20323826,0.0 13.372098509999999,51.20334534,0.0 13.372093179999998,51.2040022,0.0 13.372115450000003,51.204198260000005,0.0 13.37210559,51.204250300000005,0.0 13.37224866,51.204384370000014,0.0</coordinates>
                </LineString>
                <LineString id="9894">
                    <coordinates>13.372077909999996,51.204842019999994,0.0 13.372201650000001,51.20477349000001,0.0 13.372215589999996,51.204785759999986,0.0</coordinates>
                </LineString>
                <LineString id="9896">
                    <coordinates>13.372215589999996,51.204785759999986,0.0 13.37224189,51.20481038000001,0.0</coordinates>
                </LineString>
                <LineString id="9898">
                    <coordinates>13.372072689999998,51.20484942999999,0.0 13.372077909999996,51.204842019999994,0.0</coordinates>
                </LineString>
                <LineString id="9900">
                    <coordinates>13.310282459999998,51.19828610999999,0.0 13.310283899999998,51.198281390000005,0.0</coordinates>
                </LineString>
                <LineString id="9902">
                    <coordinates>13.306780479999997,51.19556528,0.0 13.306802110000001,51.195615829999994,0.0</coordinates>
                </LineString>
                <LineString id="9904">
                    <coordinates>13.306802110000001,51.195615829999994,0.0 13.30680616,51.19562539999998,0.0</coordinates>
                </LineString>
                <LineString id="9906">
                    <coordinates>13.374526000000001,51.203472,0.0 13.374564449999998,51.20350869999999,0.0</coordinates>
                </LineString>
                <LineString id="9908">
                    <coordinates>13.372589,51.20505499999999,0.0 13.372643009999999,51.20523154,0.0</coordinates>
                </LineString>
                <LineString id="9910">
                    <coordinates>13.373315999999999,51.205047,0.0 13.37335727,51.205220369999985,0.0</coordinates>
                </LineString>
                <LineString id="9912">
                    <coordinates>13.373098999999998,51.20485599999999,0.0 13.372992299999996,51.20468919000001,0.0</coordinates>
                </LineString>
                <LineString id="9914">
                    <coordinates>13.372737999999998,51.20463699999998,0.0 13.372867419999997,51.204493959999986,0.0</coordinates>
                </LineString>
                <LineString id="9916">
                    <coordinates>13.372643009999999,51.20523154,0.0 13.372680859999997,51.205355259999976,0.0</coordinates>
                </LineString>
                <LineString id="9918">
                    <coordinates>13.372992299999996,51.20468919000001,0.0 13.372867419999997,51.204493959999986,0.0</coordinates>
                </LineString>
                <LineString id="9920">
                    <coordinates>13.303455423025136,51.197115662726695,0.0 13.303274199057455,51.197105471197744,0.0</coordinates>
                </LineString>
                <LineString id="9922">
                    <coordinates>13.305971289999999,51.19692220000001,0.0 13.3055023245063,51.19718263557517,0.0 13.303455423025136,51.197115662726695,0.0</coordinates>
                </LineString>
                <LineString id="9924">
                    <coordinates>13.402483979999998,51.19684588999999,0.0 13.402475259999997,51.19684126999999,0.0 13.402337749999997,51.19681890999998,0.0 13.402313729999998,51.196814969999984,0.0 13.402221100000002,51.19680303,0.0 13.402115689999999,51.19678952000001,0.0 13.402039449999997,51.19677978999999,0.0 13.402022299999995,51.19678063999999,0.0</coordinates>
                </LineString>
                <LineString id="9926">
                    <coordinates>13.40271493,51.196886760000005,0.0 13.402483979999998,51.19684588999999,0.0</coordinates>
                </LineString>
                <LineString id="9928">
                    <coordinates>13.402896359999998,51.19692696999999,0.0 13.402895810000002,51.19691939999999,0.0 13.40271493,51.196886760000005,0.0</coordinates>
                </LineString>
                <LineString id="9930">
                    <coordinates>13.400618129999998,51.19678065,0.0 13.4006099,51.19677792999998,0.0 13.40058651,51.19676283999999,0.0</coordinates>
                </LineString>
                <LineString id="9932">
                    <coordinates>13.399167040000002,51.196147079999996,0.0 13.399149709999998,51.19615855999999,0.0</coordinates>
                </LineString>
                <LineString id="9934">
                    <coordinates>13.40058039,51.19676387,0.0 13.40055882,51.19676702999998,0.0 13.400322159999998,51.196665859999996,0.0 13.400128209999997,51.19657578999999,0.0 13.400055719999994,51.19654211999999,0.0 13.399822519999999,51.19643316999999,0.0 13.3996978,51.19637068,0.0 13.39948569,51.19627825,0.0</coordinates>
                </LineString>
                <LineString id="9936">
                    <coordinates>13.399068419999997,51.19613017,0.0 13.39905694,51.19612613999999,0.0 13.398797650000002,51.196038499999986,0.0 13.398543789999996,51.19595867,0.0</coordinates>
                </LineString>
                <LineString id="9938">
                    <coordinates>13.398546209999997,51.19595541000001,0.0 13.3985854,51.19590083,0.0</coordinates>
                </LineString>
                <LineString id="9940">
                    <coordinates>13.39765193,51.19573037,0.0 13.397627209999998,51.19572885000001,0.0 13.397586049999997,51.195726099999995,0.0 13.397538169999999,51.19572440999999,0.0 13.39748956,51.19572398999999,0.0 13.397451480000003,51.19572541000001,0.0 13.397404879999998,51.19572718,0.0 13.397358649999997,51.19573145999998,0.0 13.397277409999996,51.19574042,0.0</coordinates>
                </LineString>
                <LineString id="9942">
                    <coordinates>13.3985854,51.19590083,0.0 13.398460329999999,51.195861799999996,0.0 13.398363559999998,51.19583638999998,0.0 13.39822749,51.1958038,0.0</coordinates>
                </LineString>
                <LineString id="9944">
                    <coordinates>13.39822749,51.1958038,0.0 13.398137929999999,51.19578672000001,0.0 13.398104709999998,51.19578271,0.0</coordinates>
                </LineString>
                <LineString id="9946">
                    <coordinates>13.397965419999998,51.19576575,0.0 13.39765193,51.19573037,0.0</coordinates>
                </LineString>
                <LineString id="9948">
                    <coordinates>13.39697406,51.19577769,0.0 13.396920730000001,51.195783609999985,0.0 13.396697179999999,51.19580897000001,0.0</coordinates>
                </LineString>
                <LineString id="9950">
                    <coordinates>13.396697179999999,51.19580897000001,0.0 13.396633979999999,51.19581239,0.0 13.39629261,51.195839529999986,0.0 13.396170529999997,51.195842690000006,0.0 13.39602213,51.19584753,0.0 13.395901509999996,51.195853479999975,0.0</coordinates>
                </LineString>
                <LineString id="9952">
                    <coordinates>13.395406649999998,51.19591648,0.0 13.39539927,51.195918090000006,0.0</coordinates>
                </LineString>
                <LineString id="9954">
                    <coordinates>13.392307409999999,51.19714985000001,0.0 13.392287069999995,51.19715561999997,0.0 13.392232479999999,51.19715263999999,0.0 13.392156009999995,51.197143669999996,0.0 13.392019179999997,51.197128909999996,0.0 13.391919799999998,51.197117,0.0 13.391817979999999,51.19710057999999,0.0</coordinates>
                </LineString>
                <LineString id="9956">
                    <coordinates>13.392307409999999,51.19714985000001,0.0 13.392306199999998,51.19713419,0.0</coordinates>
                </LineString>
                <LineString id="9958">
                    <coordinates>13.39081821,51.19700531,0.0 13.390923649999998,51.19701051,0.0 13.39095881,51.19701108999999,0.0 13.39107132,51.19701083000001,0.0 13.391103149999998,51.19701423,0.0 13.39116059,51.19701889,0.0 13.391256279999999,51.19702733000001,0.0 13.391396449999998,51.19704097999999,0.0 13.391534619999998,51.197056960000005,0.0 13.3916949,51.197080369999995,0.0 13.391796869999999,51.19709702999998,0.0</coordinates>
                </LineString>
                <LineString id="9960">
                    <coordinates>13.39081821,51.19700531,0.0 13.390647669999998,51.19700242999998,0.0</coordinates>
                </LineString>
                <LineString id="9962">
                    <coordinates>13.389672859999997,51.19707564,0.0 13.389554389999997,51.19709032,0.0</coordinates>
                </LineString>
                <LineString id="9964">
                    <coordinates>13.389672859999997,51.19707564,0.0 13.389723029999999,51.197070759999995,0.0 13.38975148,51.19706517,0.0 13.389850949999998,51.19705300999998,0.0 13.389986679999998,51.19703757999999,0.0</coordinates>
                </LineString>
                <LineString id="9966">
                    <coordinates>13.389370219999998,51.19712255999999,0.0 13.389261509999997,51.19714421,0.0</coordinates>
                </LineString>
                <LineString id="9968">
                    <coordinates>13.38271213,51.198433939999994,0.0 13.382356400000003,51.198361,0.0 13.382087809999996,51.19830438,0.0 13.381826059999998,51.19824767000001,0.0 13.381665189999996,51.198217070000005,0.0</coordinates>
                </LineString>
                <LineString id="9970">
                    <coordinates>13.38383018,51.19863552999998,0.0 13.38372752,51.19862065,0.0 13.383451009999996,51.19858035999998,0.0 13.38323691,51.198542119999985,0.0 13.382988379999999,51.198490389999996,0.0 13.38271213,51.198433939999994,0.0</coordinates>
                </LineString>
                <LineString id="9972">
                    <coordinates>13.402007619999996,51.196780369999985,0.0 13.40199331,51.19677736,0.0 13.401931319999997,51.19677332999998,0.0 13.401822829999999,51.1967717,0.0 13.40168086,51.196772439999975,0.0 13.401557909999998,51.19677108999999,0.0 13.401453819999999,51.19677946,0.0</coordinates>
                </LineString>
                <LineString id="9974">
                    <coordinates>13.398543789999996,51.19595867,0.0 13.398546209999997,51.19595541000001,0.0</coordinates>
                </LineString>
                <LineString id="9976">
                    <coordinates>13.395901509999996,51.195853479999975,0.0 13.39584302,51.19585782,0.0 13.395584670000002,51.19587763999999,0.0 13.395406649999998,51.19591648,0.0</coordinates>
                </LineString>
                <LineString id="9978">
                    <coordinates>13.398104709999998,51.19578271,0.0 13.397965419999998,51.19576575,0.0</coordinates>
                </LineString>
                <LineString id="9980">
                    <coordinates>13.39948569,51.19627825,0.0 13.399485139999998,51.19627787999999,0.0 13.3993364,51.19621413999999,0.0</coordinates>
                </LineString>
                <LineString id="9982">
                    <coordinates>13.3993364,51.19621413999999,0.0 13.399167040000002,51.196147079999996,0.0</coordinates>
                </LineString>
                <LineString id="9984">
                    <coordinates>13.40058651,51.19676283999999,0.0 13.40058039,51.19676387,0.0</coordinates>
                </LineString>
                <LineString id="9986">
                    <coordinates>13.391817979999999,51.19710057999999,0.0 13.39180882,51.197099019999996,0.0 13.391796869999999,51.19709702999998,0.0</coordinates>
                </LineString>
                <LineString id="9988">
                    <coordinates>13.389554389999997,51.19709032,0.0 13.389447539999995,51.197106569999995,0.0 13.38942598,51.19710937,0.0 13.389370219999998,51.19712255999999,0.0</coordinates>
                </LineString>
                <LineString id="9990">
                    <coordinates>13.413987629999998,51.22639028999999,0.0 13.413949529999998,51.22640518,0.0</coordinates>
                </LineString>
                <LineString id="9992">
                    <coordinates>13.414028959999996,51.22637524999999,0.0 13.413987629999998,51.22639028999999,0.0</coordinates>
                </LineString>
                <LineString id="9994">
                    <coordinates>13.397277409999996,51.19574042,0.0 13.39697406,51.19577769,0.0</coordinates>
                </LineString>
                <LineString id="9996">
                    <coordinates>13.41266938,51.23177663,0.0 13.412773259999998,51.23144375999999,0.0 13.412866,51.23109114,0.0 13.412996919999996,51.23056920999999,0.0 13.41318441,51.22980854000001,0.0 13.413527284738032,51.229115411422214,0.0 13.413746670274227,51.22840233354211,0.0 13.413736223343932,51.22814065081475,0.0 13.414477955394872,51.22774812393371,0.0 13.414446614603985,51.22725746062432,0.0 13.414404826882807,51.22668828463171,0.0 13.414094999999998,51.22654228999999,0.0 13.414028959999996,51.22637524999999,0.0</coordinates>
                </LineString>
                <LineString id="9998">
                    <coordinates>13.392317449999998,51.19713230999999,0.0 13.392306199999998,51.19713419,0.0</coordinates>
                </LineString>
                <LineString id="10000">
                    <coordinates>13.39539927,51.195918090000006,0.0 13.39537421,51.19590735999999,0.0</coordinates>
                </LineString>
                <LineString id="10002">
                    <coordinates>13.39537421,51.19590735999999,0.0 13.395337589999999,51.19591946999999,0.0 13.39530426,51.19593552,0.0 13.395272629999997,51.19595276999999,0.0 13.39523932,51.19597028999999,0.0 13.395208009999998,51.195990359999996,0.0 13.395183219999996,51.19601134999999,0.0 13.395157479999998,51.19603317999999,0.0 13.395135869999999,51.19605355000001,0.0 13.395114209999996,51.19607790999999,0.0 13.395095449999998,51.19610277,0.0 13.395082809999996,51.196129299999996,0.0 13.395070159999998,51.19615584999999,0.0 13.395061079999998,51.196181059999994,0.0 13.395050669999998,51.19620671999998,0.0 13.39503086,51.19625913,0.0 13.395020889999998,51.19628525999998,0.0 13.395010789999999,51.19631137,0.0 13.395000269999999,51.196338,0.0 13.394996479999996,51.19634548,0.0 13.394988899999998,51.19636257999998,0.0 13.39497585,51.19638778999999,0.0 13.394962390000002,51.196413709999995,0.0 13.394945279999996,51.196438269999994,0.0 13.394927509999997,51.1964637,0.0 13.39490867,51.19648794,0.0 13.39489769,51.19650008999999,0.0 13.39488747,51.196511609999995,0.0 13.394867909999997,51.19653205999999,0.0 13.394864159999997,51.1965355,0.0 13.394839859999996,51.19655819999999,0.0 13.394815289999999,51.196579869999994,0.0 13.39476044,51.19662288000001,0.0 13.394734429999998,51.19664292999999,0.0 13.394705529999996,51.196662739999994,0.0 13.394677619999998,51.196681909999995,0.0 13.39464834,51.196701949999984,0.0 13.3946189,51.19672323,0.0 13.394590979999997,51.19674345999999,0.0 13.394564379999998,51.196764159999994,0.0 13.394537209999998,51.19678421,0.0 13.394508439999997,51.19680413,0.0 13.394478009999998,51.19682273999999,0.0 13.394428009999999,51.19685173999998,0.0 13.394391169999999,51.196873030000006,0.0 13.39436014,51.19689156,0.0 13.394319639999999,51.19691756999999,0.0 13.394285069999999,51.19695367,0.0 13.39425517,51.196972720000005,0.0 13.394225199999997,51.196989779999996,0.0 13.394192889999998,51.197004339999985,0.0 13.394156149999997,51.197017589999994,0.0 13.394120469999995,51.19703148999999,0.0 13.394083689999997,51.1970458,0.0 13.394045199999999,51.19705843999999,0.0 13.394005689999997,51.19706999,0.0 13.393965899999998,51.19707993,0.0 13.393925669999996,51.19709060999999,0.0 13.393885489999997,51.197100819999996,0.0 13.393845849999998,51.19711097,0.0 13.393805339999998,51.19712194999999,0.0 13.39376622,51.19713198,0.0 13.393722550000001,51.19714081999998,0.0 13.393679799999996,51.197150279999974,0.0 13.393638230000002,51.19715978999999,0.0 13.393596609999996,51.19717023,0.0 13.393555359999995,51.19717903,0.0 13.39351596,51.19718809,0.0 13.39347184,51.1971973,0.0 13.393430460000001,51.19720591999999,0.0 13.393388789999998,51.19721326999999,0.0 13.393347030000001,51.197220869999995,0.0 13.39330709,51.19722815000001,0.0 13.39326292,51.197231679999994,0.0 13.39322095,51.19723569999999,0.0 13.393177369999997,51.19723843,0.0 13.393133849999998,51.19724116,0.0 13.393091029999999,51.19724228999999,0.0 13.393048309999996,51.19724262,0.0 13.39300398,51.197241489999996,0.0 13.392962059999999,51.19723916000001,0.0 13.392918569999999,51.19723457,0.0 13.392877689999995,51.19723020999999,0.0 13.392833479999998,51.1972247,0.0 13.392482,51.197166469999985,0.0</coordinates>
                </LineString>
                <LineString id="10004">
                    <coordinates>13.402896359999998,51.19692696999999,0.0 13.402860409999999,51.19693246999999,0.0</coordinates>
                </LineString>
                <LineString id="10006">
                    <coordinates>13.399149709999998,51.19615855999999,0.0 13.399068419999997,51.19613017,0.0</coordinates>
                </LineString>
                <LineString id="10008">
                    <coordinates>13.402022299999995,51.19678063999999,0.0 13.402007619999996,51.196780369999985,0.0</coordinates>
                </LineString>
                <LineString id="10010">
                    <coordinates>13.381665189999996,51.198217070000005,0.0 13.38148569,51.198166779999994,0.0 13.38124705,51.19809911,0.0 13.38108183,51.19802816,0.0</coordinates>
                </LineString>
                <LineString id="10012">
                    <coordinates>13.401453819999999,51.19677946,0.0 13.40132361,51.19678838,0.0 13.40124288,51.19679384,0.0 13.401129709999998,51.196800749999994,0.0 13.401013399999998,51.19680577999999,0.0 13.40093364,51.196809299999984,0.0 13.400888409999999,51.19680930999998,0.0 13.400835399999997,51.19680047999999,0.0 13.40078587,51.196800639999985,0.0 13.400754989999998,51.19680633,0.0 13.400710200000002,51.196804480000004,0.0 13.400671349999998,51.19679812,0.0 13.40064062,51.196788070000004,0.0 13.400618129999998,51.19678065,0.0</coordinates>
                </LineString>
                <LineString id="10014">
                    <coordinates>13.387435199999997,51.197652319999996,0.0 13.38742103,51.19766351,0.0 13.387328029999997,51.197696929999985,0.0 13.387220079999999,51.19773777999999,0.0 13.387153169999998,51.19777616,0.0 13.387107120000001,51.19779977,0.0 13.387031379999998,51.197844679999996,0.0 13.38695621,51.197889509999996,0.0 13.386852689999998,51.197951729999986,0.0 13.386784490000002,51.19798779999999,0.0 13.386715709999999,51.19802422,0.0 13.38663719,51.19806313999999,0.0 13.386525020000002,51.19811018,0.0 13.386482559999997,51.19812732,0.0 13.38640294,51.198157559999984,0.0 13.386273289999998,51.19820353,0.0 13.38624856,51.19821130999999,0.0 13.386126600000003,51.1982504,0.0 13.385955599999997,51.198304529999994,0.0 13.385795319999998,51.19835567,0.0 13.38564352,51.19840101,0.0 13.385505399999998,51.19844382999999,0.0 13.38538894,51.19847803,0.0 13.38533238,51.19849281999999,0.0 13.385184829999998,51.19853072999999,0.0 13.385061019999998,51.19855826,0.0 13.38495443,51.19857828,0.0 13.384839169999998,51.198596059999986,0.0 13.384684359999998,51.19861881999997,0.0 13.38454545,51.19863244999998,0.0 13.38453091,51.198633820000005,0.0 13.384427939999998,51.198642719999995,0.0 13.384326399999999,51.19864841,0.0 13.384222479999996,51.198650689999994,0.0 13.384112930000002,51.198651659999996,0.0 13.384015750000001,51.19865168,0.0 13.383913149999996,51.19864412999999,0.0 13.38383018,51.19863552999998,0.0</coordinates>
                </LineString>
                <LineString id="10016">
                    <coordinates>13.392482,51.197166469999985,0.0 13.392394709999996,51.19714606999998,0.0 13.392317449999998,51.19713230999999,0.0</coordinates>
                </LineString>
                <LineString id="10018">
                    <coordinates>13.390365170000003,51.197007979999995,0.0 13.390501779999996,51.19700365999998,0.0</coordinates>
                </LineString>
                <LineString id="10020">
                    <coordinates>13.390647669999998,51.19700242999998,0.0 13.390501779999996,51.19700365999998,0.0</coordinates>
                </LineString>
                <LineString id="10022">
                    <coordinates>13.390365170000003,51.197007979999995,0.0 13.390325079999998,51.19701052,0.0 13.390187119999998,51.19701855,0.0 13.390140519999997,51.19702237,0.0 13.39008135,51.19702695,0.0 13.389986679999998,51.19703757999999,0.0</coordinates>
                </LineString>
                <LineString id="10024">
                    <coordinates>13.389261509999997,51.19714421,0.0 13.389229839999995,51.19715329999998,0.0 13.3891776,51.19716371,0.0 13.389127759999997,51.197176539999994,0.0</coordinates>
                </LineString>
                <LineString id="10026">
                    <coordinates>13.389127759999997,51.197176539999994,0.0 13.38904816,51.19719822,0.0</coordinates>
                </LineString>
                <LineString id="10028">
                    <coordinates>13.38899717,51.19721538999998,0.0 13.388874169999998,51.197265869999995,0.0</coordinates>
                </LineString>
                <LineString id="10030">
                    <coordinates>13.38904816,51.19719822,0.0 13.389028359999998,51.19720366999997,0.0 13.38899717,51.19721538999998,0.0</coordinates>
                </LineString>
                <LineString id="10032">
                    <coordinates>13.38797306,51.197557199999984,0.0 13.387917019999996,51.197564749999984,0.0 13.38780659,51.19758004999999,0.0 13.38770994,51.19759506999999,0.0 13.387642619999998,51.1976091,0.0 13.38757907,51.19762380999999,0.0 13.3875359,51.197634299999976,0.0 13.38745833,51.19765474,0.0 13.387435199999997,51.197652319999996,0.0</coordinates>
                </LineString>
                <LineString id="10034">
                    <coordinates>13.388874169999998,51.197265869999995,0.0 13.388812279999998,51.197292940000004,0.0 13.388786869999997,51.19730413999999,0.0 13.3886877,51.197349249999995,0.0 13.388556289999999,51.19740898999999,0.0 13.38846686,51.197444609999984,0.0 13.388432069999997,51.19745650999999,0.0 13.38834655,51.197483430000005,0.0 13.388262999999998,51.197504669999994,0.0 13.38818768,51.19752135999998,0.0 13.388168479999997,51.19752514999999,0.0 13.3881086,51.197536849999985,0.0 13.3879949,51.19755424,0.0 13.38797306,51.197557199999984,0.0</coordinates>
                </LineString>
            </MultiGeometry>
        </Placemark>
        <Placemark id="10041">
            <name>MultiPoint</name>
            <styleUrl>#10104</styleUrl>
            <MultiGeometry id="10040">
                <Point id="10042">
                    <coordinates>13.374611719999995,51.20350439,0.0</coordinates>
                </Point>
                <Point id="10044">
                    <coordinates>13.373267109999995,51.204209750000004,0.0</coordinates>
                </Point>
                <Point id="10046">
                    <coordinates>13.372889169999997,51.20451749999999,0.0</coordinates>
                </Point>
                <Point id="10048">
                    <coordinates>13.371683899999995,51.204513760000005,0.0</coordinates>
                </Point>
                <Point id="10050">
                    <coordinates>13.372241889999996,51.20481038000001,0.0</coordinates>
                </Point>
                <Point id="10052">
                    <coordinates>13.372295469999997,51.20572842999999,0.0</coordinates>
                </Point>
                <Point id="10054">
                    <coordinates>13.372688479999999,51.205338420000004,0.0</coordinates>
                </Point>
                <Point id="10056">
                    <coordinates>13.3739855,51.20558580999999,0.0</coordinates>
                </Point>
                <Point id="10058">
                    <coordinates>13.374537709999998,51.20373756999999,0.0</coordinates>
                </Point>
                <Point id="10060">
                    <coordinates>13.374200559999997,51.20406123,0.0</coordinates>
                </Point>
                <Point id="10062">
                    <coordinates>13.373939069999995,51.204345719999985,0.0</coordinates>
                </Point>
                <Point id="10064">
                    <coordinates>13.373964739999995,51.20460692999999,0.0</coordinates>
                </Point>
                <Point id="10066">
                    <coordinates>13.373871719999999,51.20456155,0.0</coordinates>
                </Point>
                <Point id="10068">
                    <coordinates>13.373837919999998,51.203960939999995,0.0</coordinates>
                </Point>
                <Point id="10070">
                    <coordinates>13.37392075,51.204100499999974,0.0</coordinates>
                </Point>
                <Point id="10072">
                    <coordinates>13.37294019,51.20414037,0.0</coordinates>
                </Point>
                <Point id="10074">
                    <coordinates>13.36999451,51.20031608,0.0</coordinates>
                </Point>
                <Point id="10076">
                    <coordinates>13.370205659999995,51.19942699,0.0</coordinates>
                </Point>
                <Point id="10078">
                    <coordinates>13.370171199999996,51.19687738,0.0</coordinates>
                </Point>
                <Point id="10080">
                    <coordinates>13.38002215,51.19779695,0.0</coordinates>
                </Point>
                <Point id="10082">
                    <coordinates>13.37898781,51.19750194,0.0</coordinates>
                </Point>
                <Point id="10084">
                    <coordinates>13.378826819999995,51.1974689,0.0</coordinates>
                </Point>
                <Point id="10086">
                    <coordinates>13.372589,51.20505499999999,0.0</coordinates>
                </Point>
                <Point id="10088">
                    <coordinates>13.373315999999997,51.205047,0.0</coordinates>
                </Point>
                <Point id="10090">
                    <coordinates>13.373098999999995,51.20485599999999,0.0</coordinates>
                </Point>
                <Point id="10092">
                    <coordinates>13.372737999999998,51.20463699999998,0.0</coordinates>
                </Point>
                <Point id="10094">
                    <coordinates>13.374526000000001,51.203472,0.0</coordinates>
                </Point>
                <Point id="10096">
                    <coordinates>13.302494999999999,51.199347,0.0</coordinates>
                </Point>
                <Point id="10098">
                    <coordinates>13.312764,51.20226299999999,0.0</coordinates>
                </Point>
                <Point id="10100">
                    <coordinates>13.303274199057455,51.197105471197744,0.0</coordinates>
                </Point>
                <Point id="10102">
                    <coordinates>13.413949529999993,51.22640518,0.0</coordinates>
                </Point>
            </MultiGeometry>
        </Placemark>
    </Document>
</kml>
