<?xml version="1.0" encoding="UTF-8"?>
<kml xmlns="http://www.opengis.net/kml/2.2" xmlns:gx="http://www.google.com/kml/ext/2.2">
    <Document id="3645">
        <Style id="4344">
            <IconStyle id="4345">
                <color>ff0000ff</color>
                <colorMode>normal</colorMode>
                <scale>1</scale>
                <heading>0</heading>
                <Icon id="4346">
                    <href>http://maps.google.com/mapfiles/kml/pushpin/ylw-pushpin.png</href>
                </Icon>
            </IconStyle>
            <LineStyle id="4347">
                <color>ff0000ff</color>
                <colorMode>normal</colorMode>
                <width>5</width>
            </LineStyle>
        </Style>
        <Style id="4478">
            <IconStyle id="4480">
                <colorMode>normal</colorMode>
                <scale>1</scale>
                <heading>0</heading>
                <Icon id="4481">
                    <href>http://maps.google.com/mapfiles/kml/shapes/placemark_circle.png</href>
                </Icon>
            </IconStyle>
            <LabelStyle id="4479">
                <colorMode>normal</colorMode>
                <scale>0.0</scale>
            </LabelStyle>
        </Style>
        <open>1</open>
        <Placemark id="3647">
            <name>MultiLine</name>
            <styleUrl>#4344</styleUrl>
            <MultiGeometry id="3646">
                <LineString id="3648">
                    <coordinates>13.2558946,51.373784529999995,0.0 13.255853399999998,51.37374476,0.0</coordinates>
                </LineString>
                <LineString id="3650">
                    <coordinates>13.356005159999995,51.357506839999985,0.0 13.356102079999998,51.35752567000001,0.0</coordinates>
                </LineString>
                <LineString id="3652">
                    <coordinates>13.35579783,51.35252744999998,0.0 13.355775930000002,51.35252794,0.0</coordinates>
                </LineString>
                <LineString id="3654">
                    <coordinates>13.24192605,51.354908419999994,0.0 13.242000769999997,51.35488688,0.0 13.242107279999999,51.35485472,0.0 13.242205019999998,51.354824699999995,0.0 13.242300519999999,51.35479573,0.0</coordinates>
                </LineString>
                <LineString id="3656">
                    <coordinates>13.24148405,51.355603009999996,0.0 13.241441509999996,51.35553866999998,0.0 13.241470169999998,51.35541696,0.0 13.24145761,51.35534147999999,0.0 13.241402359999999,51.3552719,0.0 13.241351299999996,51.355224539999995,0.0 13.241350509999998,51.35522037999999,0.0</coordinates>
                </LineString>
                <LineString id="3658">
                    <coordinates>13.35742285,51.3569695,0.0 13.357395799999999,51.35695344999999,0.0</coordinates>
                </LineString>
                <LineString id="3660">
                    <coordinates>13.38378006,51.36490730999999,0.0 13.383758369999999,51.36489052999999,0.0 13.38373435,51.36486388,0.0 13.38365873,51.36476403000001,0.0 13.38355081,51.364559179999986,0.0 13.3835279,51.36452164999999,0.0 13.38349556,51.36445556999999,0.0 13.383592299999998,51.36440316999998,0.0</coordinates>
                </LineString>
                <LineString id="3662">
                    <coordinates>13.384082229999997,51.36404826,0.0 13.38401521,51.364082389999986,0.0</coordinates>
                </LineString>
                <LineString id="3664">
                    <coordinates>13.24546814,51.35394402,0.0 13.245636709999996,51.35388851999999,0.0 13.245770989999999,51.353844339999995,0.0 13.245811439999997,51.353831299999996,0.0</coordinates>
                </LineString>
                <LineString id="3666">
                    <coordinates>13.241350509999998,51.35522037999999,0.0 13.241349479999997,51.35521515000001,0.0 13.24133156,51.355102669999994,0.0</coordinates>
                </LineString>
                <LineString id="3668">
                    <coordinates>13.242300519999999,51.35479573,0.0 13.24239271,51.35478078999999,0.0 13.24247142,51.35475880999999,0.0 13.242519299999998,51.35474554999999,0.0 13.242657999999999,51.35470640999999,0.0 13.242725269999998,51.354687999999996,0.0 13.242829259999999,51.35465972999998,0.0 13.242940720000002,51.35462848,0.0 13.243030239999996,51.354603979999986,0.0 13.243099499999998,51.35458768,0.0</coordinates>
                </LineString>
                <LineString id="3670">
                    <coordinates>13.243099499999998,51.35458768,0.0 13.24323378,51.35455607,0.0 13.243365819999996,51.354525249999995,0.0 13.24349837,51.35449548999999,0.0 13.243587159999999,51.35447526000001,0.0</coordinates>
                </LineString>
                <LineString id="3672">
                    <coordinates>13.25486513,51.374573389999995,0.0 13.254888559999998,51.37457875,0.0 13.25500767,51.374591269999996,0.0</coordinates>
                </LineString>
                <LineString id="3674">
                    <coordinates>13.25506924,51.374597589999986,0.0 13.25510358,51.37460150999999,0.0</coordinates>
                </LineString>
                <LineString id="3676">
                    <coordinates>13.25510358,51.37460150999999,0.0 13.25517161,51.374607160000004,0.0</coordinates>
                </LineString>
                <LineString id="3678">
                    <coordinates>13.25517161,51.374607160000004,0.0 13.255237379999999,51.37461101999999,0.0</coordinates>
                </LineString>
                <LineString id="3680">
                    <coordinates>13.255237379999999,51.37461101999999,0.0 13.255372489999997,51.37461946999998,0.0 13.255494939999997,51.374633759999995,0.0 13.255609919999998,51.37464823999999,0.0</coordinates>
                </LineString>
                <LineString id="3682">
                    <coordinates>13.255609919999998,51.37464823999999,0.0 13.255683339999997,51.37465674,0.0</coordinates>
                </LineString>
                <LineString id="3684">
                    <coordinates>13.256281329999998,51.374707470000004,0.0 13.256256049999996,51.374709419999995,0.0 13.256179389999998,51.37471599999999,0.0 13.256127769999999,51.37471128999999,0.0 13.256069210000001,51.37470434999999,0.0 13.255998979999998,51.374695499999994,0.0 13.25591403,51.37468495,0.0 13.25578938,51.37466941,0.0 13.255683339999997,51.37465674,0.0</coordinates>
                </LineString>
                <LineString id="3686">
                    <coordinates>13.256300579999998,51.374705709999986,0.0 13.256281329999998,51.374707470000004,0.0</coordinates>
                </LineString>
                <LineString id="3688">
                    <coordinates>13.256300579999998,51.374705709999986,0.0 13.256352299999998,51.37470642,0.0 13.25643191,51.3747045,0.0</coordinates>
                </LineString>
                <LineString id="3690">
                    <coordinates>13.24619085,51.35367920999999,0.0 13.246256040000002,51.35364915,0.0 13.24636189,51.35359780000001,0.0 13.24644207,51.35355738,0.0 13.246505129999997,51.35352507999998,0.0 13.246635219999996,51.35346180000001,0.0 13.24672246,51.353418379999994,0.0 13.246988989999998,51.35327681999999,0.0 13.247200289999997,51.35316374999999,0.0 13.24726781,51.353132949999996,0.0 13.247335309999997,51.35310240999999,0.0 13.247402939999997,51.35307319999999,0.0</coordinates>
                </LineString>
                <LineString id="3692">
                    <coordinates>13.247402939999997,51.35307319999999,0.0 13.247425179999999,51.35312496,0.0 13.247486719999998,51.35327411,0.0 13.247505449999997,51.353318579999986,0.0 13.24751754,51.35334764999999,0.0 13.24751303,51.353446799999986,0.0 13.24747203,51.35345263999999,0.0</coordinates>
                </LineString>
                <LineString id="3694">
                    <coordinates>13.24760941,51.35298320999999,0.0 13.247640099999998,51.35296967,0.0 13.24769272,51.35300528,0.0 13.247736969999998,51.35303527999998,0.0</coordinates>
                </LineString>
                <LineString id="3696">
                    <coordinates>13.24804236,51.35316293999999,0.0 13.248043760000002,51.35318277,0.0 13.24804699,51.35322033999999,0.0</coordinates>
                </LineString>
                <LineString id="3698">
                    <coordinates>13.24827106,51.353040609999994,0.0 13.248328079999999,51.35315220999999,0.0</coordinates>
                </LineString>
                <LineString id="3700">
                    <coordinates>13.24804699,51.35322033999999,0.0 13.248080499999999,51.35320748999999,0.0 13.248113819999999,51.35326717999998,0.0 13.248150969999996,51.353332599999995,0.0 13.248136299999999,51.35336340999999,0.0</coordinates>
                </LineString>
                <LineString id="3702">
                    <coordinates>13.247987529999996,51.35350623999999,0.0 13.24801183,51.35350143999999,0.0</coordinates>
                </LineString>
                <LineString id="3704">
                    <coordinates>13.24804699,51.35322033999999,0.0 13.248036319999999,51.35322463,0.0</coordinates>
                </LineString>
                <LineString id="3706">
                    <coordinates>13.247736969999998,51.35303527999998,0.0 13.247818049999996,51.35308876999998,0.0 13.247893919999997,51.35312836999999,0.0 13.247936520000001,51.35314994,0.0 13.24804236,51.35316293999999,0.0</coordinates>
                </LineString>
                <LineString id="3708">
                    <coordinates>13.24835826,51.35314619999998,0.0 13.24841691,51.35324011000001,0.0</coordinates>
                </LineString>
                <LineString id="3710">
                    <coordinates>13.248328079999999,51.35315220999999,0.0 13.248283679999998,51.35316261999999,0.0 13.248215540000002,51.353178109999995,0.0 13.248247029999998,51.353222839999994,0.0 13.24827452,51.35326190999999,0.0</coordinates>
                </LineString>
                <LineString id="3712">
                    <coordinates>13.24835826,51.35314619999998,0.0 13.24844687,51.35312746999999,0.0 13.248527819999996,51.35312253999999,0.0 13.248555799999997,51.35312185000001,0.0 13.24856766,51.35313532999998,0.0</coordinates>
                </LineString>
                <LineString id="3714">
                    <coordinates>13.248328079999999,51.35315220999999,0.0 13.24835826,51.35314619999998,0.0</coordinates>
                </LineString>
                <LineString id="3716">
                    <coordinates>13.248189570000001,51.35308304,0.0 13.24827106,51.353040609999994,0.0</coordinates>
                </LineString>
                <LineString id="3718">
                    <coordinates>13.24804236,51.35316293999999,0.0 13.248092430000002,51.35313849,0.0 13.248130279999998,51.35311761,0.0 13.248189570000001,51.35308304,0.0</coordinates>
                </LineString>
                <LineString id="3720">
                    <coordinates>13.25500767,51.374591269999996,0.0 13.255019449999997,51.3745923,0.0 13.25506924,51.374597589999986,0.0</coordinates>
                </LineString>
                <LineString id="3722">
                    <coordinates>13.279989539999999,51.38033424999998,0.0 13.27993845,51.38033445999999,0.0 13.279732529999999,51.38033424999999,0.0 13.27962315,51.38033477999999,0.0</coordinates>
                </LineString>
                <LineString id="3724">
                    <coordinates>13.27859995,51.379837779999995,0.0 13.278702859999997,51.37990595,0.0</coordinates>
                </LineString>
                <LineString id="3726">
                    <coordinates>13.279782779999998,51.37874853999998,0.0 13.279652609999996,51.37872354,0.0 13.27971959,51.3785983,0.0 13.279424549999996,51.37853354,0.0 13.279452999999998,51.37848569999999,0.0 13.279444169999998,51.378476509999985,0.0</coordinates>
                </LineString>
                <LineString id="3728">
                    <coordinates>13.25518312,51.371669069999996,0.0 13.25517257,51.37171958999999,0.0 13.255163079999999,51.37175710999998,0.0</coordinates>
                </LineString>
                <LineString id="3730">
                    <coordinates>13.361062789999998,51.33590124999998,0.0 13.36054299,51.33585783999999,0.0 13.36007731,51.33582032,0.0</coordinates>
                </LineString>
                <LineString id="3732">
                    <coordinates>13.36007731,51.33582032,0.0 13.360053590000001,51.335817260000006,0.0</coordinates>
                </LineString>
                <LineString id="3734">
                    <coordinates>13.360053590000001,51.335817260000006,0.0 13.359842729999997,51.33580068,0.0</coordinates>
                </LineString>
                <LineString id="3736">
                    <coordinates>13.359842729999997,51.33580068,0.0 13.359337049999999,51.33575573999999,0.0</coordinates>
                </LineString>
                <LineString id="3738">
                    <coordinates>13.359337049999999,51.33575573999999,0.0 13.359315039999998,51.335753249999996,0.0</coordinates>
                </LineString>
                <LineString id="3740">
                    <coordinates>13.359315039999998,51.335753249999996,0.0 13.359115979999997,51.33573667999999,0.0</coordinates>
                </LineString>
                <LineString id="3742">
                    <coordinates>13.357545429999997,51.33558183,0.0 13.35767162,51.335593149999994,0.0</coordinates>
                </LineString>
                <LineString id="3744">
                    <coordinates>13.357544,51.33558172,0.0 13.35752976,51.335577709999995,0.0</coordinates>
                </LineString>
                <LineString id="3746">
                    <coordinates>13.35752976,51.335577709999995,0.0 13.357513419999998,51.33557910999999,0.0</coordinates>
                </LineString>
                <LineString id="3748">
                    <coordinates>13.356990689999998,51.33553403999999,0.0 13.35723235,51.335553529999984,0.0</coordinates>
                </LineString>
                <LineString id="3750">
                    <coordinates>13.35723235,51.335553529999984,0.0 13.357513419999998,51.33557910999999,0.0</coordinates>
                </LineString>
                <LineString id="3752">
                    <coordinates>13.356990689999998,51.33553403999999,0.0 13.356629599999998,51.335505239999996,0.0</coordinates>
                </LineString>
                <LineString id="3754">
                    <coordinates>13.356629599999998,51.335505239999996,0.0 13.356593229999998,51.335506709999976,0.0 13.356563059999997,51.33551332999999,0.0 13.356540849999998,51.335522959999984,0.0 13.35651527,51.33554447999999,0.0</coordinates>
                </LineString>
                <LineString id="3756">
                    <coordinates>13.35651527,51.33554447999999,0.0 13.356503439999997,51.33558121,0.0</coordinates>
                </LineString>
                <LineString id="3758">
                    <coordinates>13.356503439999997,51.33558121,0.0 13.356430919999998,51.33592225999997,0.0 13.35637031,51.336220659999995,0.0</coordinates>
                </LineString>
                <LineString id="3760">
                    <coordinates>13.35637031,51.336220659999995,0.0 13.356347839999998,51.33632809999999,0.0</coordinates>
                </LineString>
                <LineString id="3762">
                    <coordinates>13.356347839999998,51.33632809999999,0.0 13.356252119999997,51.33679664999998,0.0 13.356166339999998,51.337235499999984,0.0 13.35611079,51.33753897999999,0.0</coordinates>
                </LineString>
                <LineString id="3764">
                    <coordinates>13.355990859999999,51.337557059999995,0.0 13.356104699999998,51.33756451,0.0</coordinates>
                </LineString>
                <LineString id="3766">
                    <coordinates>13.356104699999998,51.33756451,0.0 13.35611079,51.33753897999999,0.0</coordinates>
                </LineString>
                <LineString id="3768">
                    <coordinates>13.355990859999999,51.337557059999995,0.0 13.355991419999999,51.33754329999999,0.0 13.3559859,51.337533349999994,0.0 13.355976829999998,51.33752216999999,0.0 13.355967249999997,51.33751543,0.0 13.35590942,51.33751087000001,0.0 13.355809899999999,51.33750280999999,0.0 13.355570029999997,51.337484379999985,0.0 13.35555603,51.33755397999999,0.0</coordinates>
                </LineString>
                <LineString id="3770">
                    <coordinates>13.356952143632764,51.35730222568539,0.0 13.357173029999998,51.35737354,0.0 13.357289229999997,51.35743545,0.0 13.357445019999997,51.357499940000004,0.0 13.35750359,51.35752702999999,0.0 13.35737814,51.35764367,0.0 13.357503269999999,51.35769374999999,0.0 13.35749701,51.35770121,0.0</coordinates>
                </LineString>
                <LineString id="3772">
                    <coordinates>13.35742285,51.3569695,0.0 13.357428709999999,51.35696518,0.0</coordinates>
                </LineString>
                <LineString id="3774">
                    <coordinates>13.357428709999999,51.35696518,0.0 13.357444629999996,51.35695083000001,0.0</coordinates>
                </LineString>
                <LineString id="3776">
                    <coordinates>13.357444629999996,51.35695083000001,0.0 13.357804119999999,51.35711825,0.0 13.357774239999998,51.357139399999994,0.0</coordinates>
                </LineString>
                <LineString id="3778">
                    <coordinates>13.356983119999997,51.357270249999985,0.0 13.35709442,51.35719750999999,0.0 13.357268799999998,51.35708314999999,0.0 13.357347029999998,51.35702599999999,0.0 13.35742285,51.3569695,0.0</coordinates>
                </LineString>
                <LineString id="3780">
                    <coordinates>13.357035119999999,51.35684688,0.0 13.35703711,51.35684293999999,0.0</coordinates>
                </LineString>
                <LineString id="3782">
                    <coordinates>13.36262981,51.36089278000001,0.0 13.362478269999997,51.36077034999999,0.0 13.36210715,51.36046963,0.0 13.36173058,51.36015952999996,0.0 13.36154737,51.35999880999999,0.0 13.361368229999997,51.35983255,0.0 13.361054519999998,51.35954898,0.0 13.360735069999997,51.359334159999996,0.0 13.360502329999996,51.359118339999995,0.0 13.36036881,51.35898761,0.0 13.360333039999997,51.35895236999998,0.0 13.360183339999999,51.35877929,0.0 13.360007989999998,51.35855817999999,0.0 13.35981724,51.358300369999995,0.0 13.3597179,51.35818662999999,0.0 13.359603089999998,51.35803978999999,0.0 13.359361829999997,51.357760139999996,0.0 13.35922721,51.35760763999998,0.0 13.35912016,51.35747926999999,0.0 13.35907869,51.35743115999999,0.0 13.359034320000001,51.357350030000006,0.0 13.359001789999999,51.35729962,0.0 13.358956980000002,51.35723249999999,0.0 13.35894086,51.35718589999999,0.0 13.358883359999997,51.35705887999999,0.0 13.358840349999998,51.35693434,0.0 13.35876463,51.356707899999996,0.0 13.358715050000002,51.35652442,0.0 13.35866377,51.356370209999994,0.0 13.358599529999998,51.35617470999998,0.0 13.358560169999999,51.35604724999999,0.0</coordinates>
                </LineString>
                <LineString id="3784">
                    <coordinates>13.355066329999996,51.349908249999984,0.0 13.354883429999996,51.349701360000005,0.0 13.354739059999998,51.349535700000004,0.0 13.35460609,51.34938160999998,0.0 13.354542919999997,51.34931121999999,0.0 13.354347719999996,51.34907636999999,0.0 13.354089460000003,51.34877330999998,0.0 13.353946019999997,51.34860295999999,0.0 13.353577309999997,51.348163769999985,0.0 13.353234379999998,51.34775301,0.0 13.353046639999999,51.347526429999995,0.0 13.352873809999998,51.347320649999986,0.0 13.352584069999997,51.34698002,0.0 13.35241171,51.34677071,0.0 13.35190343,51.34615390999999,0.0 13.35116192,51.345256170000006,0.0 13.351049320000001,51.345120139999985,0.0 13.350813540000003,51.344835329999995,0.0 13.350672219999998,51.34466671999999,0.0 13.350578969999999,51.344554050000006,0.0</coordinates>
                </LineString>
                <LineString id="3786">
                    <coordinates>13.350578969999999,51.344554050000006,0.0 13.35040806,51.34434770000001,0.0 13.350048889999997,51.34391383999999,0.0 13.349827629999998,51.34364266,0.0 13.349820539999998,51.34363377,0.0 13.349703460000002,51.34349497000001,0.0 13.3495809,51.343346849999996,0.0 13.349414949999996,51.34314649999999,0.0 13.349271819999998,51.342973569999984,0.0 13.34899735,51.342640129999985,0.0 13.34875347,51.34234537,0.0 13.34858929,51.34215679999999,0.0</coordinates>
                </LineString>
                <LineString id="3788">
                    <coordinates>13.34728769,51.34025323000001,0.0 13.34706057,51.34032128,0.0</coordinates>
                </LineString>
                <LineString id="3790">
                    <coordinates>13.34702956,51.340331139999996,0.0 13.34706057,51.34032128,0.0</coordinates>
                </LineString>
                <LineString id="3792">
                    <coordinates>13.345290999999998,51.34095536999999,0.0 13.34552984,51.34120868999999,0.0 13.34541798,51.34124958000001,0.0</coordinates>
                </LineString>
                <LineString id="3794">
                    <coordinates>13.346866149999999,51.34032867999999,0.0 13.346351699999996,51.34039629,0.0 13.34655472,51.34060946999999,0.0 13.346631289999998,51.34070224,0.0 13.346618459999998,51.34070638999999,0.0</coordinates>
                </LineString>
                <LineString id="3796">
                    <coordinates>13.348403689999998,51.34191925,0.0 13.34813676,51.34159602999999,0.0 13.347808069999997,51.34119788999999,0.0 13.347606049999998,51.340960760000016,0.0 13.34746703,51.34080199999999,0.0 13.34728866,51.34060253999999,0.0 13.34714373,51.34045385999999,0.0 13.34710707,51.34041435999999,0.0 13.34702956,51.340331139999996,0.0</coordinates>
                </LineString>
                <LineString id="3798">
                    <coordinates>13.35160357,51.34218398999998,0.0 13.351534460000002,51.34217491,0.0 13.350958829999998,51.34205914,0.0 13.35076849,51.34201738,0.0</coordinates>
                </LineString>
                <LineString id="3800">
                    <coordinates>13.348482899999999,51.341807750000015,0.0 13.348676679999999,51.341749439999994,0.0 13.348741230000002,51.341699029999994,0.0</coordinates>
                </LineString>
                <LineString id="3802">
                    <coordinates>13.348403689999998,51.34191925,0.0 13.34838142,51.3418793,0.0 13.348482899999999,51.341807750000015,0.0</coordinates>
                </LineString>
                <LineString id="3804">
                    <coordinates>13.24630037,51.35379878,0.0 13.246294559999999,51.353801479999994,0.0</coordinates>
                </LineString>
                <LineString id="3806">
                    <coordinates>13.24619085,51.35367920999999,0.0 13.246177429999998,51.353704159999985,0.0 13.246267789999997,51.35377929999999,0.0 13.246294559999999,51.353801479999994,0.0</coordinates>
                </LineString>
                <LineString id="3808">
                    <coordinates>13.34729162,51.340252019999994,0.0 13.347292449999998,51.34025312000001,0.0</coordinates>
                </LineString>
                <LineString id="3810">
                    <coordinates>13.34728769,51.34025323000001,0.0 13.34729162,51.340252019999994,0.0</coordinates>
                </LineString>
                <LineString id="3812">
                    <coordinates>13.24133156,51.355102669999994,0.0 13.24147463,51.35505329,0.0 13.241589279999996,51.355015429999995,0.0 13.241664299999998,51.35499146000001,0.0 13.24174101,51.35496542999999,0.0 13.241823389999999,51.35494088,0.0 13.24191552,51.35491146999999,0.0 13.24192605,51.354908419999994,0.0</coordinates>
                </LineString>
                <LineString id="3814">
                    <coordinates>13.243587159999999,51.35447526000001,0.0 13.243632350000002,51.35446500999999,0.0</coordinates>
                </LineString>
                <LineString id="3816">
                    <coordinates>13.243632350000002,51.35446500999999,0.0 13.243697729999997,51.35445012,0.0 13.243802149999999,51.35442696999999,0.0 13.244016820000002,51.35437371,0.0 13.244104379999998,51.35434943,0.0 13.244193,51.35432728,0.0 13.244263079999998,51.354307709999986,0.0 13.244337870000003,51.35428461,0.0</coordinates>
                </LineString>
                <LineString id="3818">
                    <coordinates>13.245811439999997,51.353831299999996,0.0 13.245846519999999,51.35381997999998,0.0</coordinates>
                </LineString>
                <LineString id="3820">
                    <coordinates>13.244337870000003,51.35428461,0.0 13.244401880000002,51.354264869999994,0.0 13.244554019999997,51.35422154,0.0 13.244661559999997,51.35418964999999,0.0 13.244976569999997,51.354096659999996,0.0 13.245129879999999,51.35404982000001,0.0 13.245307069999999,51.35399609000001,0.0 13.245455519999998,51.35394817999999,0.0 13.24546814,51.35394402,0.0</coordinates>
                </LineString>
                <LineString id="3822">
                    <coordinates>13.247402939999997,51.35307319999999,0.0 13.247533909999994,51.35301636999999,0.0 13.24760941,51.35298320999999,0.0</coordinates>
                </LineString>
                <LineString id="3824">
                    <coordinates>13.24148541,51.35561521999999,0.0 13.24148405,51.355603009999996,0.0</coordinates>
                </LineString>
                <LineString id="3826">
                    <coordinates>13.255240709999997,51.37214242999998,0.0 13.255236869999996,51.372131289999984,0.0</coordinates>
                </LineString>
                <LineString id="3828">
                    <coordinates>13.255158129999998,51.37177633000001,0.0 13.255154989999998,51.37178905999999,0.0</coordinates>
                </LineString>
                <LineString id="3830">
                    <coordinates>13.255751369999995,51.37149268999999,0.0 13.255460799999998,51.37152366999999,0.0 13.255342469999999,51.371562499999996,0.0 13.255281249999998,51.37159098999999,0.0 13.255202419999998,51.371634869999994,0.0 13.25518312,51.371669069999996,0.0</coordinates>
                </LineString>
                <LineString id="3832">
                    <coordinates>13.255163079999999,51.37175710999998,0.0 13.255158129999998,51.37177633000001,0.0</coordinates>
                </LineString>
                <LineString id="3834">
                    <coordinates>13.247837679999998,51.35356486999999,0.0 13.247987529999996,51.35350623999999,0.0</coordinates>
                </LineString>
                <LineString id="3836">
                    <coordinates>13.247907869999999,51.35328961999999,0.0 13.247913009999998,51.35330286000001,0.0 13.247959020000001,51.35342742000001,0.0 13.247973069999997,51.35346506999999,0.0 13.247987529999996,51.35350623999999,0.0</coordinates>
                </LineString>
                <LineString id="3838">
                    <coordinates>13.27856124,51.37969749,0.0 13.278299399999996,51.379663300000004,0.0</coordinates>
                </LineString>
                <LineString id="3840">
                    <coordinates>13.27856124,51.37969749,0.0 13.27857335,51.379668499999994,0.0</coordinates>
                </LineString>
                <LineString id="3842">
                    <coordinates>13.278702859999997,51.37990595,0.0 13.278665229999998,51.379860029999996,0.0 13.278636359999997,51.37981581999998,0.0 13.278608760000003,51.3797746,0.0 13.278587779999999,51.37974094,0.0 13.27856124,51.37969749,0.0</coordinates>
                </LineString>
                <LineString id="3844">
                    <coordinates>13.2784195,51.37934670999999,0.0 13.2781768,51.37934946,0.0</coordinates>
                </LineString>
                <LineString id="3846">
                    <coordinates>13.278137699999998,51.37919506,0.0 13.27815004,51.37905887,0.0</coordinates>
                </LineString>
                <LineString id="3848">
                    <coordinates>13.2784195,51.37934670999999,0.0 13.27842671,51.37926014999999,0.0</coordinates>
                </LineString>
                <LineString id="3850">
                    <coordinates>13.27842671,51.37926014999999,0.0 13.27845259,51.37917640999998,0.0 13.27847679,51.37913017000001,0.0 13.27851277,51.37908061,0.0 13.278528859999996,51.37906185999999,0.0 13.278583179999998,51.37901878,0.0 13.27868129,51.37895159,0.0</coordinates>
                </LineString>
                <LineString id="3852">
                    <coordinates>13.27778947,51.37914557999999,0.0 13.27780074,51.37925863,0.0</coordinates>
                </LineString>
                <LineString id="3854">
                    <coordinates>13.27842671,51.37926014999999,0.0 13.278137699999998,51.37919506,0.0</coordinates>
                </LineString>
                <LineString id="3856">
                    <coordinates>13.278137699999998,51.37919506,0.0 13.278053509999996,51.37917731999998,0.0 13.27798417,51.379176599999994,0.0 13.277938199999998,51.37917603,0.0 13.27778947,51.37914557999999,0.0</coordinates>
                </LineString>
                <LineString id="3858">
                    <coordinates>13.27778947,51.37914557999999,0.0 13.27771462,51.37914706,0.0 13.27743117,51.37914626,0.0</coordinates>
                </LineString>
                <LineString id="3860">
                    <coordinates>13.27778947,51.37914557999999,0.0 13.27785783,51.378977769999985,0.0</coordinates>
                </LineString>
                <LineString id="3862">
                    <coordinates>13.27906175,51.37872515999999,0.0 13.278987699999998,51.37873221,0.0 13.278871909999996,51.37874008999999,0.0 13.278787549999999,51.3787212,0.0 13.27870822,51.37870368999999,0.0</coordinates>
                </LineString>
                <LineString id="3864">
                    <coordinates>13.279444169999998,51.378476509999985,0.0 13.279532289999999,51.37847638,0.0</coordinates>
                </LineString>
                <LineString id="3866">
                    <coordinates>13.279716109999999,51.37819444999999,0.0 13.279798449999998,51.37806744999999,0.0 13.279724569999997,51.378050209999984,0.0</coordinates>
                </LineString>
                <LineString id="3868">
                    <coordinates>13.27906175,51.37872515999999,0.0 13.27909677,51.37870222999999,0.0 13.27911724,51.37868903,0.0 13.279236710000001,51.37861062,0.0 13.279351439999997,51.37853537000001,0.0 13.279444169999998,51.378476509999985,0.0</coordinates>
                </LineString>
                <LineString id="3870">
                    <coordinates>13.279716109999999,51.37819444999999,0.0 13.27965452,51.37812944,0.0</coordinates>
                </LineString>
                <LineString id="3872">
                    <coordinates>13.279444169999998,51.378476509999985,0.0 13.279558429999998,51.378367999999995,0.0 13.27963951,51.37828607000001,0.0 13.279670579999998,51.378254559999995,0.0 13.279716109999999,51.37819444999999,0.0</coordinates>
                </LineString>
                <LineString id="3874">
                    <coordinates>13.279716109999999,51.37819444999999,0.0 13.279486099999998,51.378267459999996,0.0</coordinates>
                </LineString>
                <LineString id="3876">
                    <coordinates>13.25713352,51.37136416,0.0 13.257152539999996,51.37127805999999,0.0 13.257165570000002,51.37120222,0.0 13.257172579999997,51.37114686999999,0.0</coordinates>
                </LineString>
                <LineString id="3878">
                    <coordinates>13.3457397,51.34056126999999,0.0 13.345662269999996,51.34059000999999,0.0 13.34513647,51.34079149999999,0.0</coordinates>
                </LineString>
                <LineString id="3880">
                    <coordinates>13.34513647,51.34079149999999,0.0 13.345290999999998,51.34095536999999,0.0</coordinates>
                </LineString>
                <LineString id="3882">
                    <coordinates>13.35009413,51.341882840000004,0.0 13.35076849,51.34201738,0.0</coordinates>
                </LineString>
                <LineString id="3884">
                    <coordinates>13.23861493,51.362088560000004,0.0 13.238835089999998,51.36213183,0.0</coordinates>
                </LineString>
                <LineString id="3886">
                    <coordinates>13.238835089999998,51.36213183,0.0 13.239111959999999,51.362122289999995,0.0</coordinates>
                </LineString>
                <LineString id="3888">
                    <coordinates>13.239111959999999,51.362122289999995,0.0 13.239445419999997,51.36217693,0.0</coordinates>
                </LineString>
                <LineString id="3890">
                    <coordinates>13.239445419999997,51.36217693,0.0 13.239236389999997,51.362304939999994,0.0</coordinates>
                </LineString>
                <LineString id="3892">
                    <coordinates>13.239445419999997,51.36217693,0.0 13.239491629999998,51.36239644999999,0.0</coordinates>
                </LineString>
                <LineString id="3894">
                    <coordinates>13.239445419999997,51.36217693,0.0 13.239810859999999,51.36210041,0.0</coordinates>
                </LineString>
                <LineString id="3896">
                    <coordinates>13.239810859999999,51.36210041,0.0 13.239858049999997,51.36243645,0.0</coordinates>
                </LineString>
                <LineString id="3898">
                    <coordinates>13.239810859999999,51.36210041,0.0 13.23981611,51.36184112999999,0.0</coordinates>
                </LineString>
                <LineString id="3900">
                    <coordinates>13.23981611,51.36184112999999,0.0 13.23989308,51.36157134999999,0.0</coordinates>
                </LineString>
                <LineString id="3902">
                    <coordinates>13.23989308,51.36157134999999,0.0 13.23994191,51.36140216999999,0.0</coordinates>
                </LineString>
                <LineString id="3904">
                    <coordinates>13.23994191,51.36140216999999,0.0 13.240030379999997,51.36109230999999,0.0</coordinates>
                </LineString>
                <LineString id="3906">
                    <coordinates>13.240030379999997,51.36109230999999,0.0 13.24009195,51.36088102000001,0.0 13.240206609999998,51.36007021999999,0.0</coordinates>
                </LineString>
                <LineString id="3908">
                    <coordinates>13.240206609999998,51.36007021999999,0.0 13.24031651,51.359276619999996,0.0 13.240413039999996,51.35862507999998,0.0 13.241041909999998,51.357916819999986,0.0 13.241138309999997,51.357806959999984,0.0 13.241276989999998,51.35755349,0.0 13.241374349999997,51.35729538999998,0.0</coordinates>
                </LineString>
                <LineString id="3910">
                    <coordinates>13.347292449999998,51.34025312000001,0.0 13.34745317,51.340461350000005,0.0 13.347544359999999,51.34043374,0.0</coordinates>
                </LineString>
                <LineString id="3912">
                    <coordinates>13.347544359999999,51.34043374,0.0 13.347907339999997,51.340882649999976,0.0 13.348163399999999,51.340796690000005,0.0</coordinates>
                </LineString>
                <LineString id="3914">
                    <coordinates>13.238835089999998,51.36213183,0.0 13.238942330000002,51.361973750000004,0.0</coordinates>
                </LineString>
                <LineString id="3916">
                    <coordinates>13.355580630000002,51.356674659999996,0.0 13.3555711,51.356672190000005,0.0</coordinates>
                </LineString>
                <LineString id="3918">
                    <coordinates>13.35575705,51.35305544,0.0 13.35573907,51.35291261,0.0 13.35572829,51.352763780000004,0.0 13.355732059999996,51.35272770999999,0.0</coordinates>
                </LineString>
                <LineString id="3920">
                    <coordinates>13.355732059999996,51.35272770999999,0.0 13.355736009999998,51.35266214999999,0.0</coordinates>
                </LineString>
                <LineString id="3922">
                    <coordinates>13.355756959999999,51.35312528999999,0.0 13.35575705,51.35305544,0.0</coordinates>
                </LineString>
                <LineString id="3924">
                    <coordinates>13.348741230000002,51.341699029999994,0.0 13.348984259999998,51.34166161,0.0 13.35009413,51.341882840000004,0.0</coordinates>
                </LineString>
                <LineString id="3926">
                    <coordinates>13.241422059999996,51.3567421,0.0 13.241470689999998,51.35653678,0.0 13.241520869999999,51.356287759999994,0.0 13.241371169999999,51.35628060999999,0.0 13.241404919999999,51.355999609999984,0.0 13.24142979,51.355806570000006,0.0 13.241435879999996,51.35576547999999,0.0</coordinates>
                </LineString>
                <LineString id="3928">
                    <coordinates>13.27856124,51.37969749,0.0 13.278459629999999,51.379516720000005,0.0 13.27842671,51.37926014999999,0.0</coordinates>
                </LineString>
                <LineString id="3930">
                    <coordinates>13.278535359999998,51.37980506,0.0 13.27859786,51.379836190000006,0.0 13.27859995,51.379837779999995,0.0</coordinates>
                </LineString>
                <LineString id="3932">
                    <coordinates>13.255258419999999,51.372195420000004,0.0 13.25525032,51.37217065999998,0.0</coordinates>
                </LineString>
                <LineString id="3934">
                    <coordinates>13.25525032,51.37217065999998,0.0 13.255240709999997,51.37214242999998,0.0</coordinates>
                </LineString>
                <LineString id="3936">
                    <coordinates>13.278873139999998,51.37902466999999,0.0 13.278800399999996,51.37901768999998,0.0</coordinates>
                </LineString>
                <LineString id="3938">
                    <coordinates>13.254177279999997,51.37431075999999,0.0 13.254172269999998,51.374311039999995,0.0</coordinates>
                </LineString>
                <LineString id="3940">
                    <coordinates>13.278873139999998,51.37902466999999,0.0 13.278919259999995,51.379028969999986,0.0</coordinates>
                </LineString>
                <LineString id="3942">
                    <coordinates>13.278919259999995,51.379028969999986,0.0 13.27892422,51.37902941999999,0.0 13.27892538,51.37902956,0.0</coordinates>
                </LineString>
                <LineString id="3944">
                    <coordinates>13.346918819999999,51.34031361999999,0.0 13.346866149999999,51.34032867999999,0.0</coordinates>
                </LineString>
                <LineString id="3946">
                    <coordinates>13.241374349999997,51.35729538999998,0.0 13.24139663,51.35723671000001,0.0 13.241417429999998,51.35698079,0.0 13.241421019999997,51.35679801999998,0.0 13.241422059999996,51.3567421,0.0</coordinates>
                </LineString>
                <LineString id="3948">
                    <coordinates>13.35700024,51.35215193,0.0 13.357062409999997,51.352241519999986,0.0</coordinates>
                </LineString>
                <LineString id="3950">
                    <coordinates>13.358560169999999,51.35604724999999,0.0 13.35846304,51.35578225,0.0 13.358354399999996,51.355465769999995,0.0 13.358273079999998,51.35523995,0.0 13.358181329999997,51.35503569000001,0.0 13.35807727,51.354870339999984,0.0 13.35794519,51.35467871000001,0.0 13.35784389,51.35451708,0.0 13.357718479999997,51.3542704,0.0 13.35762764,51.35405471000001,0.0 13.357530290000001,51.353796689999996,0.0 13.357400059999998,51.35345995,0.0 13.357350649999999,51.35327377,0.0 13.35733201,51.3531694,0.0</coordinates>
                </LineString>
                <LineString id="3952">
                    <coordinates>13.357342629999998,51.353168749999995,0.0 13.35733201,51.3531694,0.0</coordinates>
                </LineString>
                <LineString id="3954">
                    <coordinates>13.357066989999998,51.35225619,0.0 13.357069609999998,51.35226473999999,0.0 13.357083979999999,51.35228743,0.0 13.357124089999997,51.352335839999995,0.0 13.357164069999998,51.3523786,0.0 13.357186469999997,51.352400419999995,0.0 13.35722799,51.352447949999984,0.0 13.357263859999998,51.35249692999998,0.0 13.35727933,51.35252474999999,0.0 13.3572941,51.35254673,0.0 13.357308979999999,51.35259281999999,0.0 13.357318619999997,51.35262745999999,0.0 13.35732394,51.352680129999996,0.0 13.35732572,51.35272676000001,0.0 13.357328369999996,51.35275922999998,0.0 13.3573271,51.35278913999999,0.0 13.357324819999999,51.35281438,0.0 13.357327029999997,51.35284245999999,0.0 13.357324039999998,51.35288829999999,0.0 13.357322949999999,51.35292860999999,0.0 13.35732315,51.35300515,0.0 13.357327529999997,51.353059259999995,0.0 13.357335729999999,51.35311029999999,0.0 13.357341889999999,51.3531379,0.0 13.35734332,51.35316167999999,0.0 13.357342629999998,51.353168749999995,0.0</coordinates>
                </LineString>
                <LineString id="3956">
                    <coordinates>13.357062409999997,51.352241519999986,0.0 13.357066989999998,51.35225619,0.0</coordinates>
                </LineString>
                <LineString id="3958">
                    <coordinates>13.35700024,51.35215193,0.0 13.35694311,51.35206982999999,0.0 13.35681392,51.35190097,0.0 13.356696599999998,51.35174659999999,0.0 13.356577850000003,51.35159725,0.0 13.356437729999998,51.351432900000006,0.0 13.356171019999998,51.35111883999999,0.0 13.356024949999998,51.350950350000005,0.0 13.355813909999997,51.35071951999999,0.0 13.355366839999999,51.350262289999996,0.0 13.35527651,51.35015652,0.0 13.35512146,51.349976719999994,0.0 13.355084729999998,51.34993176999998,0.0 13.355066329999996,51.349908249999984,0.0</coordinates>
                </LineString>
                <LineString id="3960">
                    <coordinates>13.35581186,51.3525354,0.0 13.35579676,51.35253378,0.0 13.355775930000002,51.35252794,0.0</coordinates>
                </LineString>
                <LineString id="3962">
                    <coordinates>13.357056749999996,51.35225381000001,0.0 13.357062739999996,51.352264379999994,0.0 13.3570687,51.352290899999986,0.0 13.357071649999998,51.352317019999994,0.0 13.357066909999997,51.35234151000002,0.0 13.35705927,51.35236738999999,0.0 13.357045879999998,51.352393629999995,0.0 13.357032959999996,51.35241863,0.0 13.357019709999998,51.35244487999999,0.0 13.357004239999997,51.352468939999994,0.0 13.35698683,51.35249045999999,0.0 13.356968589999997,51.35251609,0.0 13.356950029999997,51.352537780000006,0.0 13.356901640000002,51.35255177999999,0.0 13.35685196,51.35256129,0.0 13.356807439999997,51.35256603,0.0 13.356765529999999,51.352569640000006,0.0 13.35672228,51.352570549999996,0.0 13.356678239999999,51.352569300000006,0.0 13.35663566,51.35256698999999,0.0 13.356593939999998,51.35256497000001,0.0 13.35655004,51.352559150000005,0.0 13.356507899999997,51.35255694000001,0.0 13.356465289999997,51.352556419999985,0.0 13.356422569999998,51.352554739999995,0.0 13.356379559999997,51.35255368,0.0 13.356336869999998,51.35255144999998,0.0 13.356294559999998,51.35255101999997,0.0 13.35625015,51.35254966,0.0 13.356208879999999,51.352548689999985,0.0 13.35616655,51.35254975,0.0 13.356122299999997,51.35254826999999,0.0 13.35608093,51.352546460000006,0.0 13.35603674,51.35254369,0.0 13.355994629999998,51.35254309,0.0 13.355953699999997,51.352541049999985,0.0 13.355910379999996,51.352537969999986,0.0 13.35586918,51.352535360000005,0.0 13.355828319999999,51.35253078,0.0 13.35579783,51.35252744999998,0.0</coordinates>
                </LineString>
                <LineString id="3964">
                    <coordinates>13.357056749999996,51.35225381000001,0.0 13.357062409999997,51.352241519999986,0.0</coordinates>
                </LineString>
                <LineString id="3966">
                    <coordinates>13.3569478,51.35718160999999,0.0 13.35697733,51.357197659999976,0.0</coordinates>
                </LineString>
                <LineString id="3968">
                    <coordinates>13.356895630288376,51.35727046429078,0.0 13.35697043,51.35720296,0.0 13.35697733,51.357197659999976,0.0</coordinates>
                </LineString>
                <LineString id="3970">
                    <coordinates>13.35671416,51.35712810999999,0.0 13.35670723,51.35713898999998,0.0 13.356767199999997,51.3571542,0.0 13.356888880000001,51.35717927,0.0 13.3569478,51.35718160999999,0.0</coordinates>
                </LineString>
                <LineString id="3972">
                    <coordinates>13.359115979999997,51.33573667999999,0.0 13.35906021,51.3357318,0.0</coordinates>
                </LineString>
                <LineString id="3974">
                    <coordinates>13.355756949999998,51.353125559999995,0.0 13.355756959999999,51.35312528999999,0.0</coordinates>
                </LineString>
                <LineString id="3976">
                    <coordinates>13.355809779999998,51.35261026999998,0.0 13.35581186,51.3525354,0.0</coordinates>
                </LineString>
                <LineString id="3978">
                    <coordinates>13.355756949999998,51.353125559999995,0.0 13.355747779999998,51.353145959999985,0.0 13.355727049999997,51.35338152999999,0.0 13.355715389999999,51.35360778999999,0.0 13.35570938,51.35391760999999,0.0 13.355706659999997,51.35427719,0.0 13.355692729999998,51.35463644,0.0 13.35569115,51.35464720000001,0.0 13.35568414,51.354873519999984,0.0 13.355673619999996,51.35542316999999,0.0 13.355631489999997,51.35553672999999,0.0 13.3554655,51.35583965999999,0.0 13.355333979999997,51.35613275999999,0.0 13.355341860000001,51.35614313000001,0.0</coordinates>
                </LineString>
                <LineString id="3980">
                    <coordinates>13.355336779999998,51.35615478,0.0 13.35532586,51.35617997999999,0.0 13.35529998,51.35623193,0.0 13.355109719999998,51.356565719999985,0.0</coordinates>
                </LineString>
                <LineString id="3982">
                    <coordinates>13.355341860000001,51.35614313000001,0.0 13.355336779999998,51.35615478,0.0</coordinates>
                </LineString>
                <LineString id="3984">
                    <coordinates>13.356983119999997,51.357270249999985,0.0 13.356952143632764,51.35730222568539,0.0</coordinates>
                </LineString>
                <LineString id="3986">
                    <coordinates>13.356863069999998,51.357280639999985,0.0 13.356855589999995,51.35728592999998,0.0 13.356745659999998,51.35735939,0.0</coordinates>
                </LineString>
                <LineString id="3988">
                    <coordinates>13.355913959999999,51.35748933,0.0 13.356005159999995,51.357506839999985,0.0</coordinates>
                </LineString>
                <LineString id="3990">
                    <coordinates>13.35536218,51.35662048,0.0 13.35522696,51.35658703999999,0.0 13.355109719999998,51.356565719999985,0.0</coordinates>
                </LineString>
                <LineString id="3992">
                    <coordinates>13.3555711,51.356672190000005,0.0 13.35536218,51.35662048,0.0</coordinates>
                </LineString>
                <LineString id="3994">
                    <coordinates>13.35558518,51.356675889999984,0.0 13.355580630000002,51.356674659999996,0.0</coordinates>
                </LineString>
                <LineString id="3996">
                    <coordinates>13.35584526,51.357124840000004,0.0 13.35577056,51.35724419999999,0.0</coordinates>
                </LineString>
                <LineString id="3998">
                    <coordinates>13.35577056,51.35724419999999,0.0 13.355660669999999,51.35741935999999,0.0 13.355659869999998,51.357425289999995,0.0 13.355661399999999,51.357430539999996,0.0 13.355664269999998,51.35743462999998,0.0 13.35566931,51.357438480000006,0.0 13.35567323,51.357441239999986,0.0 13.355678599999997,51.35744392,0.0 13.355714739999996,51.35745107999999,0.0 13.355913959999999,51.35748933,0.0</coordinates>
                </LineString>
                <LineString id="4000">
                    <coordinates>13.356102079999998,51.35752567000001,0.0 13.35622146,51.357548829999985,0.0 13.356377949999997,51.35758171999999,0.0 13.356388999999998,51.35758267999999,0.0 13.35639996,51.357582009999966,0.0 13.356411859999998,51.35757937,0.0 13.356418999999999,51.35757677000001,0.0 13.356426019999997,51.357573259999995,0.0 13.35653049,51.357499180000005,0.0 13.356745659999998,51.35735939,0.0</coordinates>
                </LineString>
                <LineString id="4002">
                    <coordinates>13.356745659999998,51.35735939,0.0 13.356738759999999,51.35735928999999,0.0 13.356699659999999,51.35733629999998,0.0</coordinates>
                </LineString>
                <LineString id="4004">
                    <coordinates>13.355947649999996,51.356961489999996,0.0 13.356026619999998,51.35684515999999,0.0 13.356043939999998,51.35681954,0.0 13.356047749999998,51.35681265999999,0.0 13.356049639999997,51.35680737,0.0 13.356049460000001,51.35680421,0.0 13.356047979999998,51.35680104,0.0 13.356046059999999,51.35679821999998,0.0 13.356040989999999,51.356795269999985,0.0 13.356028499999999,51.356791129999976,0.0 13.355990489999996,51.356782059999986,0.0 13.35558518,51.356675889999984,0.0</coordinates>
                </LineString>
                <LineString id="4006">
                    <coordinates>13.356952143632764,51.35730222568539,0.0 13.356895630288376,51.35727046429078,0.0</coordinates>
                </LineString>
                <LineString id="4008">
                    <coordinates>13.355915049999997,51.35700955,0.0 13.355947649999996,51.356961489999996,0.0</coordinates>
                </LineString>
                <LineString id="4010">
                    <coordinates>13.35584526,51.357124840000004,0.0 13.355915049999997,51.35700955,0.0</coordinates>
                </LineString>
                <LineString id="4012">
                    <coordinates>13.355736009999998,51.35266214999999,0.0 13.355809779999998,51.35261026999998,0.0</coordinates>
                </LineString>
                <LineString id="4014">
                    <coordinates>13.356895630288376,51.35727046429078,0.0 13.356876792506915,51.357272816987425,0.0 13.356863069999998,51.357280639999985,0.0</coordinates>
                </LineString>
                <LineString id="4016">
                    <coordinates>13.248036319999999,51.35322463,0.0 13.247902899999998,51.35327718,0.0 13.247907869999999,51.35328961999999,0.0</coordinates>
                </LineString>
                <LineString id="4018">
                    <coordinates>13.34690979,51.34030762,0.0 13.346925949999997,51.34030704,0.0 13.346946059999999,51.340304709999984,0.0 13.34696431,51.340302079999994,0.0 13.346978539999997,51.340303279999986,0.0 13.346996039999997,51.340310849999995,0.0 13.347014289999999,51.34032161,0.0 13.34702956,51.340331139999996,0.0</coordinates>
                </LineString>
                <LineString id="4020">
                    <coordinates>13.346918819999999,51.34031361999999,0.0 13.34690979,51.34030762,0.0</coordinates>
                </LineString>
                <LineString id="4022">
                    <coordinates>13.346816230000002,51.34029341999999,0.0 13.34682284,51.34030328,0.0 13.346833349999999,51.34030812999998,0.0 13.346847719999998,51.340309789999985,0.0 13.34690979,51.34030762,0.0</coordinates>
                </LineString>
                <LineString id="4024">
                    <coordinates>13.345682379999998,51.34048338000001,0.0 13.34567849,51.340496869999996,0.0 13.3457397,51.34056126999999,0.0</coordinates>
                </LineString>
                <LineString id="4026">
                    <coordinates>13.346456789999996,51.339852740000005,0.0 13.34646903,51.339866829999984,0.0</coordinates>
                </LineString>
                <LineString id="4028">
                    <coordinates>13.34568979,51.340477159999985,0.0 13.345682379999998,51.34048338000001,0.0</coordinates>
                </LineString>
                <LineString id="4030">
                    <coordinates>13.345804210000002,51.34043875,0.0 13.34568979,51.340477159999985,0.0</coordinates>
                </LineString>
                <LineString id="4032">
                    <coordinates>13.34615179,51.340275269999985,0.0 13.346147919999998,51.34028344,0.0 13.34615168,51.34029225,0.0 13.34615341,51.34030131999999,0.0 13.34612224,51.340328599999985,0.0 13.346094819999998,51.340346539999985,0.0 13.346072189999997,51.340359219999996,0.0 13.345950699999998,51.34040812,0.0 13.345865299999998,51.340442539999984,0.0 13.34585453,51.34044537,0.0 13.34584402,51.3404444,0.0 13.345833609999996,51.34044026999999,0.0 13.345821849999997,51.34043792999999,0.0 13.345804210000002,51.34043875,0.0</coordinates>
                </LineString>
                <LineString id="4034">
                    <coordinates>13.34630252,51.34022306000001,0.0 13.34615179,51.340275269999985,0.0</coordinates>
                </LineString>
                <LineString id="4036">
                    <coordinates>13.34646903,51.339866829999984,0.0 13.34648779,51.33992947000001,0.0 13.346504589999999,51.34001277999999,0.0 13.346502179999998,51.34002466999999,0.0 13.346497579999998,51.34003338000001,0.0 13.346415509999998,51.34012746,0.0 13.34638139,51.34016592,0.0 13.346341109999996,51.34019823,0.0 13.346315149999999,51.34021602000001,0.0 13.34630252,51.34022306000001,0.0</coordinates>
                </LineString>
                <LineString id="4038">
                    <coordinates>13.346428019999996,51.33981906999999,0.0 13.346431899999999,51.33982381999999,0.0</coordinates>
                </LineString>
                <LineString id="4040">
                    <coordinates>13.34646903,51.339866829999984,0.0 13.346539959999998,51.339948839999984,0.0 13.346618699999997,51.340043519999995,0.0 13.34668787,51.34012659,0.0 13.346736169999996,51.34018568999999,0.0 13.346770999999997,51.340228489999994,0.0 13.346816230000002,51.34029341999999,0.0</coordinates>
                </LineString>
                <LineString id="4042">
                    <coordinates>13.346420589999997,51.33979437999999,0.0 13.34641539,51.33980352,0.0 13.346428019999996,51.33981906999999,0.0</coordinates>
                </LineString>
                <LineString id="4044">
                    <coordinates>13.346431899999999,51.33982381999999,0.0 13.346456789999996,51.339852740000005,0.0</coordinates>
                </LineString>
                <LineString id="4046">
                    <coordinates>13.34858929,51.34215679999999,0.0 13.348425549999998,51.34195901999999,0.0 13.348422519999998,51.3419445,0.0 13.348439999999998,51.34195725000001,0.0 13.348403689999998,51.34191925,0.0</coordinates>
                </LineString>
                <LineString id="4048">
                    <coordinates>13.25574831,51.37147401,0.0 13.255751369999995,51.37149268999999,0.0</coordinates>
                </LineString>
                <LineString id="4050">
                    <coordinates>13.257125089999999,51.37108201,0.0 13.25689525,51.37116477999999,0.0 13.25673061,51.37122209999999,0.0 13.25658575,51.37127197,0.0 13.256211719999996,51.37139967999999,0.0 13.256011669999998,51.371438950000005,0.0 13.255930599999996,51.37145576999999,0.0 13.25574831,51.37147401,0.0</coordinates>
                </LineString>
                <LineString id="4052">
                    <coordinates>13.356102079999998,51.35752567000001,0.0 13.356118019999998,51.357510219999995,0.0</coordinates>
                </LineString>
                <LineString id="4054">
                    <coordinates>13.356118019999998,51.357510219999995,0.0 13.35607094,51.35745308999999,0.0 13.35608715,51.35742956,0.0 13.35610697,51.35743485999999,0.0</coordinates>
                </LineString>
                <LineString id="4056">
                    <coordinates>13.357395799999999,51.35695344999999,0.0 13.357310639999998,51.35692936,0.0</coordinates>
                </LineString>
                <LineString id="4058">
                    <coordinates>13.357310639999998,51.35692936,0.0 13.357239219999999,51.356920229999986,0.0 13.35718734,51.35692876,0.0 13.357139369999997,51.356945709999984,0.0 13.357111459999999,51.35695809,0.0 13.357068899999998,51.35695704,0.0</coordinates>
                </LineString>
                <LineString id="4060">
                    <coordinates>13.357035119999999,51.35684688,0.0 13.35701433,51.356856040000004,0.0 13.357002249999999,51.35689468999998,0.0 13.356992139999996,51.35692507000001,0.0 13.357068899999998,51.35695704,0.0</coordinates>
                </LineString>
                <LineString id="4062">
                    <coordinates>13.357544,51.33558172,0.0 13.357545429999997,51.33558183,0.0</coordinates>
                </LineString>
                <LineString id="4064">
                    <coordinates>13.35906021,51.3357318,0.0 13.359050660000001,51.33572233999999,0.0 13.35896559,51.335714679999995,0.0 13.35856285,51.33567842,0.0 13.358024159999998,51.3356271,0.0</coordinates>
                </LineString>
                <LineString id="4066">
                    <coordinates>13.35767162,51.335593149999994,0.0 13.358024159999998,51.3356271,0.0</coordinates>
                </LineString>
                <LineString id="4068">
                    <coordinates>13.25643191,51.3747045,0.0 13.256421309999999,51.37469556,0.0 13.256414009999997,51.37468702999999,0.0 13.25640333,51.374665590000006,0.0 13.256396149999997,51.37463957999998,0.0 13.25638424,51.374594859999995,0.0</coordinates>
                </LineString>
                <LineString id="4070">
                    <coordinates>13.25638424,51.374594859999995,0.0 13.25636563,51.37453348999999,0.0 13.256358519999997,51.37451017999999,0.0 13.256353199999998,51.374485039999996,0.0</coordinates>
                </LineString>
                <LineString id="4072">
                    <coordinates>13.256353199999998,51.374485039999996,0.0 13.25634046,51.37445118999999,0.0</coordinates>
                </LineString>
                <LineString id="4074">
                    <coordinates>13.25634046,51.37445118999999,0.0 13.25633896,51.37444382,0.0</coordinates>
                </LineString>
                <LineString id="4076">
                    <coordinates>13.25633896,51.37444382,0.0 13.2563339,51.37442032,0.0</coordinates>
                </LineString>
                <LineString id="4078">
                    <coordinates>13.2563339,51.37442032,0.0 13.256327340000002,51.374387760000005,0.0</coordinates>
                </LineString>
                <LineString id="4080">
                    <coordinates>13.256327340000002,51.374387760000005,0.0 13.256311959999996,51.374327229999984,0.0 13.256294159999998,51.37425791999999,0.0</coordinates>
                </LineString>
                <LineString id="4082">
                    <coordinates>13.256294159999998,51.37425791999999,0.0 13.25629167,51.374248649999984,0.0 13.25628057,51.37419956,0.0 13.256253210000002,51.37416826,0.0</coordinates>
                </LineString>
                <LineString id="4084">
                    <coordinates>13.256253210000002,51.37416826,0.0 13.25620506,51.374111979999995,0.0 13.256158629999998,51.37405794,0.0 13.256085349999998,51.373976330000005,0.0 13.256035729999999,51.37392014999999,0.0 13.255977849999997,51.37385823999998,0.0 13.255927569999997,51.373804609999986,0.0 13.2558946,51.373784529999995,0.0</coordinates>
                </LineString>
                <LineString id="4086">
                    <coordinates>13.25581453,51.37370105,0.0 13.255853399999998,51.37374476,0.0</coordinates>
                </LineString>
                <LineString id="4088">
                    <coordinates>13.2556893,51.373559799999995,0.0 13.25581453,51.37370105,0.0</coordinates>
                </LineString>
                <LineString id="4090">
                    <coordinates>13.2556893,51.373559799999995,0.0 13.25566818,51.37352730999999,0.0</coordinates>
                </LineString>
                <LineString id="4092">
                    <coordinates>13.25566818,51.37352730999999,0.0 13.25565173,51.37352209,0.0</coordinates>
                </LineString>
                <LineString id="4094">
                    <coordinates>13.25565173,51.37352209,0.0 13.255649149999998,51.37351303,0.0</coordinates>
                </LineString>
                <LineString id="4096">
                    <coordinates>13.255649149999998,51.37351303,0.0 13.255604399999998,51.373412159999994,0.0</coordinates>
                </LineString>
                <LineString id="4098">
                    <coordinates>13.255604399999998,51.373412159999994,0.0 13.255593979999997,51.37339518,0.0 13.25557498,51.37333984999999,0.0</coordinates>
                </LineString>
                <LineString id="4100">
                    <coordinates>13.25557498,51.37333984999999,0.0 13.255535629999999,51.37326333,0.0</coordinates>
                </LineString>
                <LineString id="4102">
                    <coordinates>13.255535629999999,51.37326333,0.0 13.255513069999996,51.37321758,0.0 13.255469609999997,51.373112049999996,0.0</coordinates>
                </LineString>
                <LineString id="4104">
                    <coordinates>13.255469609999997,51.373112049999996,0.0 13.25545652,51.37305409,0.0</coordinates>
                </LineString>
                <LineString id="4106">
                    <coordinates>13.25545652,51.37305409,0.0 13.255442179999998,51.372990019999996,0.0</coordinates>
                </LineString>
                <LineString id="4108">
                    <coordinates>13.255442179999998,51.372990019999996,0.0 13.255420519999996,51.37290331999999,0.0</coordinates>
                </LineString>
                <LineString id="4110">
                    <coordinates>13.255420519999996,51.37290331999999,0.0 13.255406209999999,51.37282891,0.0 13.25539212,51.37276469000001,0.0</coordinates>
                </LineString>
                <LineString id="4112">
                    <coordinates>13.25539212,51.37276469000001,0.0 13.255372519999996,51.37259897999999,0.0 13.25537212,51.372593789999996,0.0</coordinates>
                </LineString>
                <LineString id="4114">
                    <coordinates>13.25537212,51.372593789999996,0.0 13.255369679999998,51.37256477999999,0.0</coordinates>
                </LineString>
                <LineString id="4116">
                    <coordinates>13.255369679999998,51.37256477999999,0.0 13.255361009999998,51.37254516,0.0 13.255318109999996,51.37246182999998,0.0</coordinates>
                </LineString>
                <LineString id="4118">
                    <coordinates>13.255318109999996,51.37246182999998,0.0 13.25529982,51.37243047,0.0 13.255293789999998,51.37241796000001,0.0</coordinates>
                </LineString>
                <LineString id="4120">
                    <coordinates>13.255293789999998,51.37241796000001,0.0 13.25528484,51.372389149999975,0.0</coordinates>
                </LineString>
                <LineString id="4122">
                    <coordinates>13.25528484,51.372389149999975,0.0 13.255284329999997,51.372382650000006,0.0</coordinates>
                </LineString>
                <LineString id="4124">
                    <coordinates>13.255284329999997,51.372382650000006,0.0 13.255283069999999,51.372364,0.0 13.255282009999997,51.37232439999998,0.0 13.25528136,51.372299609999985,0.0 13.255281559999998,51.372285379999994,0.0</coordinates>
                </LineString>
                <LineString id="4126">
                    <coordinates>13.255281559999998,51.372285379999994,0.0 13.255277569999997,51.37225750999999,0.0 13.255276679999998,51.37225324,0.0</coordinates>
                </LineString>
                <LineString id="4128">
                    <coordinates>13.255276679999998,51.37225324,0.0 13.255268519999996,51.37222240999998,0.0 13.25526149,51.37220348999999,0.0</coordinates>
                </LineString>
                <LineString id="4130">
                    <coordinates>13.255123249999997,51.37209880000001,0.0 13.25519964,51.37215797000001,0.0 13.25526149,51.37220348999999,0.0</coordinates>
                </LineString>
                <LineString id="4132">
                    <coordinates>13.255123249999997,51.37209880000001,0.0 13.25509973,51.372024659999994,0.0 13.255083079999999,51.37195825999999,0.0 13.25506803,51.37189348999999,0.0 13.25507142,51.37182919999999,0.0 13.25507323,51.37173026000001,0.0</coordinates>
                </LineString>
                <LineString id="4134">
                    <coordinates>13.25507323,51.37173026000001,0.0 13.25508325,51.37167852,0.0 13.25509632,51.371645810000004,0.0 13.2551218,51.371598589999984,0.0 13.25517683,51.371549949999995,0.0 13.25526932,51.37151115,0.0 13.255366799999996,51.371472739999994,0.0 13.255485049999999,51.37141137999999,0.0 13.255543739999998,51.37136122999999,0.0 13.255623129999998,51.37129857999999,0.0</coordinates>
                </LineString>
                <LineString id="4136">
                    <coordinates>13.255623129999998,51.37129857999999,0.0 13.255837540000002,51.37112296000001,0.0 13.255771099999999,51.371046779999986,0.0 13.25573976,51.37094543,0.0 13.255686599999999,51.37084658999999,0.0 13.255611129999998,51.37070814,0.0 13.255539349999998,51.37060202,0.0 13.255499639999998,51.37054326999999,0.0 13.25542174,51.37036968999998,0.0 13.25539089,51.370295250000005,0.0 13.255352079999998,51.37021368999999,0.0 13.255308159999997,51.37012069999997,0.0 13.255258269999999,51.36999873999999,0.0 13.255174720000001,51.36986429000001,0.0 13.25509136,51.369724569999995,0.0 13.254873459999997,51.36947094,0.0 13.25478287,51.36935295,0.0 13.25465723,51.369183019999994,0.0 13.254490230000002,51.36894786,0.0 13.254351819999998,51.36876108,0.0 13.254225749999998,51.368596359999984,0.0</coordinates>
                </LineString>
                <LineString id="4138">
                    <coordinates>13.254225749999998,51.368596359999984,0.0 13.25420686,51.36857159,0.0 13.254045019999996,51.36836092,0.0 13.25391099,51.368186179999995,0.0 13.25373889,51.36796486,0.0 13.25369583,51.36790837,0.0</coordinates>
                </LineString>
                <LineString id="4140">
                    <coordinates>13.25369583,51.36790837,0.0 13.253582589999999,51.367759389999996,0.0 13.25344996,51.36758387999999,0.0 13.253309599999998,51.367398589999986,0.0 13.253098159999999,51.36711103999999,0.0</coordinates>
                </LineString>
                <LineString id="4142">
                    <coordinates>13.253098159999999,51.36711103999999,0.0 13.253015210000001,51.366996289999996,0.0 13.2529647,51.36692838,0.0 13.252880759999996,51.36680844999999,0.0 13.25281257,51.36670521999999,0.0 13.252782959999998,51.366633099999994,0.0 13.25272445,51.366443100000005,0.0 13.252693689999996,51.366311219999986,0.0</coordinates>
                </LineString>
                <LineString id="4144">
                    <coordinates>13.362842999999996,51.360370999999994,0.0 13.362771839999999,51.36054515999998,0.0</coordinates>
                </LineString>
                <LineString id="4146">
                    <coordinates>13.350995,51.34470399999999,0.0 13.35074622,51.34461433,0.0</coordinates>
                </LineString>
                <LineString id="4148">
                    <coordinates>13.354832999999998,51.343011,0.0 13.354567319999997,51.34294297000001,0.0</coordinates>
                </LineString>
                <LineString id="4150">
                    <coordinates>13.356715999999999,51.35729299999999,0.0 13.356699659999999,51.35733629999998,0.0</coordinates>
                </LineString>
                <LineString id="4152">
                    <coordinates>13.362771839999999,51.36054515999998,0.0 13.36262981,51.36089278000001,0.0</coordinates>
                </LineString>
                <LineString id="4154">
                    <coordinates>13.35074622,51.34461433,0.0 13.350578969999999,51.344554050000006,0.0</coordinates>
                </LineString>
                <LineString id="4156">
                    <coordinates>13.354567319999997,51.34294297000001,0.0 13.35160357,51.34218398999998,0.0</coordinates>
                </LineString>
                <LineString id="4158">
                    <coordinates>13.246398,51.353817,0.0 13.24630037,51.35379878,0.0</coordinates>
                </LineString>
                <LineString id="4160">
                    <coordinates>13.257214999999999,51.37158999999999,0.0 13.257151739999998,51.37141465,0.0</coordinates>
                </LineString>
                <LineString id="4162">
                    <coordinates>13.257151739999998,51.37141465,0.0 13.25713352,51.37136416,0.0</coordinates>
                </LineString>
                <LineString id="4164">
                    <coordinates>13.27897886,51.38011008,0.0 13.27897927,51.38010637,0.0 13.278728402596586,51.38012812136018,0.0 13.278533134128779,51.38012050405118,0.0 13.27852037,51.38004788,0.0</coordinates>
                </LineString>
                <LineString id="4166">
                    <coordinates>13.241485169999999,51.35575092999999,0.0 13.241435879999996,51.35576547999999,0.0</coordinates>
                </LineString>
                <LineString id="4168">
                    <coordinates>13.3874861,51.370671569999985,0.0 13.387432009999998,51.370698860000005,0.0</coordinates>
                </LineString>
                <LineString id="4170">
                    <coordinates>13.387629590000001,51.37104884000001,0.0 13.387609259999998,51.37104152,0.0 13.387598069999997,51.37102927,0.0 13.387588209999999,51.37101624999998,0.0 13.387587199999999,51.37100846999998,0.0 13.38758699,51.37097988000001,0.0 13.387569219999998,51.37091754,0.0 13.38754308,51.37084266000001,0.0 13.3874861,51.370671569999985,0.0</coordinates>
                </LineString>
                <LineString id="4172">
                    <coordinates>13.387350909999997,51.37042912999998,0.0 13.387378819999997,51.37052849999999,0.0</coordinates>
                </LineString>
                <LineString id="4174">
                    <coordinates>13.387432009999998,51.370698860000005,0.0 13.387378819999997,51.37052849999999,0.0</coordinates>
                </LineString>
                <LineString id="4176">
                    <coordinates>13.387340269999996,51.370402119999994,0.0 13.387350909999997,51.37042912999998,0.0</coordinates>
                </LineString>
                <LineString id="4178">
                    <coordinates>13.387340269999996,51.370402119999994,0.0 13.387337449999999,51.370388059999996,0.0</coordinates>
                </LineString>
                <LineString id="4180">
                    <coordinates>13.387259009999998,51.37014399999999,0.0 13.38727896,51.37021301,0.0</coordinates>
                </LineString>
                <LineString id="4182">
                    <coordinates>13.387337449999999,51.370388059999996,0.0 13.38731393,51.370317529999994,0.0 13.38727896,51.37021301,0.0</coordinates>
                </LineString>
                <LineString id="4184">
                    <coordinates>13.387224879999996,51.37001856999999,0.0 13.387196469999996,51.36992129000001,0.0</coordinates>
                </LineString>
                <LineString id="4186">
                    <coordinates>13.387259009999998,51.37014399999999,0.0 13.387224879999996,51.37001856999999,0.0</coordinates>
                </LineString>
                <LineString id="4188">
                    <coordinates>13.387172079999997,51.369820079999975,0.0 13.387196469999996,51.36992129000001,0.0</coordinates>
                </LineString>
                <LineString id="4190">
                    <coordinates>13.387141049999999,51.36971363999999,0.0 13.387172079999997,51.369820079999975,0.0</coordinates>
                </LineString>
                <LineString id="4192">
                    <coordinates>13.387130019999999,51.369673289999994,0.0 13.387141049999999,51.36971363999999,0.0</coordinates>
                </LineString>
                <LineString id="4194">
                    <coordinates>13.38711258,51.369615769999996,0.0 13.387130019999999,51.369673289999994,0.0</coordinates>
                </LineString>
                <LineString id="4196">
                    <coordinates>13.38711258,51.369615769999996,0.0 13.387056969999998,51.36938924,0.0</coordinates>
                </LineString>
                <LineString id="4198">
                    <coordinates>13.387056969999998,51.36938924,0.0 13.387054949999998,51.369379489999986,0.0</coordinates>
                </LineString>
                <LineString id="4200">
                    <coordinates>13.387054949999998,51.369379489999986,0.0 13.387022449999996,51.36924090999998,0.0 13.387070709999998,51.369237659999996,0.0</coordinates>
                </LineString>
                <LineString id="4202">
                    <coordinates>13.387047039999999,51.369136499999996,0.0 13.387043,51.36911891999999,0.0 13.386991539999999,51.36887477999999,0.0 13.386917369999999,51.36849315999999,0.0</coordinates>
                </LineString>
                <LineString id="4204">
                    <coordinates>13.386917369999999,51.36849315999999,0.0 13.38685923,51.368220400000006,0.0 13.386859400000002,51.368218349999985,0.0 13.386835510000001,51.36810360000001,0.0</coordinates>
                </LineString>
                <LineString id="4206">
                    <coordinates>13.386835510000001,51.36810360000001,0.0 13.38682678,51.36805451000001,0.0</coordinates>
                </LineString>
                <LineString id="4208">
                    <coordinates>13.38720487,51.36799935999999,0.0 13.38727904,51.36792516,0.0 13.38710225,51.36777442,0.0</coordinates>
                </LineString>
                <LineString id="4210">
                    <coordinates>13.38682678,51.36805451000001,0.0 13.387040779999998,51.36804080999998,0.0 13.38720487,51.36799935999999,0.0</coordinates>
                </LineString>
                <LineString id="4212">
                    <coordinates>13.38710225,51.36777442,0.0 13.386812329999996,51.36752666999999,0.0 13.386515619999999,51.36727253999998,0.0 13.386085269999995,51.36691326999999,0.0 13.38587829,51.366741620000006,0.0 13.385296799999999,51.36625017000001,0.0 13.38474815,51.365787210000015,0.0 13.384730659999999,51.36577156999999,0.0 13.3841997,51.365328289999994,0.0</coordinates>
                </LineString>
                <LineString id="4214">
                    <coordinates>13.3841997,51.365328289999994,0.0 13.38426664,51.365295039999985,0.0</coordinates>
                </LineString>
                <LineString id="4216">
                    <coordinates>13.383592299999998,51.36440316999998,0.0 13.384053569999999,51.36416181,0.0 13.384119189999998,51.36411870999999,0.0</coordinates>
                </LineString>
                <LineString id="4218">
                    <coordinates>13.384119189999998,51.36411870999999,0.0 13.384133659999998,51.36411138,0.0 13.38413777,51.36410041,0.0 13.384130129999999,51.364089359999994,0.0 13.384082229999997,51.36404826,0.0</coordinates>
                </LineString>
                <LineString id="4220">
                    <coordinates>13.383986079999998,51.363967499999994,0.0 13.384082229999997,51.36404826,0.0</coordinates>
                </LineString>
                <LineString id="4222">
                    <coordinates>13.38369763,51.363733129999986,0.0 13.383583499999999,51.36365302,0.0 13.383513529999998,51.36368528,0.0 13.38350421,51.363701750000004,0.0</coordinates>
                </LineString>
                <LineString id="4224">
                    <coordinates>13.383917929999999,51.36399889,0.0 13.383986079999998,51.363967499999994,0.0</coordinates>
                </LineString>
                <LineString id="4226">
                    <coordinates>13.3836459,51.36375970999999,0.0 13.38369763,51.363733129999986,0.0</coordinates>
                </LineString>
                <LineString id="4228">
                    <coordinates>13.38379575,51.363817099999984,0.0 13.38369763,51.363733129999986,0.0</coordinates>
                </LineString>
                <LineString id="4230">
                    <coordinates>13.38379575,51.363817099999984,0.0 13.383736360000002,51.363847889999995,0.0</coordinates>
                </LineString>
                <LineString id="4232">
                    <coordinates>13.383889309999997,51.363890339999976,0.0 13.38379575,51.363817099999984,0.0</coordinates>
                </LineString>
                <LineString id="4234">
                    <coordinates>13.383986079999998,51.363967499999994,0.0 13.383889309999997,51.363890339999976,0.0</coordinates>
                </LineString>
                <LineString id="4236">
                    <coordinates>13.38413837,51.363766899999995,0.0 13.384019149999999,51.36368346999999,0.0 13.383999280000001,51.363681789999994,0.0</coordinates>
                </LineString>
                <LineString id="4238">
                    <coordinates>13.38428612,51.36369378,0.0 13.384285749999998,51.36371791999999,0.0 13.38413837,51.363766899999995,0.0</coordinates>
                </LineString>
                <LineString id="4240">
                    <coordinates>13.383889309999997,51.363890339999976,0.0 13.38402311,51.36383824,0.0 13.384056319999997,51.363817159999996,0.0 13.38406014,51.36380754000001,0.0 13.384120869999997,51.36377290999999,0.0 13.38413837,51.363766899999995,0.0</coordinates>
                </LineString>
                <LineString id="4242">
                    <coordinates>13.38426664,51.365295039999985,0.0 13.383912210000002,51.36500992000001,0.0 13.38378006,51.36490730999999,0.0</coordinates>
                </LineString>
                <LineString id="4244">
                    <coordinates>13.387070709999998,51.369237659999996,0.0 13.387047039999999,51.369136499999996,0.0</coordinates>
                </LineString>
                <LineString id="4246">
                    <coordinates>13.383988999999996,51.36407599999999,0.0 13.38401521,51.364082389999986,0.0</coordinates>
                </LineString>
                <LineString id="4248">
                    <coordinates>13.383563000000002,51.36370399999999,0.0 13.38350421,51.363701750000004,0.0</coordinates>
                </LineString>
                <LineString id="4250">
                    <coordinates>13.383925999999999,51.36402099999999,0.0 13.383917929999999,51.36399889,0.0</coordinates>
                </LineString>
                <LineString id="4252">
                    <coordinates>13.383619999999999,51.36376299999999,0.0 13.3836459,51.36375970999999,0.0</coordinates>
                </LineString>
                <LineString id="4254">
                    <coordinates>13.383744,51.36386199999998,0.0 13.383736360000002,51.363847889999995,0.0</coordinates>
                </LineString>
                <LineString id="4256">
                    <coordinates>13.383799999999997,51.363918,0.0 13.383889309999997,51.363890339999976,0.0</coordinates>
                </LineString>
                <LineString id="4258">
                    <coordinates>13.383888999999996,51.363722999999986,0.0 13.383999280000001,51.363681789999994,0.0</coordinates>
                </LineString>
                <LineString id="4260">
                    <coordinates>13.384260999999999,51.36368999999999,0.0 13.38428612,51.36369378,0.0</coordinates>
                </LineString>
                <LineString id="4262">
                    <coordinates>13.361261049999998,51.33592119,0.0 13.361171650000001,51.33591235999999,0.0</coordinates>
                </LineString>
                <LineString id="4264">
                    <coordinates>13.361171650000001,51.33591235999999,0.0 13.361062789999998,51.33590124999998,0.0</coordinates>
                </LineString>
                <LineString id="4266">
                    <coordinates>13.361062789999998,51.33590124999998,0.0 13.36054299,51.33585783999999,0.0 13.36007731,51.33582032,0.0</coordinates>
                </LineString>
                <LineString id="4268">
                    <coordinates>13.362293179999998,51.336003119999994,0.0 13.36216067,51.33600431000001,0.0 13.361994800000002,51.335996499999986,0.0 13.36168183,51.33596860000001,0.0 13.36152471,51.33594717,0.0 13.361367350000002,51.33593163,0.0</coordinates>
                </LineString>
                <LineString id="4270">
                    <coordinates>13.361367350000002,51.33593163,0.0 13.361261049999998,51.33592119,0.0</coordinates>
                </LineString>
                <LineString id="4272">
                    <coordinates>13.245846519999999,51.35381997999998,0.0 13.245886669999999,51.35380703,0.0 13.24589363,51.35380448999999,0.0</coordinates>
                </LineString>
                <LineString id="4274">
                    <coordinates>13.24589363,51.35380448999999,0.0 13.24596947,51.353776550000006,0.0 13.246055449999998,51.353741490000004,0.0 13.24619085,51.35367920999999,0.0</coordinates>
                </LineString>
                <LineString id="4276">
                    <coordinates>13.238835089999998,51.36213183,0.0 13.23858131,51.36190864,0.0</coordinates>
                </LineString>
                <LineString id="4278">
                    <coordinates>13.27873035,51.37992969,0.0 13.278702859999997,51.37990595,0.0</coordinates>
                </LineString>
                <LineString id="4280">
                    <coordinates>13.278790700000002,51.3800188,0.0 13.27876051,51.379973039999996,0.0 13.27873035,51.37992969,0.0</coordinates>
                </LineString>
                <LineString id="4282">
                    <coordinates>13.278800399999996,51.37901768999998,0.0 13.278793089999999,51.37901701999999,0.0</coordinates>
                </LineString>
                <LineString id="4284">
                    <coordinates>13.27892538,51.37902956,0.0 13.278974209999996,51.37903378,0.0 13.278966419999998,51.3790804,0.0</coordinates>
                </LineString>
                <LineString id="4286">
                    <coordinates>13.278690419999998,51.37894418,0.0 13.278808289999999,51.3789563,0.0 13.278884589999999,51.378964139999994,0.0 13.278873139999998,51.37902466999999,0.0</coordinates>
                </LineString>
                <LineString id="4288">
                    <coordinates>13.278690419999998,51.37894418,0.0 13.278728499999998,51.37891584,0.0 13.27875015,51.37889924999999,0.0 13.278793699999998,51.37887271,0.0 13.278852059999998,51.378836809999996,0.0 13.278890939999998,51.378813269999995,0.0 13.27894198,51.37878192,0.0 13.27897356,51.37876297999998,0.0 13.279048770000001,51.37871593,0.0 13.27906175,51.37872515999999,0.0</coordinates>
                </LineString>
                <LineString id="4290">
                    <coordinates>13.27868129,51.37895159,0.0 13.278690419999998,51.37894418,0.0</coordinates>
                </LineString>
                <LineString id="4292">
                    <coordinates>13.27852037,51.38004788,0.0 13.278525029999999,51.380032250000006,0.0</coordinates>
                </LineString>
                <LineString id="4294">
                    <coordinates>13.280316419999997,51.38032805999999,0.0 13.280308209999998,51.380371239999995,0.0</coordinates>
                </LineString>
                <LineString id="4296">
                    <coordinates>13.279989539999999,51.38033424999998,0.0 13.279988439999999,51.380345590000005,0.0</coordinates>
                </LineString>
                <LineString id="4298">
                    <coordinates>13.27962315,51.38033477999999,0.0 13.279513137751591,51.38024542775886,0.0 13.279404749999996,51.38017505,0.0</coordinates>
                </LineString>
                <LineString id="4300">
                    <coordinates>13.280316419999997,51.38032805999999,0.0 13.28011094,51.38033196999999,0.0 13.279989539999999,51.38033424999998,0.0</coordinates>
                </LineString>
                <LineString id="4302">
                    <coordinates>13.27962315,51.38033477999999,0.0 13.279623729999999,51.380364679999985,0.0</coordinates>
                </LineString>
                <LineString id="4304">
                    <coordinates>13.279459110000001,51.38032749999999,0.0 13.279400899999997,51.38032703999999,0.0 13.279401639999998,51.38020104999999,0.0 13.279404749999996,51.38017505,0.0</coordinates>
                </LineString>
                <LineString id="4306">
                    <coordinates>13.279190269999999,51.380138669999994,0.0 13.27915777,51.38013176,0.0 13.27908632,51.3801225,0.0 13.279028619999998,51.380115339999996,0.0 13.27900227,51.380112759999996,0.0</coordinates>
                </LineString>
                <LineString id="4308">
                    <coordinates>13.279404749999996,51.38017505,0.0 13.279309529999999,51.38015839,0.0 13.279219580000001,51.38014357,0.0 13.279190269999999,51.380138669999994,0.0</coordinates>
                </LineString>
                <LineString id="4310">
                    <coordinates>13.27918336,51.380269479999995,0.0 13.2791842,51.38025208999999,0.0 13.279185249999998,51.38023616,0.0 13.279188009999997,51.380196879999986,0.0 13.279190269999999,51.380138669999994,0.0</coordinates>
                </LineString>
                <LineString id="4312">
                    <coordinates>13.27897886,51.38011008,0.0 13.27900227,51.380112759999996,0.0</coordinates>
                </LineString>
                <LineString id="4314">
                    <coordinates>13.255358,51.372182389999985,0.0 13.255331809999998,51.37208593,0.0</coordinates>
                </LineString>
                <LineString id="4316">
                    <coordinates>13.255258419999999,51.372195420000004,0.0 13.255279539999998,51.372187809999986,0.0 13.255358,51.372182389999985,0.0</coordinates>
                </LineString>
                <LineString id="4318">
                    <coordinates>13.25526149,51.37220348999999,0.0 13.255258419999999,51.372195420000004,0.0</coordinates>
                </LineString>
                <LineString id="4320">
                    <coordinates>13.255172759999997,51.37186862999999,0.0 13.255163259999996,51.37183482999998,0.0</coordinates>
                </LineString>
                <LineString id="4322">
                    <coordinates>13.255154989999998,51.37178905999999,0.0 13.255153869999997,51.37179359,0.0</coordinates>
                </LineString>
                <LineString id="4324">
                    <coordinates>13.255163259999996,51.37183482999998,0.0 13.255153869999997,51.37179359,0.0</coordinates>
                </LineString>
                <LineString id="4326">
                    <coordinates>13.257125089999999,51.37108201,0.0 13.257172579999997,51.37114686999999,0.0</coordinates>
                </LineString>
                <LineString id="4328">
                    <coordinates>13.255236869999996,51.372131289999984,0.0 13.255234959999997,51.37212584999999,0.0 13.25521771,51.372067189999996,0.0 13.255183119999998,51.37191486999998,0.0 13.255172759999997,51.37186862999999,0.0</coordinates>
                </LineString>
                <LineString id="4330">
                    <coordinates>13.252693689999996,51.366311219999986,0.0 13.252726189999997,51.36619642,0.0</coordinates>
                </LineString>
                <LineString id="4332">
                    <coordinates>13.241469729999999,51.355637499999986,0.0 13.24148541,51.35561521999999,0.0</coordinates>
                </LineString>
                <LineString id="4334">
                    <coordinates>13.241485169999999,51.35575092999999,0.0 13.24148099,51.35573244999996,0.0 13.241469729999999,51.355637499999986,0.0</coordinates>
                </LineString>
                <LineString id="4336">
                    <coordinates>13.254172269999998,51.374311039999995,0.0 13.254151529999996,51.37431211999998,0.0 13.254152029999998,51.37432293999999,0.0 13.254236879999999,51.374438469999994,0.0 13.254247389999998,51.37445056999999,0.0 13.254265539999999,51.37445952,0.0 13.254283859999997,51.374463719999994,0.0 13.2543448,51.374469299999994,0.0</coordinates>
                </LineString>
                <LineString id="4338">
                    <coordinates>13.2543448,51.374469299999994,0.0 13.25440022,51.37447317999998,0.0 13.254435599999997,51.37447693999999,0.0 13.254509189999998,51.374483519999984,0.0 13.254591889999999,51.37449113000002,0.0 13.25462923,51.37450133000001,0.0 13.25468981,51.37451984,0.0 13.254745569999999,51.37453605999999,0.0</coordinates>
                </LineString>
                <LineString id="4340">
                    <coordinates>13.254745569999999,51.37453605999999,0.0 13.25486513,51.374573389999995,0.0</coordinates>
                </LineString>
                <LineString id="4342">
                    <coordinates>13.336539709999998,51.07865723,0.0 13.33645166,51.07834332,0.0 13.336413589999998,51.07820536,0.0 13.33640197,51.07816394,0.0</coordinates>
                </LineString>
            </MultiGeometry>
        </Placemark>
        <Placemark id="4349">
            <name>MultiPoint</name>
            <styleUrl>#4478</styleUrl>
            <MultiGeometry id="4348">
                <Point id="4350">
                    <coordinates>13.355544109999999,51.33759872,0.0</coordinates>
                </Point>
                <Point id="4352">
                    <coordinates>13.346560129999999,51.34069458999999,0.0</coordinates>
                </Point>
                <Point id="4354">
                    <coordinates>13.345332909999996,51.34126885,0.0</coordinates>
                </Point>
                <Point id="4356">
                    <coordinates>13.348164579999999,51.34075807999999,0.0</coordinates>
                </Point>
                <Point id="4358">
                    <coordinates>13.27846693,51.37981032999999,0.0</coordinates>
                </Point>
                <Point id="4360">
                    <coordinates>13.278568559999998,51.37998520000001,0.0</coordinates>
                </Point>
                <Point id="4362">
                    <coordinates>13.279183239999998,51.38027618000002,0.0</coordinates>
                </Point>
                <Point id="4364">
                    <coordinates>13.279470499999999,51.380327219999984,0.0</coordinates>
                </Point>
                <Point id="4366">
                    <coordinates>13.279625479999996,51.38037177999999,0.0</coordinates>
                </Point>
                <Point id="4368">
                    <coordinates>13.28028416,51.38038255,0.0</coordinates>
                </Point>
                <Point id="4370">
                    <coordinates>13.27998793,51.38035171999999,0.0</coordinates>
                </Point>
                <Point id="4372">
                    <coordinates>13.2782692,51.37965282,0.0</coordinates>
                </Point>
                <Point id="4374">
                    <coordinates>13.277801699999996,51.37926506,0.0</coordinates>
                </Point>
                <Point id="4376">
                    <coordinates>13.27742193,51.379145689999994,0.0</coordinates>
                </Point>
                <Point id="4378">
                    <coordinates>13.27786004,51.37897140999999,0.0</coordinates>
                </Point>
                <Point id="4380">
                    <coordinates>13.278170239999994,51.37901358,0.0</coordinates>
                </Point>
                <Point id="4382">
                    <coordinates>13.278742099999997,51.379012359999976,0.0</coordinates>
                </Point>
                <Point id="4384">
                    <coordinates>13.27898908,51.37910716999998,0.0</coordinates>
                </Point>
                <Point id="4386">
                    <coordinates>13.278669949999998,51.378696769999976,0.0</coordinates>
                </Point>
                <Point id="4388">
                    <coordinates>13.279603469999998,51.37847399,0.0</coordinates>
                </Point>
                <Point id="4390">
                    <coordinates>13.27964951,51.378124209999996,0.0</coordinates>
                </Point>
                <Point id="4392">
                    <coordinates>13.33640197,51.07816394000001,0.0</coordinates>
                </Point>
                <Point id="4394">
                    <coordinates>13.357769559999998,51.357132239999984,0.0</coordinates>
                </Point>
                <Point id="4396">
                    <coordinates>13.35704108,51.35684904,0.0</coordinates>
                </Point>
                <Point id="4398">
                    <coordinates>13.35747113,51.35772995999999,0.0</coordinates>
                </Point>
                <Point id="4400">
                    <coordinates>13.356146589999998,51.35744545999998,0.0</coordinates>
                </Point>
                <Point id="4402">
                    <coordinates>13.356738419999997,51.35711856000001,0.0</coordinates>
                </Point>
                <Point id="4404">
                    <coordinates>13.278591569999996,51.37965590999999,0.0</coordinates>
                </Point>
                <Point id="4406">
                    <coordinates>13.278130509999999,51.37934738999999,0.0</coordinates>
                </Point>
                <Point id="4408">
                    <coordinates>13.27947815,51.37827057999999,0.0</coordinates>
                </Point>
                <Point id="4410">
                    <coordinates>13.279715519999998,51.37804800999999,0.0</coordinates>
                </Point>
                <Point id="4412">
                    <coordinates>13.27983072,51.37876181999999,0.0</coordinates>
                </Point>
                <Point id="4414">
                    <coordinates>13.254176939999997,51.374298389999986,0.0</coordinates>
                </Point>
                <Point id="4416">
                    <coordinates>13.25272957,51.366188739999984,0.0</coordinates>
                </Point>
                <Point id="4418">
                    <coordinates>13.255333129999997,51.372056999999984,0.0</coordinates>
                </Point>
                <Point id="4420">
                    <coordinates>13.257132229999998,51.371372040000004,0.0</coordinates>
                </Point>
                <Point id="4422">
                    <coordinates>13.23894647,51.36196057,0.0</coordinates>
                </Point>
                <Point id="4424">
                    <coordinates>13.248572989999998,51.35314094000001,0.0</coordinates>
                </Point>
                <Point id="4426">
                    <coordinates>13.248421079999998,51.35324571999999,0.0</coordinates>
                </Point>
                <Point id="4428">
                    <coordinates>13.24827881,51.353268149999984,0.0</coordinates>
                </Point>
                <Point id="4430">
                    <coordinates>13.248132619999998,51.353369959999995,0.0</coordinates>
                </Point>
                <Point id="4432">
                    <coordinates>13.248022019999999,51.3534977,0.0</coordinates>
                </Point>
                <Point id="4434">
                    <coordinates>13.247828879999998,51.353568579999994,0.0</coordinates>
                </Point>
                <Point id="4436">
                    <coordinates>13.247462359999997,51.3534535,0.0</coordinates>
                </Point>
                <Point id="4438">
                    <coordinates>13.238609319999998,51.361914429999985,0.0</coordinates>
                </Point>
                <Point id="4440">
                    <coordinates>13.238624450000001,51.362077419999984,0.0</coordinates>
                </Point>
                <Point id="4442">
                    <coordinates>13.23923425,51.36232248999999,0.0</coordinates>
                </Point>
                <Point id="4444">
                    <coordinates>13.239489290000002,51.362411390000005,0.0</coordinates>
                </Point>
                <Point id="4446">
                    <coordinates>13.2398819,51.36243882999998,0.0</coordinates>
                </Point>
                <Point id="4448">
                    <coordinates>13.246398,51.353817,0.0</coordinates>
                </Point>
                <Point id="4450">
                    <coordinates>13.356715999999997,51.35729299999999,0.0</coordinates>
                </Point>
                <Point id="4452">
                    <coordinates>13.350995,51.34470399999999,0.0</coordinates>
                </Point>
                <Point id="4454">
                    <coordinates>13.362842999999996,51.360370999999994,0.0</coordinates>
                </Point>
                <Point id="4456">
                    <coordinates>13.354832999999996,51.34301099999998,0.0</coordinates>
                </Point>
                <Point id="4458">
                    <coordinates>13.257214999999999,51.37158999999999,0.0</coordinates>
                </Point>
                <Point id="4460">
                    <coordinates>13.362865999999999,51.33601899999999,0.0</coordinates>
                </Point>
                <Point id="4462">
                    <coordinates>13.383988999999996,51.36407599999999,0.0</coordinates>
                </Point>
                <Point id="4464">
                    <coordinates>13.383925999999999,51.36402099999999,0.0</coordinates>
                </Point>
                <Point id="4466">
                    <coordinates>13.3838,51.363918,0.0</coordinates>
                </Point>
                <Point id="4468">
                    <coordinates>13.383744,51.36386199999998,0.0</coordinates>
                </Point>
                <Point id="4470">
                    <coordinates>13.383619999999999,51.36376299999999,0.0</coordinates>
                </Point>
                <Point id="4472">
                    <coordinates>13.383562999999999,51.36370399999999,0.0</coordinates>
                </Point>
                <Point id="4474">
                    <coordinates>13.383888999999996,51.363722999999986,0.0</coordinates>
                </Point>
                <Point id="4476">
                    <coordinates>13.384260999999999,51.36368999999999,0.0</coordinates>
                </Point>
            </MultiGeometry>
        </Placemark>
    </Document>
</kml>
